{"type":"FeatureCollection","features":[{"type":"Feature","geometry":{"type":"Point","coordinates":[121.522306,25.088883]},"properties":{"name":"士林社會福利服務中心","county":"臺北市","service_area":"士林區"}},{"type":"Feature","geometry":{"type":"Point","coordinates":[121.515142,25.06602]},"properties":{"name":"大同社會福利服務中心","county":"臺北市","service_area":"大同區"}},{"type":"Feature","geometry":{"type":"Point","coordinates":[121.545907,25.026569]},"properties":{"name":"大安社會福利服務中心","county":"臺北市","service_area":"大安區"}},{"type":"Feature","geometry":{"type":"Point","coordinates":[121.539332,25.061656]},"properties":{"name":"中山社會福利服務中心","county":"臺北市","service_area":"中山區"}},{"type":"Feature","geometry":{"type":"Point","coordinates":[121.507665,25.032886]},"properties":{"name":"中正社會福利服務中心","county":"臺北市","service_area":"中正區"}},{"type":"Feature","geometry":{"type":"Point","coordinates":[121.596127,25.081136]},"properties":{"name":"內湖社會福利服務中心","county":"臺北市","service_area":"內湖區"}},{"type":"Feature","geometry":{"type":"Point","coordinates":[121.551407,25.00157]},"properties":{"name":"文山社會福利服務中心","county":"臺北市","service_area":"文山區"}},{"type":"Feature","geometry":{"type":"Point","coordinates":[121.502735,25.132673]},"properties":{"name":"北投社會福利服務中心","county":"臺北市","service_area":"北投區"}},{"type":"Feature","geometry":{"type":"Point","coordinates":[121.562908,25.059288]},"properties":{"name":"松山社會福利服務中心","county":"臺北市","service_area":"松山區"}},{"type":"Feature","geometry":{"type":"Point","coordinates":[121.567544,25.043394]},"properties":{"name":"信義社會福利服務中心","county":"臺北市","service_area":"信義區"}},{"type":"Feature","geometry":{"type":"Point","coordinates":[121.607935,25.053763]},"properties":{"name":"南港社會福利服務中心","county":"臺北市","service_area":"南港區"}},{"type":"Feature","geometry":{"type":"Point","coordinates":[121.497487,25.037373]},"properties":{"name":"萬華社會福利服務中心","county":"臺北市","service_area":"萬華區"}},{"type":"Feature","geometry":{"type":"Point","coordinates":[121.467832,25.013826]},"properties":{"name":"板橋第一社會福利服務中心","county":"新北市","service_area":"板橋區"}},{"type":"Feature","geometry":{"type":"Point","coordinates":[121.467832,25.013826]},"properties":{"name":"板橋第二社會福利服務中心","county":"新北市","service_area":""}},{"type":"Feature","geometry":{"type":"Point","coordinates":[121.44301,24.975074]},"properties":{"name":"土城社會福利服務中心","county":"新北市","service_area":"土城區、三峽區"}},{"type":"Feature","geometry":{"type":"Point","coordinates":[121.541669,24.967645]},"properties":{"name":"文山社會福利服務中心","county":"新北市","service_area":"石碇區、新店區、深坑區、坪林區、烏來區"}},{"type":"Feature","geometry":{"type":"Point","coordinates":[121.490598,25.077856]},"properties":{"name":"三重社會福利服務中心","county":"新北市","service_area":"三重區"}},{"type":"Feature","geometry":{"type":"Point","coordinates":[121.443938,25.187069]},"properties":{"name":"北海岸社會福利服務中心","county":"新北市","service_area":"淡水區、三芝區、石門區"}},{"type":"Feature","geometry":{"type":"Point","coordinates":[121.427776,25.029502]},"properties":{"name":"新莊社會福利服務中心","county":"新北市","service_area":"新莊區"}},{"type":"Feature","geometry":{"type":"Point","coordinates":[121.427776,25.029502]},"properties":{"name":"泰五林社會福利服務中心","county":"新北市","service_area":"泰山區、林口區、五股區"}},{"type":"Feature","geometry":{"type":"Point","coordinates":[121.506503,24.989655]},"properties":{"name":"永和社會福利服務中心","county":"新北市","service_area":"永和區"}},{"type":"Feature","geometry":{"type":"Point","coordinates":[121.506503,24.989655]},"properties":{"name":"中和社會福利服務中心","county":"新北市","service_area":"中和區"}},{"type":"Feature","geometry":{"type":"Point","coordinates":[121.658977,25.063829]},"properties":{"name":"七星社會福利服務中心","county":"新北市","service_area":"汐止區、金山區、萬里區"}},{"type":"Feature","geometry":{"type":"Point","coordinates":[121.481622,25.08483]},"properties":{"name":"蘆洲社會福利服務中心","county":"新北市","service_area":"蘆洲區、八里區"}},{"type":"Feature","geometry":{"type":"Point","coordinates":[121.426485,24.993503]},"properties":{"name":"樹鶯社會福利服務中心","county":"新北市","service_area":"樹林區、鶯歌區"}},{"type":"Feature","geometry":{"type":"Point","coordinates":[121.806597,25.109546]},"properties":{"name":"瑞芳社會福利服務中心","county":"新北市","service_area":"雙溪區、瑞芳區、貢寮區、平溪區"}},{"type":"Feature","geometry":{"type":"Point","coordinates":[121.307054,24.979556]},"properties":{"name":"桃園家庭服務中心","county":"桃園市","service_area":"桃園區"}},{"type":"Feature","geometry":{"type":"Point","coordinates":[121.278678,24.990212]},"properties":{"name":"中路家庭服務中心","county":"桃園市","service_area":"桃園區"}},{"type":"Feature","geometry":{"type":"Point","coordinates":[121.294556,25.047076]},"properties":{"name":"蘆竹家庭服務中心","county":"桃園市","service_area":"蘆竹區"}},{"type":"Feature","geometry":{"type":"Point","coordinates":[121.285613,24.929417]},"properties":{"name":"八德家庭服務中心","county":"桃園市","service_area":"八德區"}},{"type":"Feature","geometry":{"type":"Point","coordinates":[121.228005,24.959848]},"properties":{"name":"中壢家庭服務中心","county":"桃園市","service_area":"中壢區"}},{"type":"Feature","geometry":{"type":"Point","coordinates":[121.250633,24.976233]},"properties":{"name":"內壢家庭服務中心","county":"桃園市","service_area":"中壢區"}},{"type":"Feature","geometry":{"type":"Point","coordinates":[121.083808,25.027885]},"properties":{"name":"觀音家庭服務中心","county":"桃園市","service_area":"觀音區"}},{"type":"Feature","geometry":{"type":"Point","coordinates":[121.193567,25.065997]},"properties":{"name":"大園家庭服務中心","county":"桃園市","service_area":"大園區"}},{"type":"Feature","geometry":{"type":"Point","coordinates":[121.286115,24.883112]},"properties":{"name":"大溪家庭服務中心","county":"桃園市","service_area":"大溪區"}},{"type":"Feature","geometry":{"type":"Point","coordinates":[121.362412,24.79742]},"properties":{"name":"復興家庭服務中心","county":"桃園市","service_area":"復興區"}},{"type":"Feature","geometry":{"type":"Point","coordinates":[121.338484,24.992012]},"properties":{"name":"龜山家庭服務中心","county":"桃園市","service_area":"龜山區"}},{"type":"Feature","geometry":{"type":"Point","coordinates":[121.206745,24.86882]},"properties":{"name":"龍潭家庭服務中心","county":"桃園市","service_area":"龍潭區"}},{"type":"Feature","geometry":{"type":"Point","coordinates":[121.215639,24.9509]},"properties":{"name":"平鎮家庭服務中心","county":"桃園市","service_area":"平鎮區"}},{"type":"Feature","geometry":{"type":"Point","coordinates":[121.148222,24.89799]},"properties":{"name":"楊梅家庭服務中心","county":"桃園市","service_area":"楊梅區"}},{"type":"Feature","geometry":{"type":"Point","coordinates":[121.104665,24.972546]},"properties":{"name":"新屋家庭服務中心","county":"桃園市","service_area":"新屋區"}},{"type":"Feature","geometry":{"type":"Point","coordinates":[120.655329,24.136492]},"properties":{"name":"北區家庭福利服務中心","county":"臺中市","service_area":"北區"}},{"type":"Feature","geometry":{"type":"Point","coordinates":[120.707607,24.173717]},"properties":{"name":"北屯家庭福利服務中心","county":"臺中市","service_area":"北屯區"}},{"type":"Feature","geometry":{"type":"Point","coordinates":[120.655329,24.136492]},"properties":{"name":"西區家庭福利服務中心","county":"臺中市","service_area":"中區、西區"}},{"type":"Feature","geometry":{"type":"Point","coordinates":[120.56524,24.230904]},"properties":{"name":"沙鹿家庭福利服務中心","county":"臺中市","service_area":"沙鹿區、清水區、梧棲區"}},{"type":"Feature","geometry":{"type":"Point","coordinates":[120.730385,24.112794]},"properties":{"name":"太平家庭福利服務中心","county":"臺中市","service_area":"太平區"}},{"type":"Feature","geometry":{"type":"Point","coordinates":[120.720695,24.246684]},"properties":{"name":"豐原家庭福利服務中心","county":"臺中市","service_area":"豐原區、后里區"}},{"type":"Feature","geometry":{"type":"Point","coordinates":[120.627098,24.341078]},"properties":{"name":"大甲家庭福利服務中心","county":"臺中市","service_area":"大甲區、外埔區、大安區"}},{"type":"Feature","geometry":{"type":"Point","coordinates":[120.813059,24.262068]},"properties":{"name":"石岡家庭福利服務中心","county":"臺中市","service_area":"石岡區、東勢區、新社區、和平區"}},{"type":"Feature","geometry":{"type":"Point","coordinates":[120.698064,24.106749]},"properties":{"name":"大里家庭福利服務中心","county":"臺中市","service_area":"大里區、霧峰區"}},{"type":"Feature","geometry":{"type":"Point","coordinates":[120.64777,24.229098]},"properties":{"name":"大雅家庭福利服務中心","county":"臺中市","service_area":"大雅區、潭子區、神岡區"}},{"type":"Feature","geometry":{"type":"Point","coordinates":[120.633721,24.165489]},"properties":{"name":"西屯家庭福利服務中心","county":"臺中市","service_area":"西屯區"}},{"type":"Feature","geometry":{"type":"Point","coordinates":[120.683687,24.133386]},"properties":{"name":"東區家庭福利服務中心","county":"臺中市","service_area":"東區、南區"}},{"type":"Feature","geometry":{"type":"Point","coordinates":[120.643,24.138152]},"properties":{"name":"南屯家庭福利服務中心","county":"臺中市","service_area":"南屯區"}},{"type":"Feature","geometry":{"type":"Point","coordinates":[120.62387,24.104996]},"properties":{"name":"烏日家庭福利服務中心","county":"臺中市","service_area":"烏日區、大肚區、龍井區"}},{"type":"Feature","geometry":{"type":"Point","coordinates":[120.313735,23.31184]},"properties":{"name":"新營區社會福利服務中心","county":"臺南市","service_area":"新營區、鹽水區、白河區、柳營區、後壁區、東山區"}},{"type":"Feature","geometry":{"type":"Point","coordinates":[120.177639,23.164653]},"properties":{"name":"北門區社會福利服務中心","county":"臺南市","service_area":"佳里區、學甲區、西港區、七股區、將軍區、北門區"}},{"type":"Feature","geometry":{"type":"Point","coordinates":[120.293044,23.132021]},"properties":{"name":"善化區社會福利服務中心","county":"臺南市","service_area":"善化區、新市區、安定區、新化區、山上區"}},{"type":"Feature","geometry":{"type":"Point","coordinates":[120.458951,23.122396]},"properties":{"name":"玉井區社會福利服務中心","county":"臺南市","service_area":"玉井區、楠西區、南化區、左鎮區"}},{"type":"Feature","geometry":{"type":"Point","coordinates":[120.293962,22.967228]},"properties":{"name":"新豐區社會福利服務中心","county":"臺南市","service_area":"仁德區、歸仁區、關廟區、龍崎嶇"}},{"type":"Feature","geometry":{"type":"Point","coordinates":[120.16677,23.000711]},"properties":{"name":"安平區社會福利服務中心","county":"臺南市","service_area":"中西區、安平區"}},{"type":"Feature","geometry":{"type":"Point","coordinates":[120.237669,23.000128]},"properties":{"name":"永康區社會福利服務中心","county":"臺南市","service_area":"永康區"}},{"type":"Feature","geometry":{"type":"Point","coordinates":[120.205991,23.036779]},"properties":{"name":"安南區社會福利服務中心","county":"臺南市","service_area":"安南區"}},{"type":"Feature","geometry":{"type":"Point","coordinates":[120.249368,23.185342]},"properties":{"name":"麻豆區社會福利服務中心","county":"臺南市","service_area":"麻豆區、下營區、六甲區、官田區、大內區"}},{"type":"Feature","geometry":{"type":"Point","coordinates":[120.203887,22.979408]},"properties":{"name":"南區社會福利服務中心","county":"臺南市","service_area":"南區"}},{"type":"Feature","geometry":{"type":"Point","coordinates":[120.224944,22.99952]},"properties":{"name":"東區社會福利服務中心","county":"臺南市","service_area":"東區"}},{"type":"Feature","geometry":{"type":"Point","coordinates":[120.2235,23.010365]},"properties":{"name":"北區社會福利服務中心","county":"臺南市","service_area":"北區"}},{"type":"Feature","geometry":{"type":"Point","coordinates":[120.294786,22.690075]},"properties":{"name":"左營社會福利服務中心","county":"高雄市","service_area":"左營區"}},{"type":"Feature","geometry":{"type":"Point","coordinates":[120.325014,22.649315]},"properties":{"name":"三民社會福利服務中心","county":"高雄市","service_area":"三民區"}},{"type":"Feature","geometry":{"type":"Point","coordinates":[120.309751,22.631094]},"properties":{"name":"新興社會福利服務中心","county":"高雄市","service_area":"新興區、前金區"}},{"type":"Feature","geometry":{"type":"Point","coordinates":[120.308329,22.727108]},"properties":{"name":"楠梓社會福利服務中心","county":"高雄市","service_area":"楠梓區"}},{"type":"Feature","geometry":{"type":"Point","coordinates":[120.318888,22.586822]},"properties":{"name":"前鎮社會福利服務中心","county":"高雄市","service_area":"前鎮區"}},{"type":"Feature","geometry":{"type":"Point","coordinates":[120.324373,22.622346]},"properties":{"name":"苓雅社會福利服務中心","county":"高雄市","service_area":"苓雅區"}},{"type":"Feature","geometry":{"type":"Point","coordinates":[120.370665,22.562381]},"properties":{"name":"小港社會福利服務中心","county":"高雄市","service_area":"小港區"}},{"type":"Feature","geometry":{"type":"Point","coordinates":[120.281842,22.626659]},"properties":{"name":"鹽埕社會福利服務中心","county":"高雄市","service_area":"鹽埕區、鼓山區"}},{"type":"Feature","geometry":{"type":"Point","coordinates":[120.284549,22.590402]},"properties":{"name":"旗津社會福利服務中心","county":"高雄市","service_area":"旗津區"}},{"type":"Feature","geometry":{"type":"Point","coordinates":[120.372249,22.700423]},"properties":{"name":"仁武社會福利服務中心","county":"高雄市","service_area":"大社區、大樹區、仁武區、鳥松區"}},{"type":"Feature","geometry":{"type":"Point","coordinates":[120.347007,22.629776]},"properties":{"name":"鳳山社會福利服務中心","county":"高雄市","service_area":"鳳山區國泰路以北共41里"}},{"type":"Feature","geometry":{"type":"Point","coordinates":[120.393595,22.604532]},"properties":{"name":"大寮社會福利服務中心","county":"高雄市","service_area":"大寮區、林園區"}},{"type":"Feature","geometry":{"type":"Point","coordinates":[120.334907,22.597585]},"properties":{"name":"鳳山五甲社會福利服務中心","county":"高雄市","service_area":"鳳山區國泰路以南共35里"}},{"type":"Feature","geometry":{"type":"Point","coordinates":[120.303364,22.800327]},"properties":{"name":"岡山社會福利服務中心","county":"高雄市","service_area":"岡山區、橋頭區、燕巢區、梓官區、永安區、彌陀區"}},{"type":"Feature","geometry":{"type":"Point","coordinates":[120.261757,22.856787]},"properties":{"name":"路竹社會福利服務中心","county":"高雄市","service_area":"路竹區、湖內區、茄萣區、阿蓮區、田寮區"}},{"type":"Feature","geometry":{"type":"Point","coordinates":[120.479916,22.89019]},"properties":{"name":"旗山社會福利服務中心","county":"高雄市","service_area":"旗山區、美濃區、內門區、杉林區"}},{"type":"Feature","geometry":{"type":"Point","coordinates":[120.634884,22.995506]},"properties":{"name":"六龜社會福利服務中心","county":"高雄市","service_area":"六龜區、桃源區、茂林區"}},{"type":"Feature","geometry":{"type":"Point","coordinates":[120.58816,23.083352]},"properties":{"name":"甲仙社會福利服務中心","county":"高雄市","service_area":"甲仙區、那瑪夏區"}},{"type":"Feature","geometry":{"type":"Point","coordinates":[121.769905,24.820865]},"properties":{"name":"社會福利服務中心-礁溪中心","county":"宜蘭縣","service_area":"頭城鎮、礁溪鄉、壯圍鄉"}},{"type":"Feature","geometry":{"type":"Point","coordinates":[121.742775,24.748412]},"properties":{"name":"社會福利服務中心-宜蘭中心","county":"宜蘭縣","service_area":"宜蘭市、員山鄉"}},{"type":"Feature","geometry":{"type":"Point","coordinates":[121.776353,24.674296]},"properties":{"name":"社會福利服務中心-羅東中心","county":"宜蘭縣","service_area":"羅東鎮、冬山鄉、五結鄉"}},{"type":"Feature","geometry":{"type":"Point","coordinates":[121.835903,24.617804]},"properties":{"name":"社會福利服務中心-蘇澳中心","county":"宜蘭縣","service_area":"蘇澳鎮、南澳鎮"}},{"type":"Feature","geometry":{"type":"Point","coordinates":[121.653579,24.665151]},"properties":{"name":"社會福利服務中心-三星中心","county":"宜蘭縣","service_area":"三星鄉、大同鄉"}},{"type":"Feature","geometry":{"type":"Point","coordinates":[121.019911,24.834005]},"properties":{"name":"新竹縣竹北區社會福利服務中心","county":"新竹縣","service_area":"竹北市"}},{"type":"Feature","geometry":{"type":"Point","coordinates":[121.071278,24.828042]},"properties":{"name":"新竹縣新湖區社會福利服務中心","county":"新竹縣","service_area":"新豐鄉、湖口鄉"}},{"type":"Feature","geometry":{"type":"Point","coordinates":[121.085054,24.727012]},"properties":{"name":"新竹縣竹東區社會福利服務中心","county":"新竹縣","service_area":"竹東鎮、寶山鄉、北埔鄉、峨眉鄉、五峰鄉"}},{"type":"Feature","geometry":{"type":"Point","coordinates":[121.071278,24.828042]},"properties":{"name":"新竹縣新埔區社會福利服務中心","county":"新竹縣","service_area":"新埔鎮、關西鎮"}},{"type":"Feature","geometry":{"type":"Point","coordinates":[121.133708,24.722495]},"properties":{"name":"新竹縣橫山區社會福利服務中心","county":"新竹縣","service_area":"橫山鄉、尖石鄉、芎林鄉"}},{"type":"Feature","geometry":{"type":"Point","coordinates":[120.818603,24.539527]},"properties":{"name":"苗栗區社會福利服務中心","county":"苗栗縣","service_area":"苗栗市、頭屋鄉、公館鄉、銅鑼鄉、三義鄉"}},{"type":"Feature","geometry":{"type":"Point","coordinates":[120.897046,24.70874]},"properties":{"name":"竹南區社會福利服務中心","county":"苗栗縣","service_area":"後龍鎮、竹南鎮、造橋鄉"}},{"type":"Feature","geometry":{"type":"Point","coordinates":[120.87636,24.456716]},"properties":{"name":"獅潭區社會福利服務中心","county":"苗栗縣","service_area":"獅潭鄉、大湖鄉、泰安鄉、卓蘭鎮"}},{"type":"Feature","geometry":{"type":"Point","coordinates":[120.691341,24.494812]},"properties":{"name":"通苑區社會福利服務中心","county":"苗栗縣","service_area":"通霄鎮、苑裡鎮、西湖鄉"}},{"type":"Feature","geometry":{"type":"Point","coordinates":[120.896642,24.687981]},"properties":{"name":"頭份區社會福利服務中心","county":"苗栗縣","service_area":"頭份市、三灣鄉、南庄鄉"}},{"type":"Feature","geometry":{"type":"Point","coordinates":[120.369435,23.904426]},"properties":{"name":"二林家庭福利服務中心","county":"彰化縣","service_area":"二林鎮、芳苑鄉、大城鄉、竹塘鄉"}},{"type":"Feature","geometry":{"type":"Point","coordinates":[120.481025,23.962145]},"properties":{"name":"溪湖家庭福利服務中心","county":"彰化縣","service_area":"溪湖鎮、埔鹽鄉、埔心鄉"}},{"type":"Feature","geometry":{"type":"Point","coordinates":[120.436247,24.061078]},"properties":{"name":"鹿港區家庭福利服務中心","county":"彰化縣","service_area":"鹿港鎮、福興鄉、秀水鄉"}},{"type":"Feature","geometry":{"type":"Point","coordinates":[120.495711,24.111803]},"properties":{"name":"和美區家庭福利服務中心","county":"彰化縣","service_area":"和美鎮、線西鄉、伸港鄉"}},{"type":"Feature","geometry":{"type":"Point","coordinates":[120.571832,23.952961]},"properties":{"name":"員林區家庭福利服務中心","county":"彰化縣","service_area":"員林市、大村鄉、永靖鄉"}},{"type":"Feature","geometry":{"type":"Point","coordinates":[120.550462,24.086152]},"properties":{"name":"彰化區家庭福利服務中心","county":"彰化縣","service_area":"彰化市、花壇鄉、芬園鄉"}},{"type":"Feature","geometry":{"type":"Point","coordinates":[120.580536,23.861518]},"properties":{"name":"田中區家庭福利服務中心","county":"彰化縣","service_area":"社頭鄉、田中鎮、二水鄉"}},{"type":"Feature","geometry":{"type":"Point","coordinates":[120.521856,23.871395]},"properties":{"name":"北斗區家庭福利服務中心","county":"彰化縣","service_area":"北斗鎮、田尾鄉、埤頭鄉、溪州鄉"}},{"type":"Feature","geometry":{"type":"Point","coordinates":[120.677047,23.906355]},"properties":{"name":"南投區社會福利服務中心","county":"南投縣","service_area":"南投市、名間鄉"}},{"type":"Feature","geometry":{"type":"Point","coordinates":[120.970756,23.970979]},"properties":{"name":"埔里區社會福利服務中心","county":"南投縣","service_area":"仁愛鄉、埔里鎮、國姓鄉"}},{"type":"Feature","geometry":{"type":"Point","coordinates":[120.856075,23.811322]},"properties":{"name":"水里區社會福利服務中心","county":"南投縣","service_area":"水里鄉、集集鎮、魚池鄉、信義鄉"}},{"type":"Feature","geometry":{"type":"Point","coordinates":[120.681685,23.758274]},"properties":{"name":"竹鹿區社會福利服務中心","county":"南投縣","service_area":"竹山鎮、鹿谷鄉"}},{"type":"Feature","geometry":{"type":"Point","coordinates":[120.699011,23.978524]},"properties":{"name":"草屯區社會福利服務中心","county":"南投縣","service_area":"草屯鎮、中寮鄉"}},{"type":"Feature","geometry":{"type":"Point","coordinates":[120.446818,23.707147]},"properties":{"name":"虎尾區社會福利服務中心","county":"雲林縣","service_area":"虎尾鎮、土庫鎮、褒忠鄉、東勢鄉"}},{"type":"Feature","geometry":{"type":"Point","coordinates":[120.195772,23.700407]},"properties":{"name":"台西區社會福利服務中心","county":"雲林縣","service_area":"台西鄉、麥寮鄉"}},{"type":"Feature","geometry":{"type":"Point","coordinates":[120.300747,23.58223]},"properties":{"name":"北港區社會福利服務中心","county":"雲林縣","service_area":"元長鄉、北港鎮、水林鄉、口湖鄉、四湖鄉"}},{"type":"Feature","geometry":{"type":"Point","coordinates":[120.457203,23.799462]},"properties":{"name":"西螺區社會福利服務中心","county":"雲林縣","service_area":"西螺鎮、二崙鄉、崙背鄉"}},{"type":"Feature","geometry":{"type":"Point","coordinates":[120.479242,23.670968]},"properties":{"name":"斗南區社會福利服務中心","county":"雲林縣","service_area":"斗南鎮、古坑鄉、大埤鄉"}},{"type":"Feature","geometry":{"type":"Point","coordinates":[120.541515,23.705001]},"properties":{"name":"斗六區社會福利服務中心","county":"雲林縣","service_area":"斗六市、林內鄉、莿桐鄉"}},{"type":"Feature","geometry":{"type":"Point","coordinates":[120.42057,23.527369]},"properties":{"name":"日安民雄社會福利服務中心","county":"嘉義縣","service_area":"民雄鄉、大林鎮、溪口鄉、新港鄉"}},{"type":"Feature","geometry":{"type":"Point","coordinates":[120.534425,23.498859]},"properties":{"name":"日安竹崎社會福利服務中心","county":"嘉義縣","service_area":"竹崎鄉、梅山鄉、阿里山鄉"}},{"type":"Feature","geometry":{"type":"Point","coordinates":[120.415164,23.43529]},"properties":{"name":"日安水上社會福利服務中心","county":"嘉義縣","service_area":"太保市、水上鄉、鹿草鄉"}},{"type":"Feature","geometry":{"type":"Point","coordinates":[120.249663,23.466081]},"properties":{"name":"日安朴子社會福利服務中心","county":"嘉義縣","service_area":"朴子市、六腳鄉、東石鄉"}},{"type":"Feature","geometry":{"type":"Point","coordinates":[120.494405,23.446094]},"properties":{"name":"日安中埔社會福利服務中心","county":"嘉義縣","service_area":"中埔鄉、番路鄉、大埔鄉"}},{"type":"Feature","geometry":{"type":"Point","coordinates":[120.152532,23.379964]},"properties":{"name":"日安布袋社會福利服務中心","county":"嘉義縣","service_area":"義竹鄉、布袋鎮"}},{"type":"Feature","geometry":{"type":"Point","coordinates":[120.501272,22.684786]},"properties":{"name":"屏東社會福利服務中心","county":"屏東縣","service_area":"屏東市、萬丹鄉、長治鄉、麟洛鄉"}},{"type":"Feature","geometry":{"type":"Point","coordinates":[120.577823,22.760016]},"properties":{"name":"鹽埔社會福利服務中心","county":"屏東縣","service_area":"鹽埔鄉、九如鄉、高樹鄉、里港鄉、三地門鄉、霧台鄉"}},{"type":"Feature","geometry":{"type":"Point","coordinates":[120.442818,22.467743]},"properties":{"name":"東港社會福利服務中心","county":"屏東縣","service_area":"東港鎮、南州鄉、林邊鄉、崁頂鄉、新園鄉、琉球鄉"}},{"type":"Feature","geometry":{"type":"Point","coordinates":[120.748382,22.003512]},"properties":{"name":"恆春社會福利服務中心","county":"屏東縣","service_area":"車城鄉、牡丹鄉、滿州鄉、恆春鎮"}},{"type":"Feature","geometry":{"type":"Point","coordinates":[120.536438,22.53435]},"properties":{"name":"潮州社會福利服務中心","county":"屏東縣","service_area":"潮州鎮、竹田鄉、新埤鄉、來義鄉"}},{"type":"Feature","geometry":{"type":"Point","coordinates":[120.563008,22.606041]},"properties":{"name":"內埔社會福利服務中心","county":"屏東縣","service_area":"內埔鄉、萬巒鄉、瑪家鄉、泰武鄉"}},{"type":"Feature","geometry":{"type":"Point","coordinates":[121.376447,23.099626]},"properties":{"name":"海岸線區社會福利服務中心","county":"臺東縣","service_area":"東河鄉、成功鎮、長濱鄉"}},{"type":"Feature","geometry":{"type":"Point","coordinates":[120.906543,22.357888]},"properties":{"name":"南迴線區社會福利服務中心","county":"臺東縣","service_area":"太麻里鄉、金峰鄉、大武鄉、達仁鄉"}},{"type":"Feature","geometry":{"type":"Point","coordinates":[121.158034,22.758325]},"properties":{"name":"臺東市區社會福利服務中心","county":"臺東縣","service_area":"臺東市、卑南鄉、綠島鄉、蘭嶼鄉"}},{"type":"Feature","geometry":{"type":"Point","coordinates":[121.161234,23.046568]},"properties":{"name":"縱谷線區社會福利服務中心","county":"臺東縣","service_area":"關山鎮、池上鄉、海瑞鄉、鹿野鄉、延平鄉"}},{"type":"Feature","geometry":{"type":"Point","coordinates":[121.609982,24.03682]},"properties":{"name":"花蓮縣新秀社會福利服務中心","county":"花蓮縣","service_area":"新城鄉、秀林鄉(文蘭村、銅門村除外)"}},{"type":"Feature","geometry":{"type":"Point","coordinates":[121.628943,23.991022]},"properties":{"name":"花蓮縣花蓮市社會福利服務中心","county":"花蓮縣","service_area":"花蓮市(共44里)"}},{"type":"Feature","geometry":{"type":"Point","coordinates":[121.566981,23.979998]},"properties":{"name":"花蓮縣吉安社會福利服務中心","county":"花蓮縣","service_area":"吉安鄉(含秀林鄉文蘭村、銅門村)"}},{"type":"Feature","geometry":{"type":"Point","coordinates":[121.449421,23.741523]},"properties":{"name":"花蓮縣中區社會福利服務中心","county":"花蓮縣","service_area":"壽豐鄉、鳳林鎮、光復鄉、萬榮鄉、豐濱鄉"}},{"type":"Feature","geometry":{"type":"Point","coordinates":[121.320388,23.340955]},"properties":{"name":"花蓮縣南區社會福利服務中心","county":"花蓮縣","service_area":"瑞穗鄉、玉里鎮、富里鄉、卓溪鄉"}},{"type":"Feature","geometry":{"type":"Point","coordinates":[119.497324,23.356626]},"properties":{"name":"望安七美社會福利服務中心","county":"澎湖縣","service_area":"望安鄉，七美鄉"}},{"type":"Feature","geometry":{"type":"Point","coordinates":[119.422365,23.208472]},"properties":{"name":"七美據點","county":"澎湖縣","service_area":""}},{"type":"Feature","geometry":{"type":"Point","coordinates":[119.516648,23.654069]},"properties":{"name":"白沙西嶼社會福利服務中心","county":"澎湖縣","service_area":"白沙鄉、西嶼鄉"}},{"type":"Feature","geometry":{"type":"Point","coordinates":[119.572548,23.575134]},"properties":{"name":"馬公湖西社會福利服務中心","county":"澎湖縣","service_area":"馬公市、湖西鄉"}},{"type":"Feature","geometry":{"type":"Point","coordinates":[119.658759,23.585762]},"properties":{"name":"湖西據點","county":"澎湖縣","service_area":""}},{"type":"Feature","geometry":{"type":"Point","coordinates":[121.750333,25.13719]},"properties":{"name":"正義社會福利服務中心","county":"基隆市","service_area":"中正區、信義區"}},{"type":"Feature","geometry":{"type":"Point","coordinates":[121.726055,25.144148]},"properties":{"name":"仁山社會福利服務中心","county":"基隆市","service_area":"中山區、仁愛區"}},{"type":"Feature","geometry":{"type":"Point","coordinates":[121.719533,25.125941]},"properties":{"name":"安樂社會福利服務中心","county":"基隆市","service_area":"安樂區"}},{"type":"Feature","geometry":{"type":"Point","coordinates":[121.713231,25.095863]},"properties":{"name":"暖七社會福利服務中心","county":"基隆市","service_area":"基隆市暖暖、七堵全區"}},{"type":"Feature","geometry":{"type":"Point","coordinates":[121.004289,24.794944]},"properties":{"name":"新竹市東區社會福利服務中心","county":"新竹市","service_area":"東區"}},{"type":"Feature","geometry":{"type":"Point","coordinates":[120.947991,24.8022]},"properties":{"name":"新竹市北區社會福利服務中心","county":"新竹市","service_area":"北區"}},{"type":"Feature","geometry":{"type":"Point","coordinates":[120.905219,24.750422]},"properties":{"name":"新竹市香山區社會福利服務中心","county":"新竹市","service_area":"香山區"}},{"type":"Feature","geometry":{"type":"Point","coordinates":[120.460809,23.470279]},"properties":{"name":"嘉義市東區社會福利服務中心","county":"嘉義市","service_area":"嘉義市東區"}},{"type":"Feature","geometry":{"type":"Point","coordinates":[120.447427,23.480986]},"properties":{"name":"嘉義市西區社會福利服務中心","county":"嘉義市","service_area":"嘉義市西區"}},{"type":"Feature","geometry":{"type":"Point","coordinates":[118.324107,24.439637]},"properties":{"name":"金城社會福利服務中心","county":"金門縣","service_area":"金城鎮、金寧鄉、烈嶼鄉"}},{"type":"Feature","geometry":{"type":"Point","coordinates":[118.417006,24.440189]},"properties":{"name":"金湖社會福利服務中心","county":"金門縣","service_area":"金湖鎮、金沙鎮"}},{"type":"Feature","geometry":{"type":"Point","coordinates":[119.95101,26.157733]},"properties":{"name":"連江縣社會福利服務中心","county":"連江縣","service_area":"連江縣"}}]}