{
"type": "FeatureCollection",
"name": "dam_lakes_in_forest",
"crs": { "type": "name", "properties": { "name": "urn:ogc:def:crs:OGC:1.3:CRS84" } },
"features": [
{ "type": "Feature", "properties": { "名稱": "士文溪堰塞湖", "代表座標X": 219072.0, "代表座標Y": 2477136.0, "發現時間": "098-08-13", "權屬事業區": "潮州事業區20林班", "概要說明": "右岸地滑崩塌形成，蓄水體積約122萬立方公尺。經多次挖降工程，已回復河道型態。", "更新日期": "2014/04/08", "COUNTYNAME": "屏東縣", "TOWNNAME": "春日鄉", "VILLNAME": "士文村" }, "geometry": { "type": "Point", "coordinates": [ 120.699626149327216, 22.393310003110429 ] } },
{ "type": "Feature", "properties": { "名稱": "太麻里溪包盛社堰塞湖", "代表座標X": 230201.0, "代表座標Y": 2497915.0, "發現時間": "098-08-13", "權屬事業區": "大武事業區10林班", "概要說明": "支流發生大量崩塌，面積約250公頃，形成堰塞湖約533萬立方公尺蓄水量。經多期挖降工程及洪水自然沖刷，目前原湖區已無蓄水(持續淤積中)。", "更新日期": "2014/04/08", "COUNTYNAME": "臺東縣", "TOWNNAME": "金峰鄉", "VILLNAME": "歷坵村" }, "geometry": { "type": "Point", "coordinates": [ 120.807451405939474, 22.581135280089562 ] } },
{ "type": "Feature", "properties": { "名稱": "鹿野溪上游支流堰塞湖", "代表座標X": 241277.0, "代表座標Y": 2527729.0, "發現時間": "105-04-04", "權屬事業區": "延平事業區38林班", "概要說明": "空勘發現堰塞湖，崩塌面積約1.4公頃，約2.2萬立方公尺蓄水量。後因颱風豪雨沖潰，湖水消失，目前河道溪水正常流通。", "更新日期": "2016/10/18", "COUNTYNAME": "臺東縣", "TOWNNAME": "延平鄉", "VILLNAME": "紅葉村" }, "geometry": { "type": "Point", "coordinates": [ 120.915000009902016, 22.850483835055329 ] } },
{ "type": "Feature", "properties": { "名稱": "鹿野溪桃林堰塞湖", "代表座標X": 242562.0, "代表座標Y": 2532855.0, "發現時間": "103-10-26", "權屬事業區": "延平事業區25林班", "概要說明": "林地巡查發現堰塞湖，推估約15萬立方公尺蓄水量，2015/6/13衛星影像確認，湖區出現交互沙洲，確認堰塞湖潰流消失。", "更新日期": "2015/06/13", "COUNTYNAME": "臺東縣", "TOWNNAME": "延平鄉", "VILLNAME": "紅葉村" }, "geometry": { "type": "Point", "coordinates": [ 120.927497866279339, 22.896778404800251 ] } },
{ "type": "Feature", "properties": { "名稱": "馬武窟溪堰塞湖", "代表座標X": 273505.0, "代表座標Y": 2538286.0, "發現時間": "105-08-01", "權屬事業區": null, "概要說明": "民眾通報發現崩塌阻塞河道，崩塌面積約1.2公頃，處理單位為水土保持局台東分局，河道溪水正常流通。", "更新日期": "2020/06/23", "COUNTYNAME": "臺東縣", "TOWNNAME": "東河鄉", "VILLNAME": "尚德村" }, "geometry": { "type": "Point", "coordinates": [ 121.229197550114847, 22.945675838065423 ] } },
{ "type": "Feature", "properties": { "名稱": "鹿寮溪堰塞湖", "代表座標X": 253633.0, "代表座標Y": 2541274.0, "發現時間": "107-09-03", "權屬事業區": "延平事業區10林班", "概要說明": "107年8月23日熱帶低壓事件後造成1處崩塌擴大，生成堰塞湖，面積約1.76公頃，後續自然潰流。", "更新日期": "2020/10/21", "COUNTYNAME": "臺東縣", "TOWNNAME": "延平鄉", "VILLNAME": "桃源村" }, "geometry": { "type": "Point", "coordinates": [ 121.035432563627069, 22.972821379488146 ] } },
{ "type": "Feature", "properties": { "名稱": "寶來溪堰塞湖", "代表座標X": 235685.0, "代表座標Y": 2561679.0, "發現時間": "098-08-13", "權屬事業區": "荖濃溪事業區97林班", "概要說明": "福衛2號影像判釋發現，堰塞湖面積約1 ha，後續自然潰流。", "更新日期": "2014/04/08", "COUNTYNAME": "高雄市", "TOWNNAME": "桃源區", "VILLNAME": "寶山里" }, "geometry": { "type": "Point", "coordinates": [ 120.860196048613332, 23.157033990247889 ] } },
{ "type": "Feature", "properties": { "名稱": "旗山溪小林村堰塞湖", "代表座標X": 215531.0, "代表座標Y": 2562640.0, "發現時間": "098-08-13", "權屬事業區": "旗山事業區21林班", "概要說明": "清晨5點獻肚山崩塌形成堰塞湖，6點09分堰塞湖潰決衝擊下游，崩塌面積約251公頃，潰流造成嚴重災情", "更新日期": "2020/06/23", "COUNTYNAME": "高雄市", "TOWNNAME": "甲仙區", "VILLNAME": "小林里" }, "geometry": { "type": "Point", "coordinates": [ 120.663347098739891, 23.16541462702882 ] } },
{ "type": "Feature", "properties": { "名稱": "龍泉溪堰塞湖", "代表座標X": 268482.0, "代表座標Y": 2563530.0, "發現時間": "095-07-16", "權屬事業區": "關山事業區1、3林班", "概要說明": "地震引發崩塌約16公頃，崩塌土石量約60萬立方公尺，蓄水容量約100萬立方公尺。現況湖區已淤積。", "更新日期": "2016/10/18", "COUNTYNAME": "臺東縣", "TOWNNAME": "海端鄉", "VILLNAME": "廣原村" }, "geometry": { "type": "Point", "coordinates": [ 121.180522206043221, 23.173708087551706 ] } },
{ "type": "Feature", "properties": { "名稱": "布唐布那斯溪堰塞湖", "代表座標X": 228696.0, "代表座標Y": 2566008.0, "發現時間": "098-08-13", "權屬事業區": null, "概要說明": "布唐布那斯溪土石流出，擠壓荖濃溪匯流口形成短暫蓄水", "更新日期": "2020/06/23", "COUNTYNAME": "高雄市", "TOWNNAME": "桃源區", "VILLNAME": "勤和里" }, "geometry": { "type": "Point", "coordinates": [ 120.791879538073005, 23.196051572464484 ] } },
{ "type": "Feature", "properties": { "名稱": "布唐布那斯溪堰塞湖", "代表座標X": 228696.0, "代表座標Y": 2566008.0, "發現時間": "099-09-17", "權屬事業區": null, "概要說明": "布唐布那斯溪土砂材料流出，擠壓荖濃主流形成蓄水面積約26公頃，約70萬立方公尺蓄水量，後續自然潰流。", "更新日期": "2020/06/23", "COUNTYNAME": "高雄市", "TOWNNAME": "桃源區", "VILLNAME": "勤和里" }, "geometry": { "type": "Point", "coordinates": [ 120.791879538073005, 23.196051572464484 ] } },
{ "type": "Feature", "properties": { "名稱": "布唐布那斯溪堰塞湖", "代表座標X": 228696.0, "代表座標Y": 2566008.0, "發現時間": "100-04-16", "權屬事業區": null, "概要說明": "布唐布那斯溪土石流出，擠壓荖濃溪匯流口形成短暫蓄水增加，工程引流後消失", "更新日期": "2020/06/23", "COUNTYNAME": "高雄市", "TOWNNAME": "桃源區", "VILLNAME": "勤和里" }, "geometry": { "type": "Point", "coordinates": [ 120.791879538073005, 23.196051572464484 ] } },
{ "type": "Feature", "properties": { "名稱": "拉克斯溪堰塞湖", "代表座標X": 233656.0, "代表座標Y": 2569380.0, "發現時間": "098-08-13", "權屬事業區": "荖濃溪事業區114林班", "概要說明": "福衛2號影像判釋發現，堰塞湖面積2.2 ha，後續自然潰流。", "更新日期": "2014/04/08", "COUNTYNAME": "高雄市", "TOWNNAME": "桃源區", "VILLNAME": "拉芙蘭里" }, "geometry": { "type": "Point", "coordinates": [ 120.840297815169166, 23.226558907294546 ] } },
{ "type": "Feature", "properties": { "名稱": "旗山溪堰塞湖", "代表座標X": 224238.0, "代表座標Y": 2579871.0, "發現時間": "098-08-13", "權屬事業區": "旗山事業區16林班", "概要說明": "蓄水體積185萬立方公尺，實施多期挖降工程，並經水流劇烈下刷，於100年汛期後已無蓄水。", "更新日期": "2014/04/08", "COUNTYNAME": "高雄市", "TOWNNAME": "那瑪夏區", "VILLNAME": "達卡努瓦里" }, "geometry": { "type": "Point", "coordinates": [ 120.748094158675926, 23.321175736103875 ] } },
{ "type": "Feature", "properties": { "名稱": "荖濃溪堰塞湖", "代表座標X": 241792.0, "代表座標Y": 2581590.0, "發現時間": "098-08-13", "權屬事業區": "玉山事業區65林班", "概要說明": "8月13日福衛2號影像判釋發現已溢流", "更新日期": "2014/04/08", "COUNTYNAME": "高雄市", "TOWNNAME": "桃源區", "VILLNAME": "梅山里" }, "geometry": { "type": "Point", "coordinates": [ 120.919730985822397, 23.336880818003142 ] } },
{ "type": "Feature", "properties": { "名稱": "和社溪堰塞湖", "代表座標X": 233604.0, "代表座標Y": 2599268.0, "發現時間": "098-08-13", "權屬事業區": "臺大實驗林", "概要說明": "蓄水量小，且與下游保全對象距離遠，無致災危險性。", "更新日期": "2014/04/08", "COUNTYNAME": "南投縣", "TOWNNAME": "信義鄉", "VILLNAME": "神木村" }, "geometry": { "type": "Point", "coordinates": [ 120.839465240345703, 23.496455600786184 ] } },
{ "type": "Feature", "properties": { "名稱": "和社溪堰塞湖", "代表座標X": 233604.0, "代表座標Y": 2599268.0, "發現時間": "101-06-12", "權屬事業區": "臺大實驗林", "概要說明": "有二次阻塞紀錄(支流土石流出造成阻塞)，但僅短暫存留(遭水流自然沖刷及人工引流)", "更新日期": "2014/04/08", "COUNTYNAME": "南投縣", "TOWNNAME": "信義鄉", "VILLNAME": "神木村" }, "geometry": { "type": "Point", "coordinates": [ 120.839465240345703, 23.496455600786184 ] } },
{ "type": "Feature", "properties": { "名稱": "哈伊拉羅溪堰塞湖", "代表座標X": 255539.0, "代表座標Y": 2607749.0, "發現時間": "101-08-19", "權屬事業區": "巒大事業區204林班", "概要說明": "經歷史衛星影像判釋發現，面積約1.8公頃，後續壩體自然沖潰。", "更新日期": "2020/06/23", "COUNTYNAME": "南投縣", "TOWNNAME": "信義鄉", "VILLNAME": "東埔村" }, "geometry": { "type": "Point", "coordinates": [ 121.054264340021746, 23.573113289236968 ] } },
{ "type": "Feature", "properties": { "名稱": "哈伊拉羅溪堰塞湖", "代表座標X": 255539.0, "代表座標Y": 2607749.0, "發現時間": "103-04-21", "權屬事業區": "巒大事業區204林班", "概要說明": "舊有崩塌擴大造成再次阻塞，面積約1.8公頃，於103/7/23麥德姆颱風沖潰。", "更新日期": "2014/09/26", "COUNTYNAME": "南投縣", "TOWNNAME": "信義鄉", "VILLNAME": "東埔村" }, "geometry": { "type": "Point", "coordinates": [ 121.054264340021746, 23.573113289236968 ] } },
{ "type": "Feature", "properties": { "名稱": "鹿谷小半天堰塞湖", "代表座標X": 224713.0, "代表座標Y": 2622778.0, "發現時間": "105-06-13", "權屬事業區": null, "概要說明": "鹿谷鄉長通報，崩塌面積約0.4公頃，後續自然潰流。", "更新日期": "2020/06/23", "COUNTYNAME": "南投縣", "TOWNNAME": "鹿谷鄉", "VILLNAME": "竹林村" }, "geometry": { "type": "Point", "coordinates": [ 120.752016692860082, 23.708640077548644 ] } },
{ "type": "Feature", "properties": { "名稱": "鹿谷堰塞湖", "代表座標X": 230001.0, "代表座標Y": 2625390.0, "發現時間": "102-06-02", "權屬事業區": "臺大實驗林", "概要說明": "地震發生崩塌形成堰塞湖，崩塌面積約0.55公頃，蓄水面積約0.23公頃，土體遭水流自然沖潰，目前已無蓄水。", "更新日期": "2014/04/08", "COUNTYNAME": "南投縣", "TOWNNAME": "鹿谷鄉", "VILLNAME": "鳳凰村" }, "geometry": { "type": "Point", "coordinates": [ 120.803837311378928, 23.732296305813346 ] } },
{ "type": "Feature", "properties": { "名稱": "丹大溪堰塞湖", "代表座標X": 261669.0, "代表座標Y": 2625889.0, "發現時間": "103-07-01", "權屬事業區": "巒大事業區17林班", "概要說明": "蓄水體積約130，000立方公尺，於103/7/23麥德姆颱風沖潰。", "更新日期": "2014/09/26", "COUNTYNAME": "南投縣", "TOWNNAME": "信義鄉", "VILLNAME": "地利村" }, "geometry": { "type": "Point", "coordinates": [ 121.114460950858472, 23.736884271506757 ] } },
{ "type": "Feature", "properties": { "名稱": "萬里溪堰塞湖", "代表座標X": 288169.0, "代表座標Y": 2625890.0, "發現時間": "105-02-06", "權屬事業區": "林田山事業區112林班", "概要說明": "地震引發崩塌，推估約0.25萬立方公尺蓄水量，105年尼伯特颱風後沖潰，河道溪水正常流通。", "更新日期": "2016/08/31", "COUNTYNAME": "花蓮縣", "TOWNNAME": "萬榮鄉", "VILLNAME": "萬榮村" }, "geometry": { "type": "Point", "coordinates": [ 121.374399951728137, 23.736483210777259 ] } },
{ "type": "Feature", "properties": { "名稱": "木瓜溪銅門堰塞湖", "代表座標X": 295475.0, "代表座標Y": 2654430.0, "發現時間": "098-01-06", "權屬事業區": "木瓜山事業區19林班", "概要說明": "因地震發生堰塞湖面積約1.6公頃，體積約11萬立方公尺，後續自然潰流。", "更新日期": "2020/06/23", "COUNTYNAME": "花蓮縣", "TOWNNAME": "秀林鄉", "VILLNAME": "銅門村" }, "geometry": { "type": "Point", "coordinates": [ 121.446941848783354, 23.993993067555607 ] } },
{ "type": "Feature", "properties": { "名稱": "塔次基里溪堰塞湖", "代表座標X": 293296.0, "代表座標Y": 2673571.0, "發現時間": "104-08-21", "權屬事業區": "立霧溪事業區64林班", "概要說明": "福衛2號影像判釋發現，推估8.5萬立方公尺蓄水量，104年杜鵑颱風夾帶豪雨沖潰。", "更新日期": "2015/12/31", "COUNTYNAME": "花蓮縣", "TOWNNAME": "秀林鄉", "VILLNAME": "富世村" }, "geometry": { "type": "Point", "coordinates": [ 121.426099943069019, 24.166882906652628 ] } },
{ "type": "Feature", "properties": { "名稱": "立霧溪錐麓堰塞湖", "代表座標X": 306066.0, "代表座標Y": 2674313.0, "發現時間": "105-01-28", "權屬事業區": "立霧溪事業區85林班", "概要說明": "邊坡崩塌阻塞立霧溪形成堰塞湖，約15萬立方公尺蓄水量，配合公路總局台8線公路搶通工作，執行堰塞湖壩體挖降工作，105年尼伯特颱風後沖潰，河道溪水正常流通。", "更新日期": "2016/08/31", "COUNTYNAME": "花蓮縣", "TOWNNAME": "秀林鄉", "VILLNAME": "富世村" }, "geometry": { "type": "Point", "coordinates": [ 121.55179991039293, 24.173179188750449 ] } },
{ "type": "Feature", "properties": { "名稱": "瓦黑爾溪堰塞湖", "代表座標X": 298239.0, "代表座標Y": 2676206.0, "發現時間": "103-03-12", "權屬事業區": "立霧溪事業區54、60林班", "概要說明": "崩塌阻塞河道形成堰塞湖，約1.4萬立方公尺蓄水量，於103/7/23麥德姆颱風沖潰。", "更新日期": "2014/09/26", "COUNTYNAME": "花蓮縣", "TOWNNAME": "秀林鄉", "VILLNAME": "富世村" }, "geometry": { "type": "Point", "coordinates": [ 121.474830578685967, 24.19053044982449 ] } },
{ "type": "Feature", "properties": { "名稱": "陶塞溪堰塞湖", "代表座標X": 299004.0, "代表座標Y": 2680977.0, "發現時間": "098-12-31", "權屬事業區": "立霧溪事業區32林班", "概要說明": "地震發生崩塌形成堰塞湖，崩塌面積約10.5公頃，蓄水面積約1公頃，後續自然潰流。", "更新日期": "2014/04/08", "COUNTYNAME": "花蓮縣", "TOWNNAME": "秀林鄉", "VILLNAME": "富世村" }, "geometry": { "type": "Point", "coordinates": [ 121.482522689470443, 24.233584195588115 ] } },
{ "type": "Feature", "properties": { "名稱": "莫很溪堰塞湖", "代表座標X": 306355.0, "代表座標Y": 2708010.0, "發現時間": "101-11-09", "權屬事業區": "和平事業區61林班", "概要說明": "因崩塌土砂材料阻斷水流，蓄水面積約為 2.9 公頃，後續壩體自然沖潰。", "更新日期": "2020/06/23", "COUNTYNAME": "宜蘭縣", "TOWNNAME": "大同鄉", "VILLNAME": "太平村" }, "geometry": { "type": "Point", "coordinates": [ 121.555967713478339, 24.477411246356862 ] } },
{ "type": "Feature", "properties": { "名稱": "新竹五峰堰塞湖", "代表座標X": 261294.0, "代表座標Y": 2720609.0, "發現時間": "100-11-25", "權屬事業區": null, "概要說明": "側岸土砂阻塞河道形成，無影響保全，處理單位為水利署第2河川局", "更新日期": "2014/04/08", "COUNTYNAME": "新竹縣", "TOWNNAME": "五峰鄉", "VILLNAME": "桃山村" }, "geometry": { "type": "Point", "coordinates": [ 121.111522887317591, 24.59214848838911 ] } },
{ "type": "Feature", "properties": { "名稱": "南勢溪信賢上游堰塞湖", "代表座標X": 302448.0, "代表座標Y": 2745884.0, "發現時間": "104-08-08", "權屬事業區": null, "概要說明": "現勘時已溢流沖潰，推估約0.6萬立方公尺蓄水量。", "更新日期": "2015/12/31", "COUNTYNAME": "新北市", "TOWNNAME": "烏來區", "VILLNAME": "信賢里" }, "geometry": { "type": "Point", "coordinates": [ 121.51883976221653, 24.819487282716956 ] } },
{ "type": "Feature", "properties": { "名稱": "17寮野溪堰塞湖", "代表座標X": 298369.0, "代表座標Y": 2757492.0, "發現時間": "104-08-08", "權屬事業區": null, "概要說明": "邊坡崩塌阻塞河道，形成短暫蓄水。採機具開挖溢流道，降低約2公尺壩高，後續壩體自然沖潰。", "更新日期": "2015/12/31", "COUNTYNAME": "新北市", "TOWNNAME": "三峽區", "VILLNAME": "安坑里" }, "geometry": { "type": "Point", "coordinates": [ 121.478894165735454, 24.924424640873209 ] } }
]
}
