{
"type": "FeatureCollection",
"name": "flat_forest_parks",
"crs": { "type": "name", "properties": { "name": "urn:ogc:def:crs:OGC:1.3:CRS84" } },
"features": [
{ "type": "Feature", "properties": { "FP_NAME": "鰲鼓濕地森林園區", "FP_INTRO": "鰲鼓濕地森林園區早期為台灣糖業公司填海造陸從事農、漁、牧事業及種植甘蔗的大本營，但由於地層嚴重下陷、海水入侵地下水層，農場逐漸沒落荒廢。地勢低窪加上周邊海堤圍繞，大雨過後，魚塭及舊有農地形成天然的蓄水池，久而久之，這些水塘濕地之棲地，越來越多候鳥與留鳥棲身及停留於此，成為現今之鰲鼓濕地森林園區。\r\n\r\n大面積的造林地十年或是二十年後將茁壯成林，鰲鼓濕地將會成為具有多樣林相及豐富濕地生態資源之國際級生態環境。鰲鼓濕地森林園區以「濕地保育」與「環境教育」做為園區主要發展定位，使鰲鼓濕地森林園區成為生態旅遊及教學研究的基地。", "ADMIN_Name": "嘉義縣東石鄉", "DEP_NAME": "嘉義分署", "OPEN_TIME": "開放時間為：09:00-16:30，「鰲鼓濕地生態展示館」(旅客服務中心)與「觀海樓」星期二至星期日開館", "FP_AREA": "1470" }, "geometry": { "type": "Point", "coordinates": [ 120.574, 23.4518 ] } },
{ "type": "Feature", "properties": { "FP_NAME": "林後四林平地森林園區", "FP_INTRO": "「林後四林平地森林園區」位處屏東縣潮州鎮，為政府愛台12建設─綠色造林計畫中，所評選出三處平地森林園區的地點之一。園區期望運用森林遊憩結合綠色造林的概念，搭配符合生態、節能、減碳、健康的低密度、綠建築設計，創造一個能作為環境教育的完整生態體系，教導民眾及學童對資源環境的尊重、對生態的概念及對生活的態度；並融合屏東當地的環境特色、歷史文化、地方產業，帶動屏東地區的發展，促進區域的經濟效益並提昇傳統農業生產的價值，打造出具地方特色、導向之多元生態的知性園區，發展生態教學及深度旅遊的遊憩型態，達到綠色造林的價值。", "ADMIN_Name": "屏東縣潮州鎮", "DEP_NAME": "屏東分署", "OPEN_TIME": "遊客中心服務時間08:00~17:00。", "FP_AREA": "1005" }, "geometry": { "type": "Point", "coordinates": [ 120.488, 22.6824 ] } },
{ "type": "Feature", "properties": { "FP_NAME": "大農大富平地森林園區", "FP_INTRO": "「大農大富平地森林園區」位於花蓮縣光復鄉，地處花東縱谷，兩側是中央山脈與海岸山脈。從縱谷一路南下，約莫到了中段，過花蓮糖廠煙囪，緊接著就是一大片連綿不絕的森林。\r\n\r\n森林的外圍，有多元民族共同書寫的歷史。台灣是一座處處森林的美麗島嶼，但數百年的開發讓原始森林退出平野。21世紀開始，林業及自然保育署(前機關全銜：林務局)積極推動平地造林，十年樹木，花蓮人擁有了全國第一座平地森林--大農大富平地森林園區。\r\n\r\n位於中央山脈與海岸山脈之間，1,250公頃的園區，相當於48座大安森林公園，可說是名副其實的超級吸碳造氧機。這裡種了近20種，逾百萬株低海拔常見的樹種，好看、好用，與人類的生活息息相關。涵養大地，供應人類與其他動物日常所需，它們的丰姿、色彩，是大地最美的一頁詩篇。整體大農大富平地森林園區的規劃以結合周邊農業、城鄉文化、社區營造及環境教育等產業與資源，打造符合生態、節能、減碳、健康導向的規劃與設計，企圖形成多元知性旅遊場域，且與縱谷內遊憩景點連線，提供優質遊憩服務，同時希冀可為平地森林、在地生態景觀、地方居民生活、國人身心健康與環境產業的永續再創新機。", "ADMIN_Name": "花蓮縣光復鄉", "DEP_NAME": "花蓮分署", "OPEN_TIME": "週二～週日：08:00-17:00，中午不休息。", "FP_AREA": "1250" }, "geometry": { "type": "Point", "coordinates": [ 121.6042, 23.9871 ] } }
]
}
