{
"type": "FeatureCollection",
"name": "wildlife_distribution_3rd_alt",
"crs": { "type": "name", "properties": { "name": "urn:ogc:def:crs:OGC:1.3:CRS84" } },
"features": [
{ "type": "Feature", "properties": { "PTNAME": "獨立山", "X": 209920.9583, "Y": 2603976.4839, "Z": 741.507, "里程": "27k+274", "Station": "獨立山", "StationID": "366" }, "geometry": { "type": "Point", "coordinates": [ 120.607459322244821, 23.538561445113626 ] } },
{ "type": "Feature", "properties": { "PTNAME": "奮起湖監工區", "X": 218789.4473, "Y": 2600199.4153999998, "Z": 1402.761, "里程": "45k+352", "Station": "-", "StationID": "-" }, "geometry": { "type": "Point", "coordinates": [ 120.694396403085037, 23.504649360618362 ] } },
{ "type": "Feature", "properties": { "PTNAME": "奮起湖", "X": 218866.3799, "Y": 2600271.9104, "Z": 1404.159, "里程": "45k+458", "Station": "奮起湖", "StationID": "370" }, "geometry": { "type": "Point", "coordinates": [ 120.695148187519038, 23.505305468500371 ] } },
{ "type": "Feature", "properties": { "PTNAME": "樟腦寮", "X": 209414.8559, "Y": 2603351.0706000002, "Z": 536.558, "里程": "23k+103", "Station": "樟腦寮", "StationID": "365" }, "geometry": { "type": "Point", "coordinates": [ 120.602519533416597, 23.532901440648629 ] } },
{ "type": "Feature", "properties": { "PTNAME": "對高岳", "X": 231623.7877, "Y": 2601604.9438999998, "Z": 2389.862, "里程": "2k+023", "Station": "對高岳", "StationID": "380" }, "geometry": { "type": "Point", "coordinates": [ 120.820048204277228, 23.517537278743983 ] } },
{ "type": "Feature", "properties": { "PTNAME": "嘉義", "X": 192979.163, "Y": 2597555.439, "Z": 31.105, "里程": "0k+000", "Station": "嘉義", "StationID": "360" }, "geometry": { "type": "Point", "coordinates": [ 120.441778226421832, 23.480074156769202 ] } },
{ "type": "Feature", "properties": { "PTNAME": "鹿滿", "X": 202154.4819, "Y": 2600193.2185, "Z": 82.68, "里程": "10k+786", "Station": "鹿麻產", "StationID": "362" }, "geometry": { "type": "Point", "coordinates": [ 120.531515911933241, 23.504188707443756 ] } },
{ "type": "Feature", "properties": { "PTNAME": "梨園寮", "X": 211206.747, "Y": 2604393.324, "Z": 902.519, "里程": "31k+187", "Station": "梨園寮", "StationID": "367" }, "geometry": { "type": "Point", "coordinates": [ 120.620041515015913, 23.542356734831813 ] } },
{ "type": "Feature", "properties": { "PTNAME": "神木", "X": 230306.7546, "Y": 2601783.3952000001, "Z": 2135.65, "里程": "69k+659", "Station": "神木", "StationID": "377" }, "geometry": { "type": "Point", "coordinates": [ 120.807148669156916, 23.519133270960545 ] } },
{ "type": "Feature", "properties": { "PTNAME": "祝山", "X": 231926.142, "Y": 2600799.5923000001, "Z": 2444.728, "里程": "3k+166", "Station": "祝山", "StationID": "381" }, "geometry": { "type": "Point", "coordinates": [ 120.823018761971554, 23.510268264527511 ] } },
{ "type": "Feature", "properties": { "PTNAME": "屏遮那", "X": 227459.3362, "Y": 2600841.9996000002, "Z": 1708.805, "里程": "60k+164", "Station": "屏遮那", "StationID": "373" }, "geometry": { "type": "Point", "coordinates": [ 120.779278888963731, 23.510595362261714 ] } },
{ "type": "Feature", "properties": { "PTNAME": "阿里山監工區", "X": 230825.0518, "Y": 2601127.1874000002, "Z": 2272.606, "里程": "0k+237", "Station": "-", "StationID": "-" }, "geometry": { "type": "Point", "coordinates": [ 120.812232613402685, 23.513213856025146 ] } },
{ "type": "Feature", "properties": { "PTNAME": "阿里山(新)", "X": 229993.6358, "Y": 2600769.7582, "Z": 2212.364, "里程": "71k+215", "Station": "阿里山", "StationID": "378" }, "geometry": { "type": "Point", "coordinates": [ 120.804095925369097, 23.509976207165725 ] } },
{ "type": "Feature", "properties": { "PTNAME": "沼平", "X": 230988.8104, "Y": 2601266.045, "Z": 2272.594, "里程": "1k+131", "Station": "沼平", "StationID": "379" }, "geometry": { "type": "Point", "coordinates": [ 120.81383442208984, 23.514469678974173 ] } },
{ "type": "Feature", "properties": { "PTNAME": "車庫園區", "X": 193916.5553, "Y": 2598197.4308000002, "Z": 31.546, "里程": "1k+157", "Station": "-", "StationID": "-" }, "geometry": { "type": "Point", "coordinates": [ 120.450930766719296, 23.485903780545595 ] } },
{ "type": "Feature", "properties": { "PTNAME": "竹崎監工區", "X": 204508.6878, "Y": 2602546.9874999998, "Z": 128.176, "里程": "14k+233", "Station": "-", "StationID": "-" }, "geometry": { "type": "Point", "coordinates": [ 120.554495295788016, 23.525510555535796 ] } },
{ "type": "Feature", "properties": { "PTNAME": "竹崎", "X": 204416.1763, "Y": 2602581.4744000002, "Z": 127.773, "里程": "14k+157", "Station": "竹崎", "StationID": "363" }, "geometry": { "type": "Point", "coordinates": [ 120.553588284785789, 23.525819371938656 ] } },
{ "type": "Feature", "properties": { "PTNAME": "多林", "X": 222481.5434, "Y": 2599539.3506999998, "Z": 1517.21, "里程": "50k+640", "Station": "多林", "StationID": "371" }, "geometry": { "type": "Point", "coordinates": [ 120.730559998446793, 23.498755664335938 ] } },
{ "type": "Feature", "properties": { "PTNAME": "交力坪", "X": 213629.6231, "Y": 2603179.9281000001, "Z": 991.119, "里程": "34k+648", "Station": "交力坪", "StationID": "368" }, "geometry": { "type": "Point", "coordinates": [ 120.643801385158142, 23.531455980501651 ] } },
{ "type": "Feature", "properties": { "PTNAME": "北門", "X": 194295.4515, "Y": 2598388.4049, "Z": 31.743, "里程": "1k+584", "Station": "北門", "StationID": "361" }, "geometry": { "type": "Point", "coordinates": [ 120.454633020369684, 23.487641254737941 ] } },
{ "type": "Feature", "properties": { "PTNAME": "水社寮", "X": 215233.3759, "Y": 2600178.566, "Z": 1184.983, "里程": "40k+249", "Station": "水社寮", "StationID": "369" }, "geometry": { "type": "Point", "coordinates": [ 120.659577442933696, 23.504388889900302 ] } },
{ "type": "Feature", "properties": { "PTNAME": "水山", "X": 229934.5665, "Y": 2600364.2026, "Z": 2276.017, "里程": "1k+560", "Station": "-", "StationID": "-" }, "geometry": { "type": "Point", "coordinates": [ 120.803522948189155, 23.506313271134044 ] } },
{ "type": "Feature", "properties": { "PTNAME": "木屐寮", "X": 206813.0022, "Y": 2603851.2763, "Z": 323.86, "里程": "18k+755", "Station": "木屐寮", "StationID": "364" }, "geometry": { "type": "Point", "coordinates": [ 120.577023728789854, 23.537351070670834 ] } },
{ "type": "Feature", "properties": { "PTNAME": "十字路", "X": 224873.0733, "Y": 2598880.7642000001, "Z": 1533.255, "里程": "54k+961", "Station": "十字路", "StationID": "372" }, "geometry": { "type": "Point", "coordinates": [ 120.753986921178821, 23.492847307404766 ] } },
{ "type": "Feature", "properties": { "PTNAME": "二萬平", "X": 228581.2225, "Y": 2600657.7744999998, "Z": 1998.224, "里程": "66k+897", "Station": "二萬平", "StationID": "376" }, "geometry": { "type": "Point", "coordinates": [ 120.790267121038426, 23.508946974122487 ] } }
]
}
