{"type":"FeatureCollection","features":[{"type":"Feature","properties":{"#property":1,"latitude":34.33416056,"longitude":134.01512139,"name":"旧御殿水源地（高松市水道資料館）","address":"高松市鶴市町1360","telephoneNumber":"087-839-2711","referenceObject":"http://union.suido-kagawa.lg.jp/soshiki/25/1283.html","note":"国登録有形文化財","availableDate":"日月火水木金土","startTime":"10:00:00","endTime":"17:00:00","availableDateNote":"団体での見学、及び見学以外の利用の場合は事前申込必要。年末年始（12/29～1/3）は終日利用不可","source_url":"https://github.com/takamatsu-city/opendata","source_year":"unknown (source snapshot downloaded 2026-09-18)","license":"CC BY 4.0","attribution":"高松市オープンデータ","entity_role":"water_supply_related_facility"},"geometry":{"type":"Point","coordinates":[134.01512139,34.33416056]},"id":"jpWaterLocalFacilities:takamatsu_water_supply.geojson:0"},{"type":"Feature","properties":{"#property":2,"latitude":34.33337361,"longitude":134.01533389,"name":"御殿浄水場","address":"高松市鶴市町1360","telephoneNumber":"087-861-2920","referenceObject":"http://union.suido-kagawa.lg.jp/soshiki/29/1413.html","note":null,"availableDate":"月火水木金","startTime":"09:00:00","endTime":"17:00:00","availableDateNote":"事前申込必要。祝日、休日及び年末年始（12/29～1/3）は終日利用不可","source_url":"https://github.com/takamatsu-city/opendata","source_year":"unknown (source snapshot downloaded 2026-09-18)","license":"CC BY 4.0","attribution":"高松市オープンデータ","entity_role":"water_supply_related_facility"},"geometry":{"type":"Point","coordinates":[134.01533389,34.33337361]},"id":"jpWaterLocalFacilities:takamatsu_water_supply.geojson:1"},{"type":"Feature","properties":{"#property":3,"latitude":34.25399139,"longitude":134.029675,"name":"浅野浄水場","address":"高松市香川町浅野1161","telephoneNumber":"087-879-4330","referenceObject":"http://union.suido-kagawa.lg.jp/soshiki/29/1411.html","note":null,"availableDate":"月火水木金","startTime":"09:00:00","endTime":"17:00:00","availableDateNote":"事前申込必要。祝日、休日及び年末年始（12/29～1/3）は終日利用不可","source_url":"https://github.com/takamatsu-city/opendata","source_year":"unknown (source snapshot downloaded 2026-09-18)","license":"CC BY 4.0","attribution":"高松市オープンデータ","entity_role":"water_supply_related_facility"},"geometry":{"type":"Point","coordinates":[134.029675,34.25399139]},"id":"jpWaterLocalFacilities:takamatsu_water_supply.geojson:2"},{"type":"Feature","properties":{"#property":4,"latitude":34.30793111,"longitude":134.10039139,"name":"川添浄水場","address":"高松市東山崎町1331","telephoneNumber":"087-847-6141","referenceObject":"http://union.suido-kagawa.lg.jp/soshiki/29/1412.html","note":null,"availableDate":"月火水木金","startTime":"09:00:00","endTime":"17:00:00","availableDateNote":"事前申込必要。祝日、休日及び年末年始（12/29～1/3）は終日利用不可","source_url":"https://github.com/takamatsu-city/opendata","source_year":"unknown (source snapshot downloaded 2026-09-18)","license":"CC BY 4.0","attribution":"高松市オープンデータ","entity_role":"water_supply_related_facility"},"geometry":{"type":"Point","coordinates":[134.10039139,34.30793111]},"id":"jpWaterLocalFacilities:takamatsu_water_supply.geojson:3"},{"type":"Feature","properties":{"#property":5,"latitude":34.17610333,"longitude":134.07563889,"name":"後川浄水場","address":"高松市塩江町安原上565-1","telephoneNumber":null,"referenceObject":null,"note":null,"availableDate":null,"startTime":null,"endTime":null,"availableDateNote":"利用不可","source_url":"https://github.com/takamatsu-city/opendata","source_year":"unknown (source snapshot downloaded 2026-09-18)","license":"CC BY 4.0","attribution":"高松市オープンデータ","entity_role":"water_supply_related_facility"},"geometry":{"type":"Point","coordinates":[134.07563889,34.17610333]},"id":"jpWaterLocalFacilities:takamatsu_water_supply.geojson:4"},{"type":"Feature","properties":{"#property":6,"latitude":34.1375775,"longitude":134.07610361,"name":"一ツ内浄水場","address":"高松市塩江町上西甲672-1","telephoneNumber":null,"referenceObject":null,"note":null,"availableDate":null,"startTime":null,"endTime":null,"availableDateNote":"利用不可","source_url":"https://github.com/takamatsu-city/opendata","source_year":"unknown (source snapshot downloaded 2026-09-18)","license":"CC BY 4.0","attribution":"高松市オープンデータ","entity_role":"water_supply_related_facility"},"geometry":{"type":"Point","coordinates":[134.07610361,34.1375775]},"id":"jpWaterLocalFacilities:takamatsu_water_supply.geojson:5"},{"type":"Feature","properties":{"#property":7,"latitude":34.30207,"longitude":133.96305,"name":"国分寺第１浄水場","address":"高松市国分寺町新居1710-1","telephoneNumber":null,"referenceObject":null,"note":"休止中","availableDate":null,"startTime":null,"endTime":null,"availableDateNote":"利用不可","source_url":"https://github.com/takamatsu-city/opendata","source_year":"unknown (source snapshot downloaded 2026-09-18)","license":"CC BY 4.0","attribution":"高松市オープンデータ","entity_role":"water_supply_related_facility"},"geometry":{"type":"Point","coordinates":[133.96305,34.30207]},"id":"jpWaterLocalFacilities:takamatsu_water_supply.geojson:6"},{"type":"Feature","properties":{"#property":8,"latitude":34.283235,"longitude":133.960837,"name":"国分寺第２浄水場","address":"高松市国分寺町新名1432-2","telephoneNumber":null,"referenceObject":null,"note":"休止中","availableDate":null,"startTime":null,"endTime":null,"availableDateNote":"利用不可","source_url":"https://github.com/takamatsu-city/opendata","source_year":"unknown (source snapshot downloaded 2026-09-18)","license":"CC BY 4.0","attribution":"高松市オープンデータ","entity_role":"water_supply_related_facility"},"geometry":{"type":"Point","coordinates":[133.960837,34.283235]},"id":"jpWaterLocalFacilities:takamatsu_water_supply.geojson:7"},{"type":"Feature","properties":{"#property":9,"latitude":34.30739917,"longitude":134.10019111,"name":"水質管理課","address":"高松市東山崎町1331","telephoneNumber":"087-847-4869","referenceObject":"http://union.suido-kagawa.lg.jp/soshiki/53/","note":null,"availableDate":"月火水木金","startTime":"09:00:00","endTime":"17:00:00","availableDateNote":"団体での利用不可。事前申込必要。祝日、休日及び年末年始（12/29～1/3）は終日利用不可","source_url":"https://github.com/takamatsu-city/opendata","source_year":"unknown (source snapshot downloaded 2026-09-18)","license":"CC BY 4.0","attribution":"高松市オープンデータ","entity_role":"water_supply_related_facility"},"geometry":{"type":"Point","coordinates":[134.10019111,34.30739917]},"id":"jpWaterLocalFacilities:takamatsu_water_supply.geojson:8"},{"type":"Feature","properties":{"#property":1,"latitude":34.35029722,"longitude":134.08502056,"name":"東部下水処理場","address":"高松市屋島西町2366-6","telephoneNumber":"087-843-8580","referenceObject":"http://www.city.takamatsu.kagawa.jp/jigyosha/toshikeikaku/gesuido/sisetsu/tobu.html","note":null,"source_url":"https://github.com/takamatsu-city/opendata","source_year":"unknown (source snapshot downloaded 2026-09-18)","license":"CC BY 4.0","attribution":"高松市オープンデータ","entity_role":"sewer_facility"},"geometry":{"type":"Point","coordinates":[134.08502056,34.35029722]},"id":"jpWaterLocalFacilities:takamatsu_sewer_facility.geojson:0"},{"type":"Feature","properties":{"#property":2,"latitude":34.35607,"longitude":134.00411,"name":"香東川浄化センター","address":"高松市香西本町762","telephoneNumber":"087-842-5421","referenceObject":"http://www.city.takamatsu.kagawa.jp/jigyosha/toshikeikaku/gesuido/sisetsu/koutougawa.html","note":null,"source_url":"https://github.com/takamatsu-city/opendata","source_year":"unknown (source snapshot downloaded 2026-09-18)","license":"CC BY 4.0","attribution":"高松市オープンデータ","entity_role":"sewer_facility"},"geometry":{"type":"Point","coordinates":[134.00411,34.35607]},"id":"jpWaterLocalFacilities:takamatsu_sewer_facility.geojson:1"},{"type":"Feature","properties":{"#property":3,"latitude":34.35246917,"longitude":134.12154472,"name":"牟礼浄化苑","address":"高松市牟礼町牟礼2633-3","telephoneNumber":"087-843-8580（東部下水処理場）","referenceObject":"http://www.city.takamatsu.kagawa.jp/jigyosha/toshikeikaku/gesuido/sisetsu/mure.html","note":null,"source_url":"https://github.com/takamatsu-city/opendata","source_year":"unknown (source snapshot downloaded 2026-09-18)","license":"CC BY 4.0","attribution":"高松市オープンデータ","entity_role":"sewer_facility"},"geometry":{"type":"Point","coordinates":[134.12154472,34.35246917]},"id":"jpWaterLocalFacilities:takamatsu_sewer_facility.geojson:2"},{"type":"Feature","properties":{"#property":4,"latitude":34.38335972,"longitude":134.12491306,"name":"庵治浄化センター","address":"高松市庵治町6392-6","telephoneNumber":"087-843-8580（東部下水処理場）","referenceObject":"http://www.city.takamatsu.kagawa.jp/jigyosha/toshikeikaku/gesuido/sisetsu/aji.html","note":null,"source_url":"https://github.com/takamatsu-city/opendata","source_year":"unknown (source snapshot downloaded 2026-09-18)","license":"CC BY 4.0","attribution":"高松市オープンデータ","entity_role":"sewer_facility"},"geometry":{"type":"Point","coordinates":[134.12491306,34.38335972]},"id":"jpWaterLocalFacilities:takamatsu_sewer_facility.geojson:3"}]}