{"type":"FeatureCollection","features":[{"type":"Feature","properties":{"観測所番号":546643,"観測所":"トーヨー橋","水系":"境川水系","河川名":"阿久和川","緯度":35.41994444,"経度":139.5368611,"name":"トーヨー橋","source_url":"https://data.city.yokohama.lg.jp/dataset/gesui_opendata","source_year":"unknown (station registry undated)","license":"CC Attribution (source catalog)","attribution":"横浜市 河川水位情報","entity_role":"water_level_station"},"geometry":{"type":"Point","coordinates":[139.5368611,35.41994444]},"id":"jpWaterLevelStations:yokohama_station_master.geojson:0"},{"type":"Feature","properties":{"観測所番号":546609,"観測所":"上分橋","水系":"境川水系","河川名":"和泉川","緯度":35.424751,"経度":139.490135,"name":"上分橋","source_url":"https://data.city.yokohama.lg.jp/dataset/gesui_opendata","source_year":"unknown (station registry undated)","license":"CC Attribution (source catalog)","attribution":"横浜市 河川水位情報","entity_role":"water_level_station"},"geometry":{"type":"Point","coordinates":[139.490135,35.424751]},"id":"jpWaterLevelStations:yokohama_station_master.geojson:1"},{"type":"Feature","properties":{"観測所番号":546603,"観測所":"下橋","水系":"鶴見川水系","河川名":"砂田川","緯度":35.49855556,"経度":139.6024722,"name":"下橋","source_url":"https://data.city.yokohama.lg.jp/dataset/gesui_opendata","source_year":"unknown (station registry undated)","license":"CC Attribution (source catalog)","attribution":"横浜市 河川水位情報","entity_role":"water_level_station"},"geometry":{"type":"Point","coordinates":[139.6024722,35.49855556]},"id":"jpWaterLevelStations:yokohama_station_master.geojson:2"},{"type":"Feature","properties":{"観測所番号":546605,"観測所":"下永谷３号橋","水系":"境川水系","河川名":"平戸永谷川","緯度":35.41877778,"経度":139.5599444,"name":"下永谷３号橋","source_url":"https://data.city.yokohama.lg.jp/dataset/gesui_opendata","source_year":"unknown (station registry undated)","license":"CC Attribution (source catalog)","attribution":"横浜市 河川水位情報","entity_role":"water_level_station"},"geometry":{"type":"Point","coordinates":[139.5599444,35.41877778]},"id":"jpWaterLevelStations:yokohama_station_master.geojson:3"},{"type":"Feature","properties":{"観測所番号":546634,"観測所":"中野橋","水系":"帷子川水系","河川名":"今井川","緯度":35.44763889,"経度":139.5991667,"name":"中野橋","source_url":"https://data.city.yokohama.lg.jp/dataset/gesui_opendata","source_year":"unknown (station registry undated)","license":"CC Attribution (source catalog)","attribution":"横浜市 河川水位情報","entity_role":"water_level_station"},"geometry":{"type":"Point","coordinates":[139.5991667,35.44763889]},"id":"jpWaterLevelStations:yokohama_station_master.geojson:4"},{"type":"Feature","properties":{"観測所番号":546637,"観測所":"今井川地下調整池越流堰上流","水系":"帷子川水系","河川名":"今井川","緯度":35.445677,"経度":139.580134,"name":"今井川地下調整池越流堰上流","source_url":"https://data.city.yokohama.lg.jp/dataset/gesui_opendata","source_year":"unknown (station registry undated)","license":"CC Attribution (source catalog)","attribution":"横浜市 河川水位情報","entity_role":"water_level_station"},"geometry":{"type":"Point","coordinates":[139.580134,35.445677]},"id":"jpWaterLevelStations:yokohama_station_master.geojson:5"},{"type":"Feature","properties":{"観測所番号":546638,"観測所":"今井川地下調整池越流堰下流","水系":"帷子川水系","河川名":"今井川","緯度":35.445499,"経度":139.581713,"name":"今井川地下調整池越流堰下流","source_url":"https://data.city.yokohama.lg.jp/dataset/gesui_opendata","source_year":"unknown (station registry undated)","license":"CC Attribution (source catalog)","attribution":"横浜市 河川水位情報","entity_role":"water_level_station"},"geometry":{"type":"Point","coordinates":[139.581713,35.445499]},"id":"jpWaterLevelStations:yokohama_station_master.geojson:6"},{"type":"Feature","properties":{"観測所番号":546661,"観測所":"今川橋","水系":"帷子川水系","河川名":"帷子川","緯度":35.47491667,"経度":139.5425833,"name":"今川橋","source_url":"https://data.city.yokohama.lg.jp/dataset/gesui_opendata","source_year":"unknown (station registry undated)","license":"CC Attribution (source catalog)","attribution":"横浜市 河川水位情報","entity_role":"water_level_station"},"geometry":{"type":"Point","coordinates":[139.5425833,35.47491667]},"id":"jpWaterLevelStations:yokohama_station_master.geojson:7"},{"type":"Feature","properties":{"観測所番号":546607,"観測所":"伊勢堰橋","水系":"境川水系","河川名":"阿久和川","緯度":35.427,"経度":139.5265278,"name":"伊勢堰橋","source_url":"https://data.city.yokohama.lg.jp/dataset/gesui_opendata","source_year":"unknown (station registry undated)","license":"CC Attribution (source catalog)","attribution":"横浜市 河川水位情報","entity_role":"water_level_station"},"geometry":{"type":"Point","coordinates":[139.5265278,35.427]},"id":"jpWaterLevelStations:yokohama_station_master.geojson:8"},{"type":"Feature","properties":{"観測所番号":546663,"観測所":"住吉橋","水系":"鶴見川水系","河川名":"奈良川","緯度":35.55261111,"経度":139.4903611,"name":"住吉橋","source_url":"https://data.city.yokohama.lg.jp/dataset/gesui_opendata","source_year":"unknown (station registry undated)","license":"CC Attribution (source catalog)","attribution":"横浜市 河川水位情報","entity_role":"water_level_station"},"geometry":{"type":"Point","coordinates":[139.4903611,35.55261111]},"id":"jpWaterLevelStations:yokohama_station_master.geojson:9"},{"type":"Feature","properties":{"観測所番号":546664,"観測所":"住撰橋","水系":"鶴見川水系","河川名":"岩川","緯度":35.52819444,"経度":139.5007222,"name":"住撰橋","source_url":"https://data.city.yokohama.lg.jp/dataset/gesui_opendata","source_year":"unknown (station registry undated)","license":"CC Attribution (source catalog)","attribution":"横浜市 河川水位情報","entity_role":"water_level_station"},"geometry":{"type":"Point","coordinates":[139.5007222,35.52819444]},"id":"jpWaterLevelStations:yokohama_station_master.geojson:10"},{"type":"Feature","properties":{"観測所番号":546635,"観測所":"保土ヶ谷橋","水系":"帷子川水系","河川名":"今井川","緯度":35.44341667,"経度":139.5958056,"name":"保土ヶ谷橋","source_url":"https://data.city.yokohama.lg.jp/dataset/gesui_opendata","source_year":"unknown (station registry undated)","license":"CC Attribution (source catalog)","attribution":"横浜市 河川水位情報","entity_role":"water_level_station"},"geometry":{"type":"Point","coordinates":[139.5958056,35.44341667]},"id":"jpWaterLevelStations:yokohama_station_master.geojson:11"},{"type":"Feature","properties":{"観測所番号":546606,"観測所":"元舞橋","水系":"境川水系","河川名":"舞岡川","緯度":35.41094444,"経度":139.5419444,"name":"元舞橋","source_url":"https://data.city.yokohama.lg.jp/dataset/gesui_opendata","source_year":"unknown (station registry undated)","license":"CC Attribution (source catalog)","attribution":"横浜市 河川水位情報","entity_role":"water_level_station"},"geometry":{"type":"Point","coordinates":[139.5419444,35.41094444]},"id":"jpWaterLevelStations:yokohama_station_master.geojson:12"},{"type":"Feature","properties":{"観測所番号":546655,"観測所":"入江川公園","水系":"入江川水系","河川名":"入江川","緯度":35.493919,"経度":139.64677,"name":"入江川公園","source_url":"https://data.city.yokohama.lg.jp/dataset/gesui_opendata","source_year":"unknown (station registry undated)","license":"CC Attribution (source catalog)","attribution":"横浜市 河川水位情報","entity_role":"water_level_station"},"geometry":{"type":"Point","coordinates":[139.64677,35.493919]},"id":"jpWaterLevelStations:yokohama_station_master.geojson:13"},{"type":"Feature","properties":{"観測所番号":546636,"観測所":"八幡橋","水系":"帷子川水系","河川名":"今井川","緯度":35.44408333,"経度":139.5926111,"name":"八幡橋","source_url":"https://data.city.yokohama.lg.jp/dataset/gesui_opendata","source_year":"unknown (station registry undated)","license":"CC Attribution (source catalog)","attribution":"横浜市 河川水位情報","entity_role":"water_level_station"},"geometry":{"type":"Point","coordinates":[139.5926111,35.44408333]},"id":"jpWaterLevelStations:yokohama_station_master.geojson:14"},{"type":"Feature","properties":{"観測所番号":546649,"観測所":"内海橋","水系":"帷子川水系","河川名":"新田間川","緯度":35.46577778,"経度":139.6186111,"name":"内海橋","source_url":"https://data.city.yokohama.lg.jp/dataset/gesui_opendata","source_year":"unknown (station registry undated)","license":"CC Attribution (source catalog)","attribution":"横浜市 河川水位情報","entity_role":"water_level_station"},"geometry":{"type":"Point","coordinates":[139.6186111,35.46577778]},"id":"jpWaterLevelStations:yokohama_station_master.geojson:15"},{"type":"Feature","properties":{"観測所番号":546666,"観測所":"勝田橋","水系":"鶴見川水系","河川名":"早淵川","緯度":35.54755556,"経度":139.5906667,"name":"勝田橋","source_url":"https://data.city.yokohama.lg.jp/dataset/gesui_opendata","source_year":"unknown (station registry undated)","license":"CC Attribution (source catalog)","attribution":"横浜市 河川水位情報","entity_role":"water_level_station"},"geometry":{"type":"Point","coordinates":[139.5906667,35.54755556]},"id":"jpWaterLevelStations:yokohama_station_master.geojson:16"},{"type":"Feature","properties":{"観測所番号":546809,"観測所":"名瀬川遊水地内","水系":"境川水系","河川名":"名瀬川","緯度":35.43202,"経度":139.53177,"name":"名瀬川遊水地内","source_url":"https://data.city.yokohama.lg.jp/dataset/gesui_opendata","source_year":"unknown (station registry undated)","license":"CC Attribution (source catalog)","attribution":"横浜市 河川水位情報","entity_role":"water_level_station"},"geometry":{"type":"Point","coordinates":[139.53177,35.43202]},"id":"jpWaterLevelStations:yokohama_station_master.geojson:17"},{"type":"Feature","properties":{"観測所番号":546808,"観測所":"名瀬川（栄橋）","水系":"境川水系","河川名":"名瀬川","緯度":35.43222222,"経度":139.5316667,"name":"名瀬川（栄橋）","source_url":"https://data.city.yokohama.lg.jp/dataset/gesui_opendata","source_year":"unknown (station registry undated)","license":"CC Attribution (source catalog)","attribution":"横浜市 河川水位情報","entity_role":"water_level_station"},"geometry":{"type":"Point","coordinates":[139.5316667,35.43222222]},"id":"jpWaterLevelStations:yokohama_station_master.geojson:18"},{"type":"Feature","properties":{"観測所番号":546801,"観測所":"和泉川(宮沢遊水地越流堤上流)","水系":"境川水系","河川名":"和泉川","緯度":35.447379,"経度":139.49177,"name":"和泉川(宮沢遊水地越流堤上流)","source_url":"https://data.city.yokohama.lg.jp/dataset/gesui_opendata","source_year":"unknown (station registry undated)","license":"CC Attribution (source catalog)","attribution":"横浜市 河川水位情報","entity_role":"water_level_station"},"geometry":{"type":"Point","coordinates":[139.49177,35.447379]},"id":"jpWaterLevelStations:yokohama_station_master.geojson:19"},{"type":"Feature","properties":{"観測所番号":546810,"観測所":"和泉川（上分橋）","水系":"境川水系","河川名":"和泉川","緯度":35.42472222,"経度":139.49,"name":"和泉川（上分橋）","source_url":"https://data.city.yokohama.lg.jp/dataset/gesui_opendata","source_year":"unknown (station registry undated)","license":"CC Attribution (source catalog)","attribution":"横浜市 河川水位情報","entity_role":"water_level_station"},"geometry":{"type":"Point","coordinates":[139.49,35.42472222]},"id":"jpWaterLevelStations:yokohama_station_master.geojson:20"},{"type":"Feature","properties":{"観測所番号":546811,"観測所":"和泉遊水地上流","水系":"境川水系","河川名":"和泉川","緯度":35.424498,"経度":139.490232,"name":"和泉遊水地上流","source_url":"https://data.city.yokohama.lg.jp/dataset/gesui_opendata","source_year":"unknown (station registry undated)","license":"CC Attribution (source catalog)","attribution":"横浜市 河川水位情報","entity_role":"water_level_station"},"geometry":{"type":"Point","coordinates":[139.490232,35.424498]},"id":"jpWaterLevelStations:yokohama_station_master.geojson:21"},{"type":"Feature","properties":{"観測所番号":546812,"観測所":"和泉遊水地下流","水系":"境川水系","河川名":"和泉川","緯度":35.419323,"経度":139.488741,"name":"和泉遊水地下流","source_url":"https://data.city.yokohama.lg.jp/dataset/gesui_opendata","source_year":"unknown (station registry undated)","license":"CC Attribution (source catalog)","attribution":"横浜市 河川水位情報","entity_role":"water_level_station"},"geometry":{"type":"Point","coordinates":[139.488741,35.419323]},"id":"jpWaterLevelStations:yokohama_station_master.geojson:22"},{"type":"Feature","properties":{"観測所番号":546646,"観測所":"四ツ谷橋","水系":"境川水系","河川名":"和泉川","緯度":35.40136111,"経度":139.4869167,"name":"四ツ谷橋","source_url":"https://data.city.yokohama.lg.jp/dataset/gesui_opendata","source_year":"unknown (station registry undated)","license":"CC Attribution (source catalog)","attribution":"横浜市 河川水位情報","entity_role":"water_level_station"},"geometry":{"type":"Point","coordinates":[139.4869167,35.40136111]},"id":"jpWaterLevelStations:yokohama_station_master.geojson:23"},{"type":"Feature","properties":{"観測所番号":546611,"観測所":"城山橋","水系":"境川水系","河川名":"いたち川","緯度":35.365204,"経度":139.5520181,"name":"城山橋","source_url":"https://data.city.yokohama.lg.jp/dataset/gesui_opendata","source_year":"unknown (station registry undated)","license":"CC Attribution (source catalog)","attribution":"横浜市 河川水位情報","entity_role":"water_level_station"},"geometry":{"type":"Point","coordinates":[139.5520181,35.365204]},"id":"jpWaterLevelStations:yokohama_station_master.geojson:24"},{"type":"Feature","properties":{"観測所番号":546641,"観測所":"外郷橋","水系":"境川水系","河川名":"平戸永谷川","緯度":35.42087,"経度":139.55547,"name":"外郷橋","source_url":"https://data.city.yokohama.lg.jp/dataset/gesui_opendata","source_year":"unknown (station registry undated)","license":"CC Attribution (source catalog)","attribution":"横浜市 河川水位情報","entity_role":"water_level_station"},"geometry":{"type":"Point","coordinates":[139.55547,35.42087]},"id":"jpWaterLevelStations:yokohama_station_master.geojson:25"},{"type":"Feature","properties":{"観測所番号":546602,"観測所":"宮原橋","水系":"鶴見川水系","河川名":"鳥山川","緯度":35.49966667,"経度":139.6072778,"name":"宮原橋","source_url":"https://data.city.yokohama.lg.jp/dataset/gesui_opendata","source_year":"unknown (station registry undated)","license":"CC Attribution (source catalog)","attribution":"横浜市 河川水位情報","entity_role":"water_level_station"},"geometry":{"type":"Point","coordinates":[139.6072778,35.49966667]},"id":"jpWaterLevelStations:yokohama_station_master.geojson:26"},{"type":"Feature","properties":{"観測所番号":546613,"観測所":"宮川橋","水系":"宮川水系","河川名":"宮川","緯度":35.34308333,"経度":139.6129167,"name":"宮川橋","source_url":"https://data.city.yokohama.lg.jp/dataset/gesui_opendata","source_year":"unknown (station registry undated)","license":"CC Attribution (source catalog)","attribution":"横浜市 河川水位情報","entity_role":"water_level_station"},"geometry":{"type":"Point","coordinates":[139.6129167,35.34308333]},"id":"jpWaterLevelStations:yokohama_station_master.geojson:27"},{"type":"Feature","properties":{"観測所番号":546802,"観測所":"宮沢遊水地内上流","水系":"境川水系","河川名":"和泉川","緯度":35.446925,"経度":139.492044,"name":"宮沢遊水地内上流","source_url":"https://data.city.yokohama.lg.jp/dataset/gesui_opendata","source_year":"unknown (station registry undated)","license":"CC Attribution (source catalog)","attribution":"横浜市 河川水位情報","entity_role":"water_level_station"},"geometry":{"type":"Point","coordinates":[139.492044,35.446925]},"id":"jpWaterLevelStations:yokohama_station_master.geojson:28"},{"type":"Feature","properties":{"観測所番号":546803,"観測所":"宮沢遊水地内下流","水系":"境川水系","河川名":"和泉川","緯度":35.443408,"経度":139.491031,"name":"宮沢遊水地内下流","source_url":"https://data.city.yokohama.lg.jp/dataset/gesui_opendata","source_year":"unknown (station registry undated)","license":"CC Attribution (source catalog)","attribution":"横浜市 河川水位情報","entity_role":"water_level_station"},"geometry":{"type":"Point","coordinates":[139.491031,35.443408]},"id":"jpWaterLevelStations:yokohama_station_master.geojson:29"},{"type":"Feature","properties":{"観測所番号":546642,"観測所":"嶽下橋","水系":"境川水系","河川名":"平戸永谷川","緯度":35.42025,"経度":139.5484444,"name":"嶽下橋","source_url":"https://data.city.yokohama.lg.jp/dataset/gesui_opendata","source_year":"unknown (station registry undated)","license":"CC Attribution (source catalog)","attribution":"横浜市 河川水位情報","entity_role":"water_level_station"},"geometry":{"type":"Point","coordinates":[139.5484444,35.42025]},"id":"jpWaterLevelStations:yokohama_station_master.geojson:30"},{"type":"Feature","properties":{"観測所番号":546806,"観測所":"平戸永谷川(遊水地越流堤上流)","水系":"境川水系","河川名":"平戸永谷川","緯度":35.419384,"経度":139.55898,"name":"平戸永谷川(遊水地越流堤上流)","source_url":"https://data.city.yokohama.lg.jp/dataset/gesui_opendata","source_year":"unknown (station registry undated)","license":"CC Attribution (source catalog)","attribution":"横浜市 河川水位情報","entity_role":"water_level_station"},"geometry":{"type":"Point","coordinates":[139.55898,35.419384]},"id":"jpWaterLevelStations:yokohama_station_master.geojson:31"},{"type":"Feature","properties":{"観測所番号":546807,"観測所":"平戸永谷川遊水地内","水系":"境川水系","河川名":"平戸永谷川","緯度":35.419263,"経度":139.558972,"name":"平戸永谷川遊水地内","source_url":"https://data.city.yokohama.lg.jp/dataset/gesui_opendata","source_year":"unknown (station registry undated)","license":"CC Attribution (source catalog)","attribution":"横浜市 河川水位情報","entity_role":"water_level_station"},"geometry":{"type":"Point","coordinates":[139.558972,35.419263]},"id":"jpWaterLevelStations:yokohama_station_master.geojson:32"},{"type":"Feature","properties":{"観測所番号":546653,"観測所":"御所が谷橋","水系":"大岡川水系他","河川名":"日野川","緯度":35.387605,"経度":139.5805947,"name":"御所が谷橋","source_url":"https://data.city.yokohama.lg.jp/dataset/gesui_opendata","source_year":"unknown (station registry undated)","license":"CC Attribution (source catalog)","attribution":"横浜市 河川水位情報","entity_role":"water_level_station"},"geometry":{"type":"Point","coordinates":[139.5805947,35.387605]},"id":"jpWaterLevelStations:yokohama_station_master.geojson:33"},{"type":"Feature","properties":{"観測所番号":546662,"観測所":"御殿橋","水系":"帷子川水系","河川名":"帷子川","緯度":35.48530556,"経度":139.5204444,"name":"御殿橋","source_url":"https://data.city.yokohama.lg.jp/dataset/gesui_opendata","source_year":"unknown (station registry undated)","license":"CC Attribution (source catalog)","attribution":"横浜市 河川水位情報","entity_role":"water_level_station"},"geometry":{"type":"Point","coordinates":[139.5204444,35.48530556]},"id":"jpWaterLevelStations:yokohama_station_master.geojson:34"},{"type":"Feature","properties":{"観測所番号":546647,"観測所":"戸塚ポンプ場","水系":"境川水系","河川名":"柏尾川","緯度":35.39772222,"経度":139.5333611,"name":"戸塚ポンプ場","source_url":"https://data.city.yokohama.lg.jp/dataset/gesui_opendata","source_year":"unknown (station registry undated)","license":"CC Attribution (source catalog)","attribution":"横浜市 河川水位情報","entity_role":"water_level_station"},"geometry":{"type":"Point","coordinates":[139.5333611,35.39772222]},"id":"jpWaterLevelStations:yokohama_station_master.geojson:35"},{"type":"Feature","properties":{"観測所番号":546608,"観測所":"栄橋","水系":"境川水系","河川名":"名瀬川","緯度":35.43222222,"経度":139.5316667,"name":"栄橋","source_url":"https://data.city.yokohama.lg.jp/dataset/gesui_opendata","source_year":"unknown (station registry undated)","license":"CC Attribution (source catalog)","attribution":"横浜市 河川水位情報","entity_role":"water_level_station"},"geometry":{"type":"Point","coordinates":[139.5316667,35.43222222]},"id":"jpWaterLevelStations:yokohama_station_master.geojson:36"},{"type":"Feature","properties":{"観測所番号":546648,"観測所":"栄第二水再生センター","水系":"境川水系","河川名":"柏尾川","緯度":35.38030556,"経度":139.5328056,"name":"栄第二水再生センター","source_url":"https://data.city.yokohama.lg.jp/dataset/gesui_opendata","source_year":"unknown (station registry undated)","license":"CC Attribution (source catalog)","attribution":"横浜市 河川水位情報","entity_role":"water_level_station"},"geometry":{"type":"Point","coordinates":[139.5328056,35.38030556]},"id":"jpWaterLevelStations:yokohama_station_master.geojson:37"},{"type":"Feature","properties":{"観測所番号":546639,"観測所":"水神橋","水系":"境川水系","河川名":"いたち川","緯度":35.36311111,"経度":139.5385278,"name":"水神橋","source_url":"https://data.city.yokohama.lg.jp/dataset/gesui_opendata","source_year":"unknown (station registry undated)","license":"CC Attribution (source catalog)","attribution":"横浜市 河川水位情報","entity_role":"water_level_station"},"geometry":{"type":"Point","coordinates":[139.5385278,35.36311111]},"id":"jpWaterLevelStations:yokohama_station_master.geojson:38"},{"type":"Feature","properties":{"観測所番号":546612,"観測所":"永戸人道橋","水系":"境川水系","河川名":"芹谷川","緯度":35.419,"経度":139.5623333,"name":"永戸人道橋","source_url":"https://data.city.yokohama.lg.jp/dataset/gesui_opendata","source_year":"unknown (station registry undated)","license":"CC Attribution (source catalog)","attribution":"横浜市 河川水位情報","entity_role":"water_level_station"},"geometry":{"type":"Point","coordinates":[139.5623333,35.419]},"id":"jpWaterLevelStations:yokohama_station_master.geojson:39"},{"type":"Feature","properties":{"観測所番号":546610,"観測所":"汲沢中学校橋","水系":"境川水系","河川名":"宇田川","緯度":35.39756694,"経度":139.5085028,"name":"汲沢中学校橋","source_url":"https://data.city.yokohama.lg.jp/dataset/gesui_opendata","source_year":"unknown (station registry undated)","license":"CC Attribution (source catalog)","attribution":"横浜市 河川水位情報","entity_role":"water_level_station"},"geometry":{"type":"Point","coordinates":[139.5085028,35.39756694]},"id":"jpWaterLevelStations:yokohama_station_master.geojson:40"},{"type":"Feature","properties":{"観測所番号":546652,"観測所":"河口橋","水系":"帷子川水系","河川名":"今井川","緯度":35.45361111,"経度":139.6059167,"name":"河口橋","source_url":"https://data.city.yokohama.lg.jp/dataset/gesui_opendata","source_year":"unknown (station registry undated)","license":"CC Attribution (source catalog)","attribution":"横浜市 河川水位情報","entity_role":"water_level_station"},"geometry":{"type":"Point","coordinates":[139.6059167,35.45361111]},"id":"jpWaterLevelStations:yokohama_station_master.geojson:41"},{"type":"Feature","properties":{"観測所番号":546654,"観測所":"浦島町","水系":"入江川水系","河川名":"入江川第二派川","緯度":35.481257,"経度":139.642613,"name":"浦島町","source_url":"https://data.city.yokohama.lg.jp/dataset/gesui_opendata","source_year":"unknown (station registry undated)","license":"CC Attribution (source catalog)","attribution":"横浜市 河川水位情報","entity_role":"water_level_station"},"geometry":{"type":"Point","coordinates":[139.642613,35.481257]},"id":"jpWaterLevelStations:yokohama_station_master.geojson:42"},{"type":"Feature","properties":{"観測所番号":546601,"観測所":"神明橋","水系":"鶴見川水系","河川名":"梅田川","緯度":35.51361111,"経度":139.5211667,"name":"神明橋","source_url":"https://data.city.yokohama.lg.jp/dataset/gesui_opendata","source_year":"unknown (station registry undated)","license":"CC Attribution (source catalog)","attribution":"横浜市 河川水位情報","entity_role":"water_level_station"},"geometry":{"type":"Point","coordinates":[139.5211667,35.51361111]},"id":"jpWaterLevelStations:yokohama_station_master.geojson:43"},{"type":"Feature","properties":{"観測所番号":546665,"観測所":"童橋","水系":"境川水系","河川名":"相沢川","緯度":35.45063889,"経度":139.4815556,"name":"童橋","source_url":"https://data.city.yokohama.lg.jp/dataset/gesui_opendata","source_year":"unknown (station registry undated)","license":"CC Attribution (source catalog)","attribution":"横浜市 河川水位情報","entity_role":"water_level_station"},"geometry":{"type":"Point","coordinates":[139.4815556,35.45063889]},"id":"jpWaterLevelStations:yokohama_station_master.geojson:44"},{"type":"Feature","properties":{"観測所番号":546650,"観測所":"舞岡川遊水地上流","水系":"境川水系","河川名":"舞岡川","緯度":35.405925,"経度":139.552384,"name":"舞岡川遊水地上流","source_url":"https://data.city.yokohama.lg.jp/dataset/gesui_opendata","source_year":"unknown (station registry undated)","license":"CC Attribution (source catalog)","attribution":"横浜市 河川水位情報","entity_role":"water_level_station"},"geometry":{"type":"Point","coordinates":[139.552384,35.405925]},"id":"jpWaterLevelStations:yokohama_station_master.geojson:45"},{"type":"Feature","properties":{"観測所番号":546651,"観測所":"舞岡川遊水地下流","水系":"境川水系","河川名":"舞岡川","緯度":35.407309,"経度":139.551839,"name":"舞岡川遊水地下流","source_url":"https://data.city.yokohama.lg.jp/dataset/gesui_opendata","source_year":"unknown (station registry undated)","license":"CC Attribution (source catalog)","attribution":"横浜市 河川水位情報","entity_role":"water_level_station"},"geometry":{"type":"Point","coordinates":[139.551839,35.407309]},"id":"jpWaterLevelStations:yokohama_station_master.geojson:46"},{"type":"Feature","properties":{"観測所番号":546645,"観測所":"赤関おとなり橋","水系":"境川水系","河川名":"和泉川","緯度":35.44966667,"経度":139.4923333,"name":"赤関おとなり橋","source_url":"https://data.city.yokohama.lg.jp/dataset/gesui_opendata","source_year":"unknown (station registry undated)","license":"CC Attribution (source catalog)","attribution":"横浜市 河川水位情報","entity_role":"water_level_station"},"geometry":{"type":"Point","coordinates":[139.4923333,35.44966667]},"id":"jpWaterLevelStations:yokohama_station_master.geojson:47"},{"type":"Feature","properties":{"観測所番号":546804,"観測所":"阿久和川(越流堤上流)","水系":"境川水系","河川名":"阿久和川","緯度":35.443315,"経度":139.505847,"name":"阿久和川(越流堤上流)","source_url":"https://data.city.yokohama.lg.jp/dataset/gesui_opendata","source_year":"unknown (station registry undated)","license":"CC Attribution (source catalog)","attribution":"横浜市 河川水位情報","entity_role":"water_level_station"},"geometry":{"type":"Point","coordinates":[139.505847,35.443315]},"id":"jpWaterLevelStations:yokohama_station_master.geojson:48"},{"type":"Feature","properties":{"観測所番号":546640,"観測所":"阿久和川合流後","水系":"境川水系","河川名":"柏尾川","緯度":35.414185,"経度":139.5377339,"name":"阿久和川合流後","source_url":"https://data.city.yokohama.lg.jp/dataset/gesui_opendata","source_year":"unknown (station registry undated)","license":"CC Attribution (source catalog)","attribution":"横浜市 河川水位情報","entity_role":"water_level_station"},"geometry":{"type":"Point","coordinates":[139.5377339,35.414185]},"id":"jpWaterLevelStations:yokohama_station_master.geojson:49"},{"type":"Feature","properties":{"観測所番号":546805,"観測所":"阿久和川遊水地内","水系":"境川水系","河川名":"阿久和川","緯度":35.443382,"経度":139.506037,"name":"阿久和川遊水地内","source_url":"https://data.city.yokohama.lg.jp/dataset/gesui_opendata","source_year":"unknown (station registry undated)","license":"CC Attribution (source catalog)","attribution":"横浜市 河川水位情報","entity_role":"water_level_station"},"geometry":{"type":"Point","coordinates":[139.506037,35.443382]},"id":"jpWaterLevelStations:yokohama_station_master.geojson:50"},{"type":"Feature","properties":{"観測所番号":546644,"観測所":"韮橋","水系":"境川水系","河川名":"宇田川","緯度":35.38086111,"経度":139.4985,"name":"韮橋","source_url":"https://data.city.yokohama.lg.jp/dataset/gesui_opendata","source_year":"unknown (station registry undated)","license":"CC Attribution (source catalog)","attribution":"横浜市 河川水位情報","entity_role":"water_level_station"},"geometry":{"type":"Point","coordinates":[139.4985,35.38086111]},"id":"jpWaterLevelStations:yokohama_station_master.geojson:51"},{"type":"Feature","properties":{"観測所番号":546633,"観測所":"鳥山川遊水池左支川越流堤上流","水系":"鶴見川水系","河川名":"鳥山川","緯度":35.492879,"経度":139.597682,"name":"鳥山川遊水池左支川越流堤上流","source_url":"https://data.city.yokohama.lg.jp/dataset/gesui_opendata","source_year":"unknown (station registry undated)","license":"CC Attribution (source catalog)","attribution":"横浜市 河川水位情報","entity_role":"water_level_station"},"geometry":{"type":"Point","coordinates":[139.597682,35.492879]},"id":"jpWaterLevelStations:yokohama_station_master.geojson:52"},{"type":"Feature","properties":{"観測所番号":546632,"観測所":"鳥山川遊水池放流渠下流","水系":"鶴見川水系","河川名":"鳥山川","緯度":35.493113,"経度":139.59908,"name":"鳥山川遊水池放流渠下流","source_url":"https://data.city.yokohama.lg.jp/dataset/gesui_opendata","source_year":"unknown (station registry undated)","license":"CC Attribution (source catalog)","attribution":"横浜市 河川水位情報","entity_role":"water_level_station"},"geometry":{"type":"Point","coordinates":[139.59908,35.493113]},"id":"jpWaterLevelStations:yokohama_station_master.geojson:53"},{"type":"Feature","properties":{"観測所番号":546631,"観測所":"鳥山川遊水池越流堤上流","水系":"鶴見川水系","河川名":"鳥山川","緯度":35.49178,"経度":139.598419,"name":"鳥山川遊水池越流堤上流","source_url":"https://data.city.yokohama.lg.jp/dataset/gesui_opendata","source_year":"unknown (station registry undated)","license":"CC Attribution (source catalog)","attribution":"横浜市 河川水位情報","entity_role":"water_level_station"},"geometry":{"type":"Point","coordinates":[139.598419,35.49178]},"id":"jpWaterLevelStations:yokohama_station_master.geojson:54"}]}