{"type":"FeatureCollection","features":[{"type":"Feature","geometry":{"type":"Point","coordinates":[121.467132568359,25.020902633667]},"properties":{"name":"財團法人中華基督福音基金會","county":"新北市","address":"新北市板橋區文化路1段268號地下一層","phone":"02-23631148","principal":"干文元","source":"moi_foundation_xml","source_org":"內政部（宗教及禮制司）全國宗教資訊系統","source_url":"https://religion.moi.gov.tw/Report/foundation.xml","license":"OGDL-Taiwan-1.0","source_tier":1,"fetched_at":"2026-08-01","geocode_precision":"original"}},{"type":"Feature","geometry":{"type":"Point","coordinates":[121.509094238281,25.0563106536865]},"properties":{"name":"財團法人佛教大毘盧遮那禪林基金會","county":"臺北市","address":"臺北市大同區西寧北路85之1號1樓","phone":"02-25592147","principal":"吳文正","source":"moi_foundation_xml","source_org":"內政部（宗教及禮制司）全國宗教資訊系統","source_url":"https://religion.moi.gov.tw/Report/foundation.xml","license":"OGDL-Taiwan-1.0","source_tier":1,"fetched_at":"2026-08-01","geocode_precision":"original"}},{"type":"Feature","geometry":{"type":"Point","coordinates":[121.491409301758,25.0996227264404]},"properties":{"name":"財團法人地藏悲願基金會","county":"臺北市","address":"臺北市士林區延平北路七段189號","phone":"02-28100237","principal":"林慧明","source":"moi_foundation_xml","source_org":"內政部（宗教及禮制司）全國宗教資訊系統","source_url":"https://religion.moi.gov.tw/Report/foundation.xml","license":"OGDL-Taiwan-1.0","source_tier":1,"fetched_at":"2026-08-01","geocode_precision":"original"}},{"type":"Feature","geometry":{"type":"Point","coordinates":[121.533081054688,25.1247024536133]},"properties":{"name":"財團法人嘎檔巴佛教基金會","county":"臺北市","address":"臺北市士林區中山北路7段186號7樓","phone":"02-28764925","principal":"曾皓筠","source":"moi_foundation_xml","source_org":"內政部（宗教及禮制司）全國宗教資訊系統","source_url":"https://religion.moi.gov.tw/Report/foundation.xml","license":"OGDL-Taiwan-1.0","source_tier":1,"fetched_at":"2026-08-01","geocode_precision":"original"}},{"type":"Feature","geometry":{"type":"Point","coordinates":[120.648429870605,24.1710681915283]},"properties":{"name":"財團法人道教發展基金會","county":"臺中市","address":"臺中市西屯區寶慶街18巷22號","phone":"04-27051739","principal":"羅逢淼","source":"moi_foundation_xml","source_org":"內政部（宗教及禮制司）全國宗教資訊系統","source_url":"https://religion.moi.gov.tw/Report/foundation.xml","license":"OGDL-Taiwan-1.0","source_tier":1,"fetched_at":"2026-08-01","geocode_precision":"original"}},{"type":"Feature","geometry":{"type":"Point","coordinates":[120.615501403809,22.8873405456543]},"properties":{"name":"財團法人一貫道天臺基金會","county":"高雄市","address":"高雄市六龜區新寮里三民路81-1號","phone":"07-6872100","principal":"王文瑞","source":"moi_foundation_xml","source_org":"內政部（宗教及禮制司）全國宗教資訊系統","source_url":"https://religion.moi.gov.tw/Report/foundation.xml","license":"OGDL-Taiwan-1.0","source_tier":1,"fetched_at":"2026-08-01","geocode_precision":"original"}},{"type":"Feature","geometry":{"type":"Point","coordinates":[121.602012634277,24.0544185638428]},"properties":{"name":"財團法人佛教慈濟功德會","county":"花蓮縣","address":"花蓮縣新城鄉康樂村精舍街88巷1號","phone":"03-8266779#485","principal":"釋證嚴","source":"moi_foundation_xml","source_org":"內政部（宗教及禮制司）全國宗教資訊系統","source_url":"https://religion.moi.gov.tw/Report/foundation.xml","license":"OGDL-Taiwan-1.0","source_tier":1,"fetched_at":"2026-08-01","geocode_precision":"original"}},{"type":"Feature","geometry":{"type":"Point","coordinates":[118.29524230957,24.4121398925781]},"properties":{"name":"財團法人金門縣前水頭金水寺公益慈善基金會","county":"金門縣","address":"金門縣金城鎮前水頭138號","phone":"082-372902","principal":"陳金文","source":"moi_foundation_xml","source_org":"內政部（宗教及禮制司）全國宗教資訊系統","source_url":"https://religion.moi.gov.tw/Report/foundation.xml","license":"OGDL-Taiwan-1.0","source_tier":1,"fetched_at":"2026-08-01","geocode_precision":"original"}},{"type":"Feature","geometry":{"type":"Point","coordinates":[120.783798217773,24.2757301330566]},"properties":{"name":"財團法人一貫道天皇基金會","county":"臺中市","address":"臺中市石岡區九房里建德街8號","phone":"04-25723176","principal":"黃張源","source":"moi_foundation_xml","source_org":"內政部（宗教及禮制司）全國宗教資訊系統","source_url":"https://religion.moi.gov.tw/Report/foundation.xml","license":"OGDL-Taiwan-1.0","source_tier":1,"fetched_at":"2026-08-01","geocode_precision":"original"}},{"type":"Feature","geometry":{"type":"Point","coordinates":[121.533699035645,25.0485401153564]},"properties":{"name":"財團法人佛門密宗黑教林雲大師基金會","county":"臺北市","address":"臺北市大同區太原路115巷12號1樓","phone":"09-52952899","principal":"朱筧立","source":"moi_foundation_xml","source_org":"內政部（宗教及禮制司）全國宗教資訊系統","source_url":"https://religion.moi.gov.tw/Report/foundation.xml","license":"OGDL-Taiwan-1.0","source_tier":1,"fetched_at":"2026-08-01","geocode_precision":"original"}},{"type":"Feature","geometry":{"type":"Point","coordinates":[121.525779724121,25.0374336242676]},"properties":{"name":"財團法人台北市基督教聖公會宣教基金會","county":"臺北市","address":"臺北市中正區文祥里杭州南路1段105巷7號","phone":"02-23411265","principal":"張員榮","source":"moi_foundation_xml","source_org":"內政部（宗教及禮制司）全國宗教資訊系統","source_url":"https://religion.moi.gov.tw/Report/foundation.xml","license":"OGDL-Taiwan-1.0","source_tier":1,"fetched_at":"2026-08-01","geocode_precision":"original"}},{"type":"Feature","geometry":{"type":"Point","coordinates":[121.972885131836,25.0176525115967]},"properties":{"name":"財團法人靈鷲山佛教基金會","county":"新北市","address":"新北市貢寮區香蘭街7之1號","phone":"02-82316789#1751","principal":"陳惠娟","source":"moi_foundation_xml","source_org":"內政部（宗教及禮制司）全國宗教資訊系統","source_url":"https://religion.moi.gov.tw/Report/foundation.xml","license":"OGDL-Taiwan-1.0","source_tier":1,"fetched_at":"2026-08-01","geocode_precision":"original"}},{"type":"Feature","geometry":{"type":"Point","coordinates":[118.405120849609,24.4386444091797]},"properties":{"name":"財團法人金門杰思弘道基金會","county":"金門縣","address":"金門縣金湖鎮后園68號","phone":"后園68號","principal":"陳玉玓","source":"moi_foundation_xml","source_org":"內政部（宗教及禮制司）全國宗教資訊系統","source_url":"https://religion.moi.gov.tw/Report/foundation.xml","license":"OGDL-Taiwan-1.0","source_tier":1,"fetched_at":"2026-08-01","geocode_precision":"original"}},{"type":"Feature","geometry":{"type":"Point","coordinates":[121.566902160645,25.0244903564453]},"properties":{"name":"財團法人中華基督教台灣浸信會神學教育基金會","county":"臺北市","address":"臺北市信義區惠安里吳興街394巷1號","phone":"02-27203140","principal":"粘碧鳳","source":"moi_foundation_xml","source_org":"內政部（宗教及禮制司）全國宗教資訊系統","source_url":"https://religion.moi.gov.tw/Report/foundation.xml","license":"OGDL-Taiwan-1.0","source_tier":1,"fetched_at":"2026-08-01","geocode_precision":"original"}},{"type":"Feature","geometry":{"type":"Point","coordinates":[121.549774169922,25.0382995605469]},"properties":{"name":"財團法人寰宇福音基金會","county":"臺北市","address":"臺北市大安區仁愛路四段109號13樓","phone":"02-22362761","principal":"江之灝","source":"moi_foundation_xml","source_org":"內政部（宗教及禮制司）全國宗教資訊系統","source_url":"https://religion.moi.gov.tw/Report/foundation.xml","license":"OGDL-Taiwan-1.0","source_tier":1,"fetched_at":"2026-08-01","geocode_precision":"original"}},{"type":"Feature","geometry":{"type":"Point","coordinates":[121.537200927734,25.0366592407227]},"properties":{"name":"財團法人台北市詹煜齋居士佛教文化獎學基金會","county":"臺北市","address":"臺北市大安區建國南路1段270巷10號","phone":"02-27075802","principal":"陳昭義","source":"moi_foundation_xml","source_org":"內政部（宗教及禮制司）全國宗教資訊系統","source_url":"https://religion.moi.gov.tw/Report/foundation.xml","license":"OGDL-Taiwan-1.0","source_tier":1,"fetched_at":"2026-08-01","geocode_precision":"original"}},{"type":"Feature","geometry":{"type":"Point","coordinates":[121.551696777344,25.0233535766602]},"properties":{"name":"財團法人達賴喇嘛西藏宗教基金會","county":"臺北市","address":"臺北市大安區基隆路二段189號10樓之4","phone":"02-27360366","principal":"格桑堅參","source":"moi_foundation_xml","source_org":"內政部（宗教及禮制司）全國宗教資訊系統","source_url":"https://religion.moi.gov.tw/Report/foundation.xml","license":"OGDL-Taiwan-1.0","source_tier":1,"fetched_at":"2026-08-01","geocode_precision":"original"}},{"type":"Feature","geometry":{"type":"Point","coordinates":[120.301231384277,22.6365604400635]},"properties":{"name":"財團法人基督教中華循理會聖光神學基金會","county":"高雄市","address":"高雄市新興區河南二路2號","phone":"07-9537333","principal":"陳應中","source":"moi_foundation_xml","source_org":"內政部（宗教及禮制司）全國宗教資訊系統","source_url":"https://religion.moi.gov.tw/Report/foundation.xml","license":"OGDL-Taiwan-1.0","source_tier":1,"fetched_at":"2026-08-01","geocode_precision":"original"}},{"type":"Feature","geometry":{"type":"Point","coordinates":[121.527000427246,25.0578308105469]},"properties":{"name":"財團法人台北市護持大乘法脈基金會","county":"臺北市","address":"臺北市松山區八德路3段200號10樓","phone":"02-25707777","principal":"林成龍","source":"moi_foundation_xml","source_org":"內政部（宗教及禮制司）全國宗教資訊系統","source_url":"https://religion.moi.gov.tw/Report/foundation.xml","license":"OGDL-Taiwan-1.0","source_tier":1,"fetched_at":"2026-08-01","geocode_precision":"original"}},{"type":"Feature","geometry":{"type":"Point","coordinates":[120.686096191406,24.1434707641602]},"properties":{"name":"財團法人真光教團台灣總會基金會","county":"苗栗縣","address":"苗栗縣後龍鎮豐富里16鄰高鐵六路66號","phone":"04-22155000","principal":"陳允穆","source":"moi_foundation_xml","source_org":"內政部（宗教及禮制司）全國宗教資訊系統","source_url":"https://religion.moi.gov.tw/Report/foundation.xml","license":"OGDL-Taiwan-1.0","source_tier":1,"fetched_at":"2026-08-01","geocode_precision":"original"}},{"type":"Feature","geometry":{"type":"Point","coordinates":[120.946487426758,23.8966293334961]},"properties":{"name":"財團法人慈光山佛教基金會","county":"南投縣","address":"南投縣魚池鄉東池村東興巷24之8號","phone":"049-2896352","principal":"李文達","source":"moi_foundation_xml","source_org":"內政部（宗教及禮制司）全國宗教資訊系統","source_url":"https://religion.moi.gov.tw/Report/foundation.xml","license":"OGDL-Taiwan-1.0","source_tier":1,"fetched_at":"2026-08-01","geocode_precision":"original"}},{"type":"Feature","geometry":{"type":"Point","coordinates":[121.555297851563,25.0517997741699]},"properties":{"name":"財團法人福智佛教基金會","county":"臺北市","address":"臺北市松山區南京東路4段137號12樓","phone":"02-77146099","principal":"陳耀輝","source":"moi_foundation_xml","source_org":"內政部（宗教及禮制司）全國宗教資訊系統","source_url":"https://religion.moi.gov.tw/Report/foundation.xml","license":"OGDL-Taiwan-1.0","source_tier":1,"fetched_at":"2026-08-01","geocode_precision":"original"}},{"type":"Feature","geometry":{"type":"Point","coordinates":[121.535110473633,25.0518188476563]},"properties":{"name":"財團法人佛乘宗基金會","county":"臺北市","address":"臺北市中山區南京東路2段178號5樓502室","phone":"02-28289830","principal":"包和磬","source":"moi_foundation_xml","source_org":"內政部（宗教及禮制司）全國宗教資訊系統","source_url":"https://religion.moi.gov.tw/Report/foundation.xml","license":"OGDL-Taiwan-1.0","source_tier":1,"fetched_at":"2026-08-01","geocode_precision":"original"}},{"type":"Feature","geometry":{"type":"Point","coordinates":[121.536422729492,25.0256366729736]},"properties":{"name":"財團法人國度復興傳播基金會","county":"臺北市","address":"臺北市大安區和平東路2段24號10樓1013室","phone":"02-23623022","principal":"周神助","source":"moi_foundation_xml","source_org":"內政部（宗教及禮制司）全國宗教資訊系統","source_url":"https://religion.moi.gov.tw/Report/foundation.xml","license":"OGDL-Taiwan-1.0","source_tier":1,"fetched_at":"2026-08-01","geocode_precision":"original"}},{"type":"Feature","geometry":{"type":"Point","coordinates":[120.93399810791,23.9658794403076]},"properties":{"name":"財團法人法寶薩埵佛教基金會","county":"南投縣","address":"南投縣埔里鎮南村里中山路四段87號","phone":"049-2900698","principal":"黃當寮","source":"moi_foundation_xml","source_org":"內政部（宗教及禮制司）全國宗教資訊系統","source_url":"https://religion.moi.gov.tw/Report/foundation.xml","license":"OGDL-Taiwan-1.0","source_tier":1,"fetched_at":"2026-08-01","geocode_precision":"original"}},{"type":"Feature","geometry":{"type":"Point","coordinates":[121.543701171875,25.0477695465088]},"properties":{"name":"財團法人基督教芥菜種基金會","county":"臺北市","address":"臺北市中山區復興北路2號6樓之1","phone":"02-25982932","principal":"曹佑龍","source":"moi_foundation_xml","source_org":"內政部（宗教及禮制司）全國宗教資訊系統","source_url":"https://religion.moi.gov.tw/Report/foundation.xml","license":"OGDL-Taiwan-1.0","source_tier":1,"fetched_at":"2026-08-01","geocode_precision":"original"}},{"type":"Feature","geometry":{"type":"Point","coordinates":[121.575897216797,25.0379505157471]},"properties":{"name":"財團法人基督教新生命宣教基金會","county":"臺北市","address":"臺北市信義區松德路65號9樓(聯絡處：10688仁愛路四段99號B1)","phone":"02-27117275#622","principal":"范康登","source":"moi_foundation_xml","source_org":"內政部（宗教及禮制司）全國宗教資訊系統","source_url":"https://religion.moi.gov.tw/Report/foundation.xml","license":"OGDL-Taiwan-1.0","source_tier":1,"fetched_at":"2026-08-01","geocode_precision":"original"}},{"type":"Feature","geometry":{"type":"Point","coordinates":[120.637199401855,24.1321601867676]},"properties":{"name":"財團法人一貫道寶光紹興崇華聖道基金會","county":"臺中市","address":"臺中市南屯區文心南五路一段649號","phone":"04-23801438","principal":"柯兆展","source":"moi_foundation_xml","source_org":"內政部（宗教及禮制司）全國宗教資訊系統","source_url":"https://religion.moi.gov.tw/Report/foundation.xml","license":"OGDL-Taiwan-1.0","source_tier":1,"fetched_at":"2026-08-01","geocode_precision":"original"}},{"type":"Feature","geometry":{"type":"Point","coordinates":[121.530654907227,25.0191211700439]},"properties":{"name":"財團法人基督教中華福音神學基金會","county":"臺北市","address":"臺北市大安區羅斯福路路3段269巷4號","phone":"03-2737477#1364","principal":"沈正","source":"moi_foundation_xml","source_org":"內政部（宗教及禮制司）全國宗教資訊系統","source_url":"https://religion.moi.gov.tw/Report/foundation.xml","license":"OGDL-Taiwan-1.0","source_tier":1,"fetched_at":"2026-08-01","geocode_precision":"original"}},{"type":"Feature","geometry":{"type":"Point","coordinates":[120.797401428223,23.8283672332764]},"properties":{"name":"財團法人鎮國基金會","county":"南投縣","address":"南投縣集集鎮廣明里竹坑巷1-1號","phone":"南投縣集集鎮廣明里竹","principal":null,"source":"moi_foundation_xml","source_org":"內政部（宗教及禮制司）全國宗教資訊系統","source_url":"https://religion.moi.gov.tw/Report/foundation.xml","license":"OGDL-Taiwan-1.0","source_tier":1,"fetched_at":"2026-08-01","geocode_precision":"original"}},{"type":"Feature","geometry":{"type":"Point","coordinates":[121.567596435547,25.053150177002]},"properties":{"name":"財團法人台北市慈雲天上聖母基金會","county":"臺北市","address":"臺北市松山區安平里寶清街42號","phone":"02-27691207","principal":"張茂楠","source":"moi_foundation_xml","source_org":"內政部（宗教及禮制司）全國宗教資訊系統","source_url":"https://religion.moi.gov.tw/Report/foundation.xml","license":"OGDL-Taiwan-1.0","source_tier":1,"fetched_at":"2026-08-01","geocode_precision":"original"}},{"type":"Feature","geometry":{"type":"Point","coordinates":[121.527946472168,25.0205821990967]},"properties":{"name":"財團法人全國宗教聯合發展基金會","county":"臺北市","address":"臺北市中正區羅斯福路3段126號10樓之3","phone":"羅斯福路3段126號10樓","principal":"朱武獻","source":"moi_foundation_xml","source_org":"內政部（宗教及禮制司）全國宗教資訊系統","source_url":"https://religion.moi.gov.tw/Report/foundation.xml","license":"OGDL-Taiwan-1.0","source_tier":1,"fetched_at":"2026-08-01","geocode_precision":"original"}},{"type":"Feature","geometry":{"type":"Point","coordinates":[121.544799804688,24.97998046875]},"properties":{"name":"財團法人台灣省台北縣禪林發展基金會","county":"新北市","address":"新北市新店區北宜路一段165號","phone":"02-27027146","principal":"白省三","source":"moi_foundation_xml","source_org":"內政部（宗教及禮制司）全國宗教資訊系統","source_url":"https://religion.moi.gov.tw/Report/foundation.xml","license":"OGDL-Taiwan-1.0","source_tier":1,"fetched_at":"2026-08-01","geocode_precision":"original"}},{"type":"Feature","geometry":{"type":"Point","coordinates":[120.220901489258,22.9010200500488]},"properties":{"name":"財團法人天真基金會","county":"高雄市","address":"高雄市湖內區海埔里信義路180號","phone":"06-2925270","principal":null,"source":"moi_foundation_xml","source_org":"內政部（宗教及禮制司）全國宗教資訊系統","source_url":"https://religion.moi.gov.tw/Report/foundation.xml","license":"OGDL-Taiwan-1.0","source_tier":1,"fetched_at":"2026-08-01","geocode_precision":"original"}},{"type":"Feature","geometry":{"type":"Point","coordinates":[121.540000915527,24.9846496582031]},"properties":{"name":"財團法人牧者基金會","county":"新北市","address":"新北市新店區中正路531-1號7樓","phone":"02-55998638","principal":"江秀琴","source":"moi_foundation_xml","source_org":"內政部（宗教及禮制司）全國宗教資訊系統","source_url":"https://religion.moi.gov.tw/Report/foundation.xml","license":"OGDL-Taiwan-1.0","source_tier":1,"fetched_at":"2026-08-01","geocode_precision":"original"}},{"type":"Feature","geometry":{"type":"Point","coordinates":[121.526397705078,25.0419807434082]},"properties":{"name":"財團法人天主教博愛基金會","county":"臺北市","address":"臺北市中正區杭州南路1段27號11樓之1","phone":"02-23415260","principal":"楊景明","source":"moi_foundation_xml","source_org":"內政部（宗教及禮制司）全國宗教資訊系統","source_url":"https://religion.moi.gov.tw/Report/foundation.xml","license":"OGDL-Taiwan-1.0","source_tier":1,"fetched_at":"2026-08-01","geocode_precision":"original"}},{"type":"Feature","geometry":{"type":"Point","coordinates":[121.227920532227,24.962329864502]},"properties":{"name":"財團法人桃園市寺廟團體公益慈善基金會","county":"桃園市","address":"桃園市中壢區延平路198號","phone":"03-4523356","principal":"王介禧","source":"moi_foundation_xml","source_org":"內政部（宗教及禮制司）全國宗教資訊系統","source_url":"https://religion.moi.gov.tw/Report/foundation.xml","license":"OGDL-Taiwan-1.0","source_tier":1,"fetched_at":"2026-08-01","geocode_precision":"original"}},{"type":"Feature","geometry":{"type":"Point","coordinates":[120.931732177734,23.8490734100342]},"properties":{"name":"財團法人南林尼僧佛教基金會","county":"南投縣","address":"南投縣魚池鄉共和村長興巷48號","phone":"共和村長興巷48號","principal":"林秀惠","source":"moi_foundation_xml","source_org":"內政部（宗教及禮制司）全國宗教資訊系統","source_url":"https://religion.moi.gov.tw/Report/foundation.xml","license":"OGDL-Taiwan-1.0","source_tier":1,"fetched_at":"2026-08-01","geocode_precision":"original"}},{"type":"Feature","geometry":{"type":"Point","coordinates":[121.55249786377,25.0412292480469]},"properties":{"name":"財團法人崇教真光台灣基金會","county":"臺北市","address":"臺北市大安區忠孝東路4段210號9樓","phone":"02-27236745","principal":"佐佐木孝則","source":"moi_foundation_xml","source_org":"內政部（宗教及禮制司）全國宗教資訊系統","source_url":"https://religion.moi.gov.tw/Report/foundation.xml","license":"OGDL-Taiwan-1.0","source_tier":1,"fetched_at":"2026-08-01","geocode_precision":"original"}},{"type":"Feature","geometry":{"type":"Point","coordinates":[120.977325439453,23.9407901763916]},"properties":{"name":"財團法人靈巖山佛教基金會","county":"南投縣","address":"南投縣埔里鎮中正路105之1號","phone":"049-2926336","principal":"施金佳","source":"moi_foundation_xml","source_org":"內政部（宗教及禮制司）全國宗教資訊系統","source_url":"https://religion.moi.gov.tw/Report/foundation.xml","license":"OGDL-Taiwan-1.0","source_tier":1,"fetched_at":"2026-08-01","geocode_precision":"original"}},{"type":"Feature","geometry":{"type":"Point","coordinates":[120.660003662109,24.1232204437256]},"properties":{"name":"財團法人基督教慕溪基金會","county":"臺中市","address":"臺中市西屯區福和里臺灣大道四段727號","phone":"04-23553959","principal":"邱顯俊","source":"moi_foundation_xml","source_org":"內政部（宗教及禮制司）全國宗教資訊系統","source_url":"https://religion.moi.gov.tw/Report/foundation.xml","license":"OGDL-Taiwan-1.0","source_tier":1,"fetched_at":"2026-08-01","geocode_precision":"original"}},{"type":"Feature","geometry":{"type":"Point","coordinates":[120.970710754395,24.7830505371094]},"properties":{"name":"財團法人印順佛教基金會","county":"新竹市","address":"新竹市東區明湖路365巷3號","phone":"03-5201863","principal":"張釗騰","source":"moi_foundation_xml","source_org":"內政部（宗教及禮制司）全國宗教資訊系統","source_url":"https://religion.moi.gov.tw/Report/foundation.xml","license":"OGDL-Taiwan-1.0","source_tier":1,"fetched_at":"2026-08-01","geocode_precision":"original"}},{"type":"Feature","geometry":{"type":"Point","coordinates":[120.332397460938,22.9526691436768]},"properties":{"name":"財團法人千佛山佛教基金會","county":"臺南市","address":"臺南市關廟區松腳里旺萊路466巷1號","phone":"06-5958106","principal":"陳梅蘭","source":"moi_foundation_xml","source_org":"內政部（宗教及禮制司）全國宗教資訊系統","source_url":"https://religion.moi.gov.tw/Report/foundation.xml","license":"OGDL-Taiwan-1.0","source_tier":1,"fetched_at":"2026-08-01","geocode_precision":"original"}},{"type":"Feature","geometry":{"type":"Point","coordinates":[120.198097229004,22.9832096099854]},"properties":{"name":"財團法人月慧山觀音禪院宗教菩提發展基金會","county":"臺南市","address":"臺南市中西區西門路一段466號1樓之3","phone":"06-2133532","principal":"林佳莉","source":"moi_foundation_xml","source_org":"內政部（宗教及禮制司）全國宗教資訊系統","source_url":"https://religion.moi.gov.tw/Report/foundation.xml","license":"OGDL-Taiwan-1.0","source_tier":1,"fetched_at":"2026-08-01","geocode_precision":"original"}},{"type":"Feature","geometry":{"type":"Point","coordinates":[121.512184143066,25.0423812866211]},"properties":{"name":"財團法人菩提法門佛教基金會","county":"臺北市","address":"臺北市中正區衡陽路51號13樓之1","phone":"02-23131177","principal":"曾素珍","source":"moi_foundation_xml","source_org":"內政部（宗教及禮制司）全國宗教資訊系統","source_url":"https://religion.moi.gov.tw/Report/foundation.xml","license":"OGDL-Taiwan-1.0","source_tier":1,"fetched_at":"2026-08-01","geocode_precision":"original"}},{"type":"Feature","geometry":{"type":"Point","coordinates":[121.543899536133,25.036750793457]},"properties":{"name":"財團法人世界紅卍字會臺灣道慈事業發展基金會","county":"臺北市","address":"臺北市大安區復興南路一段313巷2號（聯絡處：106303號14樓）","phone":"02-27036688#120","principal":"吳進原","source":"moi_foundation_xml","source_org":"內政部（宗教及禮制司）全國宗教資訊系統","source_url":"https://religion.moi.gov.tw/Report/foundation.xml","license":"OGDL-Taiwan-1.0","source_tier":1,"fetched_at":"2026-08-01","geocode_precision":"original"}},{"type":"Feature","geometry":{"type":"Point","coordinates":[121.542610168457,25.0544719696045]},"properties":{"name":"財團法人佛教佛乘宗基金會","county":"臺北市","address":"臺北市中山區長春路366號2樓","phone":"02-87129705","principal":"楊博光","source":"moi_foundation_xml","source_org":"內政部（宗教及禮制司）全國宗教資訊系統","source_url":"https://religion.moi.gov.tw/Report/foundation.xml","license":"OGDL-Taiwan-1.0","source_tier":1,"fetched_at":"2026-08-01","geocode_precision":"original"}},{"type":"Feature","geometry":{"type":"Point","coordinates":[118.418098449707,24.4627990722656]},"properties":{"name":"財團法人佛教弘法基金會","county":"金門縣","address":"金門縣金湖鎮海印寺1號","phone":"082-334703","principal":"張火良","source":"moi_foundation_xml","source_org":"內政部（宗教及禮制司）全國宗教資訊系統","source_url":"https://religion.moi.gov.tw/Report/foundation.xml","license":"OGDL-Taiwan-1.0","source_tier":1,"fetched_at":"2026-08-01","geocode_precision":"original"}},{"type":"Feature","geometry":{"type":"Point","coordinates":[121.513900756836,25.0416622161865]},"properties":{"name":"財團法人基督教慕主先鋒基金會","county":"臺北市","address":"臺北市中正區懷寧街112號6樓","phone":"02-25238768","principal":"江秀琴","source":"moi_foundation_xml","source_org":"內政部（宗教及禮制司）全國宗教資訊系統","source_url":"https://religion.moi.gov.tw/Report/foundation.xml","license":"OGDL-Taiwan-1.0","source_tier":1,"fetched_at":"2026-08-01","geocode_precision":"original"}},{"type":"Feature","geometry":{"type":"Point","coordinates":[121.477844238281,24.9617671966553]},"properties":{"name":"財團法人道教真極慈善基金會","county":"新北市","address":"新北市新店區安祥路106之6號","phone":"新店市安祥路106之6號","principal":"吳自益","source":"moi_foundation_xml","source_org":"內政部（宗教及禮制司）全國宗教資訊系統","source_url":"https://religion.moi.gov.tw/Report/foundation.xml","license":"OGDL-Taiwan-1.0","source_tier":1,"fetched_at":"2026-08-01","geocode_precision":"original"}},{"type":"Feature","geometry":{"type":"Point","coordinates":[121.247428894043,24.8349304199219]},"properties":{"name":"財團法人新生佛教基金會","county":"桃園市","address":"桃園市龍潭區三坑村永昌路51巷5號","phone":"03-4111107","principal":"李火明","source":"moi_foundation_xml","source_org":"內政部（宗教及禮制司）全國宗教資訊系統","source_url":"https://religion.moi.gov.tw/Report/foundation.xml","license":"OGDL-Taiwan-1.0","source_tier":1,"fetched_at":"2026-08-01","geocode_precision":"original"}},{"type":"Feature","geometry":{"type":"Point","coordinates":[121.546897888184,24.9863395690918]},"properties":{"name":"財團法人華藏佛教基金會","county":"臺北市","address":"臺北市文山區木柵路1段58巷15號","phone":"02-22365152","principal":"宋國倫","source":"moi_foundation_xml","source_org":"內政部（宗教及禮制司）全國宗教資訊系統","source_url":"https://religion.moi.gov.tw/Report/foundation.xml","license":"OGDL-Taiwan-1.0","source_tier":1,"fetched_at":"2026-08-01","geocode_precision":"original"}},{"type":"Feature","geometry":{"type":"Point","coordinates":[121.531097412109,25.0190601348877]},"properties":{"name":"財團法人台灣基督長老教會宣教基金會","county":"臺北市","address":"臺北市大安區羅斯福路三段269巷3號","phone":"02-23625282","principal":"黃瑭新","source":"moi_foundation_xml","source_org":"內政部（宗教及禮制司）全國宗教資訊系統","source_url":"https://religion.moi.gov.tw/Report/foundation.xml","license":"OGDL-Taiwan-1.0","source_tier":1,"fetched_at":"2026-08-01","geocode_precision":"original"}},{"type":"Feature","geometry":{"type":"Point","coordinates":[121.531410217285,25.030216217041]},"properties":{"name":"財團法人基督教漢侯基金會","county":"臺北市","address":"臺北市大安區信義路二段198巷42號2樓之3","phone":"02-23963328","principal":"陳昭宇","source":"moi_foundation_xml","source_org":"內政部（宗教及禮制司）全國宗教資訊系統","source_url":"https://religion.moi.gov.tw/Report/foundation.xml","license":"OGDL-Taiwan-1.0","source_tier":1,"fetched_at":"2026-08-01","geocode_precision":"original"}},{"type":"Feature","geometry":{"type":"Point","coordinates":[121.556602478027,25.077880859375]},"properties":{"name":"財團法人台北市中山下塔悠福德爺基金會","county":"臺北市","address":"臺北市中山區成功里敬業三路196號","phone":"02-25322416","principal":"許萬通","source":"moi_foundation_xml","source_org":"內政部（宗教及禮制司）全國宗教資訊系統","source_url":"https://religion.moi.gov.tw/Report/foundation.xml","license":"OGDL-Taiwan-1.0","source_tier":1,"fetched_at":"2026-08-01","geocode_precision":"original"}},{"type":"Feature","geometry":{"type":"Point","coordinates":[121.558799743652,25.0328197479248]},"properties":{"name":"財團法人台北市基督福音基金會","county":"臺北市","address":"臺北市信義區信義路4段460號22樓","phone":"02-27575702","principal":"鄭摩西","source":"moi_foundation_xml","source_org":"內政部（宗教及禮制司）全國宗教資訊系統","source_url":"https://religion.moi.gov.tw/Report/foundation.xml","license":"OGDL-Taiwan-1.0","source_tier":1,"fetched_at":"2026-08-01","geocode_precision":"original"}},{"type":"Feature","geometry":{"type":"Point","coordinates":[120.96800994873,24.7891635894775]},"properties":{"name":"財團法人佛教新大眾基金會","county":"新竹市","address":"新竹市東區明湖路281號","phone":"03-5244428","principal":"邱創霖","source":"moi_foundation_xml","source_org":"內政部（宗教及禮制司）全國宗教資訊系統","source_url":"https://religion.moi.gov.tw/Report/foundation.xml","license":"OGDL-Taiwan-1.0","source_tier":1,"fetched_at":"2026-08-01","geocode_precision":"original"}},{"type":"Feature","geometry":{"type":"Point","coordinates":[121.533996582031,25.0289344787598]},"properties":{"name":"財團法人天主教華人福傳基金會","county":"臺北市","address":"臺北市大安區新生南路2段50號","phone":"02-29017270","principal":"詹德隆","source":"moi_foundation_xml","source_org":"內政部（宗教及禮制司）全國宗教資訊系統","source_url":"https://religion.moi.gov.tw/Report/foundation.xml","license":"OGDL-Taiwan-1.0","source_tier":1,"fetched_at":"2026-08-01","geocode_precision":"original"}},{"type":"Feature","geometry":{"type":"Point","coordinates":[121.548416137695,25.0387077331543]},"properties":{"name":"財團法人基督教雅歌基金會","county":"臺北市","address":"臺北市大安區仁愛路四段101號5樓","phone":"02-87715833","principal":"王雲娥","source":"moi_foundation_xml","source_org":"內政部（宗教及禮制司）全國宗教資訊系統","source_url":"https://religion.moi.gov.tw/Report/foundation.xml","license":"OGDL-Taiwan-1.0","source_tier":1,"fetched_at":"2026-08-01","geocode_precision":"original"}},{"type":"Feature","geometry":{"type":"Point","coordinates":[121.563903808594,25.040979385376]},"properties":{"name":"財團法人台北市基督教金燈台宣教基金會","county":"臺北市","address":"臺北市信義區興隆里忠孝東路4段560號6樓之2","phone":"02-27582335","principal":"游文卿","source":"moi_foundation_xml","source_org":"內政部（宗教及禮制司）全國宗教資訊系統","source_url":"https://religion.moi.gov.tw/Report/foundation.xml","license":"OGDL-Taiwan-1.0","source_tier":1,"fetched_at":"2026-08-01","geocode_precision":"original"}},{"type":"Feature","geometry":{"type":"Point","coordinates":[121.551559448242,25.0480823516846]},"properties":{"name":"財團法人中華民國日蓮正宗基金會","county":"臺北市","address":"臺北市松山區八德路三段30號5樓","phone":"095-2773773","principal":"漆畑日実","source":"moi_foundation_xml","source_org":"內政部（宗教及禮制司）全國宗教資訊系統","source_url":"https://religion.moi.gov.tw/Report/foundation.xml","license":"OGDL-Taiwan-1.0","source_tier":1,"fetched_at":"2026-08-01","geocode_precision":"original"}},{"type":"Feature","geometry":{"type":"Point","coordinates":[120.717597961426,24.1337394714355]},"properties":{"name":"財團法人一貫道崇正基金會","county":"臺中市","address":"臺中市太平區東平路766號","phone":"04-2782091","principal":"黃世妍","source":"moi_foundation_xml","source_org":"內政部（宗教及禮制司）全國宗教資訊系統","source_url":"https://religion.moi.gov.tw/Report/foundation.xml","license":"OGDL-Taiwan-1.0","source_tier":1,"fetched_at":"2026-08-01","geocode_precision":"original"}},{"type":"Feature","geometry":{"type":"Point","coordinates":[121.233200073242,24.8463897705078]},"properties":{"name":"財團法人道教真極慈善基金會","county":"桃園市","address":"桃園市龍潭區忠勇街217號","phone":"03-4861116","principal":"吳自益","source":"moi_foundation_xml","source_org":"內政部（宗教及禮制司）全國宗教資訊系統","source_url":"https://religion.moi.gov.tw/Report/foundation.xml","license":"OGDL-Taiwan-1.0","source_tier":1,"fetched_at":"2026-08-01","geocode_precision":"original"}},{"type":"Feature","geometry":{"type":"Point","coordinates":[118.320137023926,24.434814453125]},"properties":{"name":"財團法人金門大佛開發基金會","county":"金門縣","address":"金門縣金城鎮中興路205巷5號","phone":"中興路205巷5號","principal":"張火良","source":"moi_foundation_xml","source_org":"內政部（宗教及禮制司）全國宗教資訊系統","source_url":"https://religion.moi.gov.tw/Report/foundation.xml","license":"OGDL-Taiwan-1.0","source_tier":1,"fetched_at":"2026-08-01","geocode_precision":"original"}},{"type":"Feature","geometry":{"type":"Point","coordinates":[120.52815246582,23.4374523162842]},"properties":{"name":"財團法人慧深佛教基金會","county":"嘉義縣","address":"嘉義縣中埔鄉隆興村中正路480號","phone":"05-2536546","principal":"李玉琪 (釋慧澤)","source":"moi_foundation_xml","source_org":"內政部（宗教及禮制司）全國宗教資訊系統","source_url":"https://religion.moi.gov.tw/Report/foundation.xml","license":"OGDL-Taiwan-1.0","source_tier":1,"fetched_at":"2026-08-01","geocode_precision":"original"}},{"type":"Feature","geometry":{"type":"Point","coordinates":[121.536293029785,25.0499267578125]},"properties":{"name":"財團法人台北市九如禪林基金會","county":"臺北市","address":"臺北市中山區朱園里建國北路1段90號10樓","phone":"02-25062585","principal":"吳如英","source":"moi_foundation_xml","source_org":"內政部（宗教及禮制司）全國宗教資訊系統","source_url":"https://religion.moi.gov.tw/Report/foundation.xml","license":"OGDL-Taiwan-1.0","source_tier":1,"fetched_at":"2026-08-01","geocode_precision":"original"}},{"type":"Feature","geometry":{"type":"Point","coordinates":[120.799896240234,24.232120513916]},"properties":{"name":"財團法人台灣內觀禪修基金會","county":"臺中市","address":"臺中市新社區大南里中和街2段280巷35號","phone":"04-25814265","principal":null,"source":"moi_foundation_xml","source_org":"內政部（宗教及禮制司）全國宗教資訊系統","source_url":"https://religion.moi.gov.tw/Report/foundation.xml","license":"OGDL-Taiwan-1.0","source_tier":1,"fetched_at":"2026-08-01","geocode_precision":"original"}},{"type":"Feature","geometry":{"type":"Point","coordinates":[118.417037963867,24.4413890838623]},"properties":{"name":"財團法人金門縣忠義廟基金會","county":"金門縣","address":"金門縣金湖鎮新市里林森路2號","phone":"082-333460","principal":"陳水福","source":"moi_foundation_xml","source_org":"內政部（宗教及禮制司）全國宗教資訊系統","source_url":"https://religion.moi.gov.tw/Report/foundation.xml","license":"OGDL-Taiwan-1.0","source_tier":1,"fetched_at":"2026-08-01","geocode_precision":"original"}},{"type":"Feature","geometry":{"type":"Point","coordinates":[121.554176330566,25.0518264770508]},"properties":{"name":"財團法人宗南聯合佛教基金會","county":"臺北市","address":"臺北市松山區南京東路4段95號6樓","phone":"02-25149686","principal":"陳啟德","source":"moi_foundation_xml","source_org":"內政部（宗教及禮制司）全國宗教資訊系統","source_url":"https://religion.moi.gov.tw/Report/foundation.xml","license":"OGDL-Taiwan-1.0","source_tier":1,"fetched_at":"2026-08-01","geocode_precision":"original"}},{"type":"Feature","geometry":{"type":"Point","coordinates":[120.987449645996,24.6819324493408]},"properties":{"name":"財團法人彌勒大道總會基金會","county":"新竹縣","address":"新竹縣峨眉鄉湖光村快樂路1號","phone":"03-5806632","principal":"汪慈光","source":"moi_foundation_xml","source_org":"內政部（宗教及禮制司）全國宗教資訊系統","source_url":"https://religion.moi.gov.tw/Report/foundation.xml","license":"OGDL-Taiwan-1.0","source_tier":1,"fetched_at":"2026-08-01","geocode_precision":"original"}},{"type":"Feature","geometry":{"type":"Point","coordinates":[121.582572937012,25.0517921447754]},"properties":{"name":"財團法人中台山佛教基金會","county":"臺北市","address":"臺北市南港區南港路3段270號5樓","phone":"049-2930215","principal":"應景輝","source":"moi_foundation_xml","source_org":"內政部（宗教及禮制司）全國宗教資訊系統","source_url":"https://religion.moi.gov.tw/Report/foundation.xml","license":"OGDL-Taiwan-1.0","source_tier":1,"fetched_at":"2026-08-01","geocode_precision":"original"}},{"type":"Feature","geometry":{"type":"Point","coordinates":[121.50700378418,25.1285095214844]},"properties":{"name":"財團法人法鼓山佛教基金會","county":"臺北市","address":"臺北市北投區公館路186號","phone":"02-28939966","principal":"洪鴻榮","source":"moi_foundation_xml","source_org":"內政部（宗教及禮制司）全國宗教資訊系統","source_url":"https://religion.moi.gov.tw/Report/foundation.xml","license":"OGDL-Taiwan-1.0","source_tier":1,"fetched_at":"2026-08-01","geocode_precision":"original"}},{"type":"Feature","geometry":{"type":"Point","coordinates":[121.50798034668,25.0081005096436]},"properties":{"name":"財團法人世界宗教博物館發展基金會","county":"新北市","address":"新北市永和區中山路一段236號7樓","phone":"02-82316789#1749","principal":"釋星道","source":"moi_foundation_xml","source_org":"內政部（宗教及禮制司）全國宗教資訊系統","source_url":"https://religion.moi.gov.tw/Report/foundation.xml","license":"OGDL-Taiwan-1.0","source_tier":1,"fetched_at":"2026-08-01","geocode_precision":"original"}},{"type":"Feature","geometry":{"type":"Point","coordinates":[121.532699584961,25.0468692779541]},"properties":{"name":"財團法人臺北市基督教偕烏妹紀念基金會","county":"臺北市","address":"臺北市中山區松江路22號6樓之1","phone":"02-25238855","principal":"黃尚仁","source":"moi_foundation_xml","source_org":"內政部（宗教及禮制司）全國宗教資訊系統","source_url":"https://religion.moi.gov.tw/Report/foundation.xml","license":"OGDL-Taiwan-1.0","source_tier":1,"fetched_at":"2026-08-01","geocode_precision":"original"}},{"type":"Feature","geometry":{"type":"Point","coordinates":[121.413803100586,24.9862003326416]},"properties":{"name":"財團法人唯心聖教功德基金會","county":"臺中市","address":"臺中市南屯區文心南路106號6樓","phone":"04-24758716","principal":"丁裕權","source":"moi_foundation_xml","source_org":"內政部（宗教及禮制司）全國宗教資訊系統","source_url":"https://religion.moi.gov.tw/Report/foundation.xml","license":"OGDL-Taiwan-1.0","source_tier":1,"fetched_at":"2026-08-01","geocode_precision":"original"}},{"type":"Feature","geometry":{"type":"Point","coordinates":[121.517066955566,25.0501537322998]},"properties":{"name":"財團法人釋迦牟尼佛救世基金會","county":"臺北市","address":"臺北市大同區承德路一段17號8樓之5","phone":"02-25587108","principal":"黃秋榮","source":"moi_foundation_xml","source_org":"內政部（宗教及禮制司）全國宗教資訊系統","source_url":"https://religion.moi.gov.tw/Report/foundation.xml","license":"OGDL-Taiwan-1.0","source_tier":1,"fetched_at":"2026-08-01","geocode_precision":"original"}},{"type":"Feature","geometry":{"type":"Point","coordinates":[121.543601989746,24.9926109313965]},"properties":{"name":"財團法人基督教青年神學教育總會","county":"臺北市","address":"臺北市文山區景中街36號B1","phone":"02-29337682","principal":"董宇正","source":"moi_foundation_xml","source_org":"內政部（宗教及禮制司）全國宗教資訊系統","source_url":"https://religion.moi.gov.tw/Report/foundation.xml","license":"OGDL-Taiwan-1.0","source_tier":1,"fetched_at":"2026-08-01","geocode_precision":"original"}},{"type":"Feature","geometry":{"type":"Point","coordinates":[121.526702880859,25.0573997497559]},"properties":{"name":"財團法人台北市養興宗教基金會","county":"臺北市","address":"臺北市中正區同安街90號","phone":"02-23911638","principal":"朱芷萱","source":"moi_foundation_xml","source_org":"內政部（宗教及禮制司）全國宗教資訊系統","source_url":"https://religion.moi.gov.tw/Report/foundation.xml","license":"OGDL-Taiwan-1.0","source_tier":1,"fetched_at":"2026-08-01","geocode_precision":"original"}},{"type":"Feature","geometry":{"type":"Point","coordinates":[121.550399780273,25.1000003814697]},"properties":{"name":"財團法人台灣創價學會基金會","county":"臺北市","address":"臺北市士林區至善路二段250號","phone":"02-28881777","principal":"林釗","source":"moi_foundation_xml","source_org":"內政部（宗教及禮制司）全國宗教資訊系統","source_url":"https://religion.moi.gov.tw/Report/foundation.xml","license":"OGDL-Taiwan-1.0","source_tier":1,"fetched_at":"2026-08-01","geocode_precision":"original"}},{"type":"Feature","geometry":{"type":"Point","coordinates":[121.556701660156,25.0333003997803]},"properties":{"name":"財團法人華藏淨宗弘化基金會","county":"臺北市","address":"臺北市大安區信義路4段341號5樓","phone":"02-27547178","principal":"林正道","source":"moi_foundation_xml","source_org":"內政部（宗教及禮制司）全國宗教資訊系統","source_url":"https://religion.moi.gov.tw/Report/foundation.xml","license":"OGDL-Taiwan-1.0","source_tier":1,"fetched_at":"2026-08-01","geocode_precision":"original"}},{"type":"Feature","geometry":{"type":"Point","coordinates":[121.493469238281,24.9833717346191]},"properties":{"name":"財團法人佛教靈宗基金會","county":"新北市","address":"新北市中和區圓通路367巷68號","phone":"02-89818272","principal":"莊財貴","source":"moi_foundation_xml","source_org":"內政部（宗教及禮制司）全國宗教資訊系統","source_url":"https://religion.moi.gov.tw/Report/foundation.xml","license":"OGDL-Taiwan-1.0","source_tier":1,"fetched_at":"2026-08-01","geocode_precision":"original"}},{"type":"Feature","geometry":{"type":"Point","coordinates":[121.53980255127,24.986270904541]},"properties":{"name":"財團法人基督教中華信望愛基金會","county":"新北市","address":"新北市新店區中正路533號8樓（聯絡處：23143207號13樓）","phone":"02-22185452","principal":"江素蘭","source":"moi_foundation_xml","source_org":"內政部（宗教及禮制司）全國宗教資訊系統","source_url":"https://religion.moi.gov.tw/Report/foundation.xml","license":"OGDL-Taiwan-1.0","source_tier":1,"fetched_at":"2026-08-01","geocode_precision":"original"}},{"type":"Feature","geometry":{"type":"Point","coordinates":[120.682914733887,24.1274757385254]},"properties":{"name":"財團法人萬佛山聖印佛教事業基金會","county":"臺中市","address":"臺中市南區合作街109號5樓","phone":"04-22878919","principal":"郭龍宗（釋常船）","source":"moi_foundation_xml","source_org":"內政部（宗教及禮制司）全國宗教資訊系統","source_url":"https://religion.moi.gov.tw/Report/foundation.xml","license":"OGDL-Taiwan-1.0","source_tier":1,"fetched_at":"2026-08-01","geocode_precision":"original"}},{"type":"Feature","geometry":{"type":"Point","coordinates":[121.549499511719,25.0580196380615]},"properties":{"name":"財團法人基督權能福音基金會","county":"臺北市","address":"臺北市大安區信義路四段1號B1","phone":"02-27004400","principal":"朱秋全","source":"moi_foundation_xml","source_org":"內政部（宗教及禮制司）全國宗教資訊系統","source_url":"https://religion.moi.gov.tw/Report/foundation.xml","license":"OGDL-Taiwan-1.0","source_tier":1,"fetched_at":"2026-08-01","geocode_precision":"original"}},{"type":"Feature","geometry":{"type":"Point","coordinates":[121.459762573242,25.1568794250488]},"properties":{"name":"財團法人中國佛教阿含宗基金會","county":"新北市","address":"新北市淡水區中正東路27之6號1樓","phone":"02-28084601","principal":"日浦剛","source":"moi_foundation_xml","source_org":"內政部（宗教及禮制司）全國宗教資訊系統","source_url":"https://religion.moi.gov.tw/Report/foundation.xml","license":"OGDL-Taiwan-1.0","source_tier":1,"fetched_at":"2026-08-01","geocode_precision":"original"}},{"type":"Feature","geometry":{"type":"Point","coordinates":[121.529602050781,25.0406093597412]},"properties":{"name":"財團法人伽耶山基金會","county":"臺北市","address":"臺北市中正區濟南路二段36號1樓","phone":"02-23946800","principal":"陳夏珠","source":"moi_foundation_xml","source_org":"內政部（宗教及禮制司）全國宗教資訊系統","source_url":"https://religion.moi.gov.tw/Report/foundation.xml","license":"OGDL-Taiwan-1.0","source_tier":1,"fetched_at":"2026-08-01","geocode_precision":"original"}},{"type":"Feature","geometry":{"type":"Point","coordinates":[121.533699035645,25.0402698516846]},"properties":{"name":"財團法人孫大程佈道大會基金會","county":"臺北市","address":"臺北市中山區建國北路1段69號10樓","phone":"02-25025712","principal":"孫大程","source":"moi_foundation_xml","source_org":"內政部（宗教及禮制司）全國宗教資訊系統","source_url":"https://religion.moi.gov.tw/Report/foundation.xml","license":"OGDL-Taiwan-1.0","source_tier":1,"fetched_at":"2026-08-01","geocode_precision":"original"}},{"type":"Feature","geometry":{"type":"Point","coordinates":[121.533096313477,25.0285511016846]},"properties":{"name":"財團法人台北市青龍天上聖母基金會","county":"臺北市","address":"臺北市大安區龍安里和平東路1段183巷23號","phone":"02-23962157","principal":"陳振豐","source":"moi_foundation_xml","source_org":"內政部（宗教及禮制司）全國宗教資訊系統","source_url":"https://religion.moi.gov.tw/Report/foundation.xml","license":"OGDL-Taiwan-1.0","source_tier":1,"fetched_at":"2026-08-01","geocode_precision":"original"}},{"type":"Feature","geometry":{"type":"Point","coordinates":[121.54931640625,25.0301895141602]},"properties":{"name":"財團法人台北基督教國際華人佈道基金會","county":"臺北市","address":"臺北市大安區敦化南路2段77號6樓","phone":"02-27066006","principal":"陳定川","source":"moi_foundation_xml","source_org":"內政部（宗教及禮制司）全國宗教資訊系統","source_url":"https://religion.moi.gov.tw/Report/foundation.xml","license":"OGDL-Taiwan-1.0","source_tier":1,"fetched_at":"2026-08-01","geocode_precision":"original"}},{"type":"Feature","geometry":{"type":"Point","coordinates":[120.679550170898,24.1452751159668]},"properties":{"name":"財團法人天主教聖心基金會","county":"臺中市","address":"臺中市中區光復路136號4樓","phone":"04-22202413","principal":"謝映雪","source":"moi_foundation_xml","source_org":"內政部（宗教及禮制司）全國宗教資訊系統","source_url":"https://religion.moi.gov.tw/Report/foundation.xml","license":"OGDL-Taiwan-1.0","source_tier":1,"fetched_at":"2026-08-01","geocode_precision":"original"}},{"type":"Feature","geometry":{"type":"Point","coordinates":[120.577003479004,23.9656391143799]},"properties":{"name":"財團法人佛教玄光通功德基金會","county":"彰化縣","address":"彰化縣員林市浮圳路2段403號3樓","phone":"04-23264779","principal":"張丁乾","source":"moi_foundation_xml","source_org":"內政部（宗教及禮制司）全國宗教資訊系統","source_url":"https://religion.moi.gov.tw/Report/foundation.xml","license":"OGDL-Taiwan-1.0","source_tier":1,"fetched_at":"2026-08-01","geocode_precision":"original"}},{"type":"Feature","geometry":{"type":"Point","coordinates":[121.568748474121,25.037223815918]},"properties":{"name":"財團法人佛教澈贊法王基金會","county":"臺北市","address":"臺北市信義區松仁路89號9-2樓","phone":"02-87861608","principal":null,"source":"moi_foundation_xml","source_org":"內政部（宗教及禮制司）全國宗教資訊系統","source_url":"https://religion.moi.gov.tw/Report/foundation.xml","license":"OGDL-Taiwan-1.0","source_tier":1,"fetched_at":"2026-08-01","geocode_precision":"original"}},{"type":"Feature","geometry":{"type":"Point","coordinates":[121.51969909668,25.0497398376465]},"properties":{"name":"財團法人一貫道寶光建德天元基金會","county":"臺北市","address":"臺北市大同區長安西路78巷3弄13號","phone":"02-25580121","principal":"黃張源","source":"moi_foundation_xml","source_org":"內政部（宗教及禮制司）全國宗教資訊系統","source_url":"https://religion.moi.gov.tw/Report/foundation.xml","license":"OGDL-Taiwan-1.0","source_tier":1,"fetched_at":"2026-08-01","geocode_precision":"original"}},{"type":"Feature","geometry":{"type":"Point","coordinates":[120.695091247559,24.1718635559082]},"properties":{"name":"財團法人廣天總道院道教傳度基金會","county":"臺中市","address":"臺中市北屯區平田里遼陽5街117號","phone":"04-22431731","principal":"張家豪","source":"moi_foundation_xml","source_org":"內政部（宗教及禮制司）全國宗教資訊系統","source_url":"https://religion.moi.gov.tw/Report/foundation.xml","license":"OGDL-Taiwan-1.0","source_tier":1,"fetched_at":"2026-08-01","geocode_precision":"original"}},{"type":"Feature","geometry":{"type":"Point","coordinates":[120.69066619873,24.156042098999]},"properties":{"name":"財團法人一貫道德煜基金會","county":"臺中市","address":"臺中市北區興進路213號5樓","phone":"04-22581569","principal":"鄧安純","source":"moi_foundation_xml","source_org":"內政部（宗教及禮制司）全國宗教資訊系統","source_url":"https://religion.moi.gov.tw/Report/foundation.xml","license":"OGDL-Taiwan-1.0","source_tier":1,"fetched_at":"2026-08-01","geocode_precision":"original"}},{"type":"Feature","geometry":{"type":"Point","coordinates":[121.002296447754,23.9603996276855]},"properties":{"name":"財團法人一貫道發一宗教發展基金會","county":"南投縣","address":"南投縣埔里鎮鯉魚路25之3號","phone":"049-2984590","principal":"謝坤德","source":"moi_foundation_xml","source_org":"內政部（宗教及禮制司）全國宗教資訊系統","source_url":"https://religion.moi.gov.tw/Report/foundation.xml","license":"OGDL-Taiwan-1.0","source_tier":1,"fetched_at":"2026-08-01","geocode_precision":"original"}},{"type":"Feature","geometry":{"type":"Point","coordinates":[120.341400146484,22.8835792541504]},"properties":{"name":"財團法人上天媽祖宗教基金會","county":"高雄市","address":"高雄市阿蓮區玉庫里玉庫118-7號","phone":"07-6311015","principal":"龐百正","source":"moi_foundation_xml","source_org":"內政部（宗教及禮制司）全國宗教資訊系統","source_url":"https://religion.moi.gov.tw/Report/foundation.xml","license":"OGDL-Taiwan-1.0","source_tier":1,"fetched_at":"2026-08-01","geocode_precision":"original"}},{"type":"Feature","geometry":{"type":"Point","coordinates":[120.656402587891,24.1584491729736]},"properties":{"name":"財團法人台中市南海觀音佛教基金會","county":"臺中市","address":"臺中市西屯區何南里臺灣大道2段659號3樓","phone":"04-23261600","principal":"楊榮燕","source":"moi_foundation_xml","source_org":"內政部（宗教及禮制司）全國宗教資訊系統","source_url":"https://religion.moi.gov.tw/Report/foundation.xml","license":"OGDL-Taiwan-1.0","source_tier":1,"fetched_at":"2026-08-01","geocode_precision":"original"}},{"type":"Feature","geometry":{"type":"Point","coordinates":[120.545372009277,24.2868156433105]},"properties":{"name":"財團法人玉皇大帝增福基金會","county":"臺中市","address":"臺中市清水區海濱里海濱路336號","phone":"04-26595798","principal":"蔡添壽","source":"moi_foundation_xml","source_org":"內政部（宗教及禮制司）全國宗教資訊系統","source_url":"https://religion.moi.gov.tw/Report/foundation.xml","license":"OGDL-Taiwan-1.0","source_tier":1,"fetched_at":"2026-08-01","geocode_precision":"original"}},{"type":"Feature","geometry":{"type":"Point","coordinates":[121.592651367188,25.0681953430176]},"properties":{"name":"財團法人佛教如來宗如來實證基金會","county":"臺北市","address":"臺北市內湖區民權東路6段180巷6號12樓","phone":"02-27902363","principal":"蔡樽璿","source":"moi_foundation_xml","source_org":"內政部（宗教及禮制司）全國宗教資訊系統","source_url":"https://religion.moi.gov.tw/Report/foundation.xml","license":"OGDL-Taiwan-1.0","source_tier":1,"fetched_at":"2026-08-01","geocode_precision":"original"}},{"type":"Feature","geometry":{"type":"Point","coordinates":[120.37850189209,22.623420715332]},"properties":{"name":"財團法人天祥宇宙聖道基金會","county":"高雄市","address":"高雄市鳳山區誠群街3巷2號","phone":"07-7026575","principal":"陳宗仁","source":"moi_foundation_xml","source_org":"內政部（宗教及禮制司）全國宗教資訊系統","source_url":"https://religion.moi.gov.tw/Report/foundation.xml","license":"OGDL-Taiwan-1.0","source_tier":1,"fetched_at":"2026-08-01","geocode_precision":"original"}},{"type":"Feature","geometry":{"type":"Point","coordinates":[121.568748474121,25.037223815918]},"properties":{"name":"財團法人佛教仁欽多吉仁波切基金會","county":"臺北市","address":"臺北市信義區松仁路89號14樓之2","phone":"02-27239388","principal":null,"source":"moi_foundation_xml","source_org":"內政部（宗教及禮制司）全國宗教資訊系統","source_url":"https://religion.moi.gov.tw/Report/foundation.xml","license":"OGDL-Taiwan-1.0","source_tier":1,"fetched_at":"2026-08-01","geocode_precision":"original"}},{"type":"Feature","geometry":{"type":"Point","coordinates":[121.126945495605,22.7696208953857]},"properties":{"name":"財團法人臺灣佛教龍樹林基金會","county":"臺東縣","address":"臺東縣臺東市中興路二段366巷12弄20號","phone":"02-29207500","principal":"李金樹","source":"moi_foundation_xml","source_org":"內政部（宗教及禮制司）全國宗教資訊系統","source_url":"https://religion.moi.gov.tw/Report/foundation.xml","license":"OGDL-Taiwan-1.0","source_tier":1,"fetched_at":"2026-08-01","geocode_precision":"original"}},{"type":"Feature","geometry":{"type":"Point","coordinates":[121.559898376465,25.0573291778564]},"properties":{"name":"財團法人臺北市松山東社慈福基金會","county":"臺北市","address":"臺北市松山區民生東路5段36巷8弄11號2樓","phone":"02-87872089","principal":"魏復鎮","source":"moi_foundation_xml","source_org":"內政部（宗教及禮制司）全國宗教資訊系統","source_url":"https://religion.moi.gov.tw/Report/foundation.xml","license":"OGDL-Taiwan-1.0","source_tier":1,"fetched_at":"2026-08-01","geocode_precision":"original"}},{"type":"Feature","geometry":{"type":"Point","coordinates":[120.694358825684,24.0489902496338]},"properties":{"name":"財團法人一貫道善化基金會","county":"臺中市","address":"臺中市霧峰區坑口里中正路662巷2-1號","phone":"04-23394480","principal":"施金杰","source":"moi_foundation_xml","source_org":"內政部（宗教及禮制司）全國宗教資訊系統","source_url":"https://religion.moi.gov.tw/Report/foundation.xml","license":"OGDL-Taiwan-1.0","source_tier":1,"fetched_at":"2026-08-01","geocode_precision":"original"}},{"type":"Feature","geometry":{"type":"Point","coordinates":[120.654556274414,24.0463409423828]},"properties":{"name":"財團法人台中市吳厝百姓公慈善道教基金會","county":"臺中市","address":"臺中市烏日區南里里溪南路三段507號","phone":"04-23302719","principal":null,"source":"moi_foundation_xml","source_org":"內政部（宗教及禮制司）全國宗教資訊系統","source_url":"https://religion.moi.gov.tw/Report/foundation.xml","license":"OGDL-Taiwan-1.0","source_tier":1,"fetched_at":"2026-08-01","geocode_precision":"original"}},{"type":"Feature","geometry":{"type":"Point","coordinates":[120.814659118652,24.5675373077393]},"properties":{"name":"財團法人覺行佛教基金會","county":"苗栗縣","address":"苗栗縣苗栗市祥發街88號2樓","phone":"02-55550077#1500","principal":"釋證達阿旺德吉","source":"moi_foundation_xml","source_org":"內政部（宗教及禮制司）全國宗教資訊系統","source_url":"https://religion.moi.gov.tw/Report/foundation.xml","license":"OGDL-Taiwan-1.0","source_tier":1,"fetched_at":"2026-08-01","geocode_precision":"original"}},{"type":"Feature","geometry":{"type":"Point","coordinates":[121.548698425293,25.0580997467041]},"properties":{"name":"財團法人臺北市基督教根源基金會","county":"臺北市","address":"臺北市松山區敦化北路214號7樓","phone":"02-55881763","principal":"劉致宏","source":"moi_foundation_xml","source_org":"內政部（宗教及禮制司）全國宗教資訊系統","source_url":"https://religion.moi.gov.tw/Report/foundation.xml","license":"OGDL-Taiwan-1.0","source_tier":1,"fetched_at":"2026-08-01","geocode_precision":"original"}},{"type":"Feature","geometry":{"type":"Point","coordinates":[121.185089111328,24.9186573028564]},"properties":{"name":"財團法人發一崇德桃園宗教發展基金會","county":"桃園市","address":"桃園市楊梅區埔心里14鄰新興街40號7樓","phone":"03-3330953","principal":"劉邦樑","source":"moi_foundation_xml","source_org":"內政部（宗教及禮制司）全國宗教資訊系統","source_url":"https://religion.moi.gov.tw/Report/foundation.xml","license":"OGDL-Taiwan-1.0","source_tier":1,"fetched_at":"2026-08-01","geocode_precision":"original"}},{"type":"Feature","geometry":{"type":"Point","coordinates":[121.485786437988,25.0547790527344]},"properties":{"name":"財團法人新北市宏聖宮宗教基金會","county":"新北市","address":"新北市三重區重新路四段97號30樓之2","phone":"02-29722698","principal":"葉力銓","source":"moi_foundation_xml","source_org":"內政部（宗教及禮制司）全國宗教資訊系統","source_url":"https://religion.moi.gov.tw/Report/foundation.xml","license":"OGDL-Taiwan-1.0","source_tier":1,"fetched_at":"2026-08-01","geocode_precision":"original"}},{"type":"Feature","geometry":{"type":"Point","coordinates":[120.658899,24.121791]},"properties":{"name":"財團法人臺中市弘明佛教基金會","county":"臺中市","address":"臺中市南區復興路二段71巷31弄25號4樓","phone":"049-2731799#766","principal":"陳火爐","source":"moi_foundation_xml","source_org":"內政部（宗教及禮制司）全國宗教資訊系統","source_url":"https://religion.moi.gov.tw/Report/foundation.xml","license":"OGDL-Taiwan-1.0","source_tier":1,"fetched_at":"2026-08-01","geocode_precision":"original"}},{"type":"Feature","geometry":{"type":"Point","coordinates":[120.945709228516,24.0069561004639]},"properties":{"name":"財團法人普明佛教基金會","county":"南投縣","address":"南投縣埔里鎮東峰路12號","phone":"049-2930215","principal":"應景輝","source":"moi_foundation_xml","source_org":"內政部（宗教及禮制司）全國宗教資訊系統","source_url":"https://religion.moi.gov.tw/Report/foundation.xml","license":"OGDL-Taiwan-1.0","source_tier":1,"fetched_at":"2026-08-01","geocode_precision":"original"}},{"type":"Feature","geometry":{"type":"Point","coordinates":[121.221458435059,24.9623851776123]},"properties":{"name":"財團法人釋迦牟尼佛活佛基金會","county":"桃園市","address":"桃園市中壢區元化路二段45號B1","phone":"092-2650788","principal":"林憶茹","source":"moi_foundation_xml","source_org":"內政部（宗教及禮制司）全國宗教資訊系統","source_url":"https://religion.moi.gov.tw/Report/foundation.xml","license":"OGDL-Taiwan-1.0","source_tier":1,"fetched_at":"2026-08-01","geocode_precision":"original"}},{"type":"Feature","geometry":{"type":"Point","coordinates":[121.769302368164,25.1286907196045]},"properties":{"name":"財團法人基督教延吉恩典基金會","county":"基隆市","address":"基隆市信義區培德路17號7樓","phone":"02-24666107","principal":"皮德乾","source":"moi_foundation_xml","source_org":"內政部（宗教及禮制司）全國宗教資訊系統","source_url":"https://religion.moi.gov.tw/Report/foundation.xml","license":"OGDL-Taiwan-1.0","source_tier":1,"fetched_at":"2026-08-01","geocode_precision":"original"}},{"type":"Feature","geometry":{"type":"Point","coordinates":[120.679841,24.114875]},"properties":{"name":"財團法人台中市基督教富足基金會","county":"臺中市","address":"臺中市大里區大明路391之10號","phone":"04-24823627","principal":"陳慕良","source":"moi_foundation_xml","source_org":"內政部（宗教及禮制司）全國宗教資訊系統","source_url":"https://religion.moi.gov.tw/Report/foundation.xml","license":"OGDL-Taiwan-1.0","source_tier":1,"fetched_at":"2026-08-01","geocode_precision":"original"}},{"type":"Feature","geometry":{"type":"Point","coordinates":[118.440467834473,24.4512748718262]},"properties":{"name":"財團法人金門閭恩法奶宮基金會","county":"金門縣","address":"金門縣金湖鎮溪湖里青年農莊30號","phone":"092-6295503","principal":"郭財發","source":"moi_foundation_xml","source_org":"內政部（宗教及禮制司）全國宗教資訊系統","source_url":"https://religion.moi.gov.tw/Report/foundation.xml","license":"OGDL-Taiwan-1.0","source_tier":1,"fetched_at":"2026-08-01","geocode_precision":"original"}},{"type":"Feature","geometry":{"type":"Point","coordinates":[120.530326843262,24.0803642272949]},"properties":{"name":"財團法人玉線玄門真宗教基金會","county":"彰化縣","address":"彰化縣彰化市金馬路3段439號8樓之2","phone":"04-7880567","principal":"陳桂興","source":"moi_foundation_xml","source_org":"內政部（宗教及禮制司）全國宗教資訊系統","source_url":"https://religion.moi.gov.tw/Report/foundation.xml","license":"OGDL-Taiwan-1.0","source_tier":1,"fetched_at":"2026-08-01","geocode_precision":"original"}},{"type":"Feature","geometry":{"type":"Point","coordinates":[121.510696411133,25.043909072876]},"properties":{"name":"財團法人佛教電子佛典基金會","county":"臺北市","address":"臺北市中正區延平南路77號9樓","phone":"02-23832182","principal":"郭敏芳","source":"moi_foundation_xml","source_org":"內政部（宗教及禮制司）全國宗教資訊系統","source_url":"https://religion.moi.gov.tw/Report/foundation.xml","license":"OGDL-Taiwan-1.0","source_tier":1,"fetched_at":"2026-08-01","geocode_precision":"original"}},{"type":"Feature","geometry":{"type":"Point","coordinates":[120.392196655273,22.7131309509277]},"properties":{"name":"財團法人古嚴寺基金會","county":"高雄市","address":"高雄市仁武區義大二路966巷88號","phone":"07-3720220","principal":"王俊雄","source":"moi_foundation_xml","source_org":"內政部（宗教及禮制司）全國宗教資訊系統","source_url":"https://religion.moi.gov.tw/Report/foundation.xml","license":"OGDL-Taiwan-1.0","source_tier":1,"fetched_at":"2026-08-01","geocode_precision":"original"}},{"type":"Feature","geometry":{"type":"Point","coordinates":[120.665496826172,24.1743698120117]},"properties":{"name":"財團法人台中市主燈塔事工基金會","county":"臺中市","address":"臺中市西屯區大鵬里長安路二段183號5樓之2","phone":"04-22919817","principal":"許郭美員","source":"moi_foundation_xml","source_org":"內政部（宗教及禮制司）全國宗教資訊系統","source_url":"https://religion.moi.gov.tw/Report/foundation.xml","license":"OGDL-Taiwan-1.0","source_tier":1,"fetched_at":"2026-08-01","geocode_precision":"original"}},{"type":"Feature","geometry":{"type":"Point","coordinates":[120.371200561523,22.66455078125]},"properties":{"name":"財團法人發一崇德高雄宗教發展基金會","county":"高雄市","address":"高雄市鳥松區松埔北巷51號","phone":"07-7312595","principal":"陳乾意","source":"moi_foundation_xml","source_org":"內政部（宗教及禮制司）全國宗教資訊系統","source_url":"https://religion.moi.gov.tw/Report/foundation.xml","license":"OGDL-Taiwan-1.0","source_tier":1,"fetched_at":"2026-08-01","geocode_precision":"original"}},{"type":"Feature","geometry":{"type":"Point","coordinates":[121.556060791016,25.0415916442871]},"properties":{"name":"財團法人佛教雲貞慈懿基金會","county":"臺北市","address":"臺北市大安區忠孝東路四段319號10樓","phone":"02-82099089","principal":"韓蕙燕","source":"moi_foundation_xml","source_org":"內政部（宗教及禮制司）全國宗教資訊系統","source_url":"https://religion.moi.gov.tw/Report/foundation.xml","license":"OGDL-Taiwan-1.0","source_tier":1,"fetched_at":"2026-08-01","geocode_precision":"original"}},{"type":"Feature","geometry":{"type":"Point","coordinates":[120.308699,23.09849]},"properties":{"name":"財團法人一貫道發一崇德臺南宗教發展基金會","county":"臺南市","address":"臺南市新市區大營里大營323號","phone":"06-5011175","principal":"朱伯昌","source":"moi_foundation_xml","source_org":"內政部（宗教及禮制司）全國宗教資訊系統","source_url":"https://religion.moi.gov.tw/Report/foundation.xml","license":"OGDL-Taiwan-1.0","source_tier":1,"fetched_at":"2026-08-01","geocode_precision":"original"}},{"type":"Feature","geometry":{"type":"Point","coordinates":[121.519504,25.042125]},"properties":{"name":"財團法人高雄文殊講堂基金會","county":"高雄市","address":"高雄市前鎮區高雄市前鎮區嘉陵街6號","phone":"07-3327833","principal":"林益謙","source":"moi_foundation_xml","source_org":"內政部（宗教及禮制司）全國宗教資訊系統","source_url":"https://religion.moi.gov.tw/Report/foundation.xml","license":"OGDL-Taiwan-1.0","source_tier":1,"fetched_at":"2026-08-01","geocode_precision":"original"}},{"type":"Feature","geometry":{"type":"Point","coordinates":[121.511544,25.1164593]},"properties":{"name":"財團法人佛光普照基金會","county":"臺北市","address":"臺北市北投區致遠2路95巷4號3樓","phone":"02-28013312","principal":"呂明儒","source":"moi_foundation_xml","source_org":"內政部（宗教及禮制司）全國宗教資訊系統","source_url":"https://religion.moi.gov.tw/Report/foundation.xml","license":"OGDL-Taiwan-1.0","source_tier":1,"fetched_at":"2026-08-01","geocode_precision":"offline","geocode_detail":"cached","geocode_uid":"foundations_0000"}},{"type":"Feature","geometry":{"type":"Point","coordinates":[121.5342422,25.0279769]},"properties":{"name":"財團法人台北清真寺基金會","county":"臺北市","address":"臺北市大安區龍安里新生南路2段62號","phone":"02-23219445","principal":"鄭泰祥","source":"moi_foundation_xml","source_org":"內政部（宗教及禮制司）全國宗教資訊系統","source_url":"https://religion.moi.gov.tw/Report/foundation.xml","license":"OGDL-Taiwan-1.0","source_tier":1,"fetched_at":"2026-08-01","geocode_precision":"offline","geocode_detail":"exact","geocode_uid":"foundations_0001"}},{"type":"Feature","geometry":{"type":"Point","coordinates":[120.298531,22.797091]},"properties":{"name":"財團法人高雄市一貫道天一基金會","county":"高雄市","address":"高雄市岡山區中山北路138號15樓之4","phone":"07-6226977","principal":"蔡清東","source":"moi_foundation_xml","source_org":"內政部（宗教及禮制司）全國宗教資訊系統","source_url":"https://religion.moi.gov.tw/Report/foundation.xml","license":"OGDL-Taiwan-1.0","source_tier":1,"fetched_at":"2026-08-01","geocode_precision":"offline","geocode_detail":"cached","geocode_uid":"foundations_0003"}},{"type":"Feature","geometry":{"type":"Point","coordinates":[121.55705,25.029174]},"properties":{"name":"財團法人宇宙彌勒皇教基金會","county":"臺北市","address":"臺北市大安區基隆路2段112號8樓","phone":"02-87862669","principal":"陳金龍","source":"moi_foundation_xml","source_org":"內政部（宗教及禮制司）全國宗教資訊系統","source_url":"https://religion.moi.gov.tw/Report/foundation.xml","license":"OGDL-Taiwan-1.0","source_tier":1,"fetched_at":"2026-08-01","geocode_precision":"offline","geocode_detail":"cached","geocode_uid":"foundations_0004"}},{"type":"Feature","geometry":{"type":"Point","coordinates":[121.5353388,25.060215]},"properties":{"name":"財團法人基督教泉恩基金會","county":"臺北市","address":"臺北市中山區錦州街284號1樓","phone":"02-22185452#867096","principal":"王文祥","source":"moi_foundation_xml","source_org":"內政部（宗教及禮制司）全國宗教資訊系統","source_url":"https://religion.moi.gov.tw/Report/foundation.xml","license":"OGDL-Taiwan-1.0","source_tier":1,"fetched_at":"2026-08-01","geocode_precision":"offline","geocode_detail":"exact","geocode_uid":"foundations_0005"}},{"type":"Feature","geometry":{"type":"Point","coordinates":[121.35686165383807,25.001284153624443]},"properties":{"name":"財團法人佛教功德山基金會","county":"桃園市","address":"桃園市龜山區萬壽路2段339號8樓","phone":"03-3599855","principal":"江天鳳","source":"moi_foundation_xml","source_org":"內政部（宗教及禮制司）全國宗教資訊系統","source_url":"https://religion.moi.gov.tw/Report/foundation.xml","license":"OGDL-Taiwan-1.0","source_tier":1,"fetched_at":"2026-08-01","geocode_precision":"offline","geocode_detail":"cached","geocode_uid":"foundations_0006"}},{"type":"Feature","geometry":{"type":"Point","coordinates":[121.51001055689244,25.0450915088023]},"properties":{"name":"財團法人臺北市大乘基金會","county":"臺北市","address":"臺北市中正區光復里漢口街1段132號6樓","phone":"02-23145566","principal":"吳彥隆","source":"moi_foundation_xml","source_org":"內政部（宗教及禮制司）全國宗教資訊系統","source_url":"https://religion.moi.gov.tw/Report/foundation.xml","license":"OGDL-Taiwan-1.0","source_tier":1,"fetched_at":"2026-08-01","geocode_precision":"offline","geocode_detail":"cached","geocode_uid":"foundations_0008"}},{"type":"Feature","geometry":{"type":"Point","coordinates":[120.3508462,22.7036748]},"properties":{"name":"財團法人高雄市張枝茂佛教基金會","county":"高雄市","address":"高雄市仁武區仁武里仁信巷17之1號1樓","phone":"06-3313890","principal":"張卜中","source":"moi_foundation_xml","source_org":"內政部（宗教及禮制司）全國宗教資訊系統","source_url":"https://religion.moi.gov.tw/Report/foundation.xml","license":"OGDL-Taiwan-1.0","source_tier":1,"fetched_at":"2026-08-01","geocode_precision":"offline","geocode_detail":"exact","geocode_uid":"foundations_0009"}},{"type":"Feature","geometry":{"type":"Point","coordinates":[120.7017353,24.083212]},"properties":{"name":"財團法人臺中市正坤基金會","county":"臺中市","address":"臺中市大里區瑞城1街125巷13號","phone":"04-24935159","principal":"徐隨","source":"moi_foundation_xml","source_org":"內政部（宗教及禮制司）全國宗教資訊系統","source_url":"https://religion.moi.gov.tw/Report/foundation.xml","license":"OGDL-Taiwan-1.0","source_tier":1,"fetched_at":"2026-08-01","geocode_precision":"offline","geocode_detail":"exact","geocode_uid":"foundations_0011"}},{"type":"Feature","geometry":{"type":"Point","coordinates":[121.5604918,25.0824866]},"properties":{"name":"財團法人真如苑佛教基金會","county":"臺北市","address":"臺北市中山區樂群三路310號","phone":"02-85097070","principal":"宮沢健治","source":"moi_foundation_xml","source_org":"內政部（宗教及禮制司）全國宗教資訊系統","source_url":"https://religion.moi.gov.tw/Report/foundation.xml","license":"OGDL-Taiwan-1.0","source_tier":1,"fetched_at":"2026-08-01","geocode_precision":"offline","geocode_detail":"exact","geocode_uid":"foundations_0012"}},{"type":"Feature","geometry":{"type":"Point","coordinates":[121.51902910200982,25.050340965043226]},"properties":{"name":"財團法人龍華聖教基金會","county":"臺北市","address":"臺北市大同區長安西路88號8樓","phone":"02-23915150","principal":"許曉微","source":"moi_foundation_xml","source_org":"內政部（宗教及禮制司）全國宗教資訊系統","source_url":"https://religion.moi.gov.tw/Report/foundation.xml","license":"OGDL-Taiwan-1.0","source_tier":1,"fetched_at":"2026-08-01","geocode_precision":"offline","geocode_detail":"cached","geocode_uid":"foundations_0013"}},{"type":"Feature","geometry":{"type":"Point","coordinates":[121.7693262121039,24.68529000122941]},"properties":{"name":"財團法人佛教慈悲志業基金會","county":"宜蘭縣","address":"宜蘭縣羅東鎮中華路242號1樓","phone":"03-9899319","principal":"陳諆聰","source":"moi_foundation_xml","source_org":"內政部（宗教及禮制司）全國宗教資訊系統","source_url":"https://religion.moi.gov.tw/Report/foundation.xml","license":"OGDL-Taiwan-1.0","source_tier":1,"fetched_at":"2026-08-01","geocode_precision":"offline","geocode_detail":"interpolated","geocode_uid":"foundations_0014"}},{"type":"Feature","geometry":{"type":"Point","coordinates":[120.44106236892321,23.71170372912974]},"properties":{"name":"財團法人佛教台灣大慈恩譯經基金會","county":"雲林縣","address":"雲林縣虎尾鎮民族路8號2樓","phone":"00-26579721","principal":"吳曜宗","source":"moi_foundation_xml","source_org":"內政部（宗教及禮制司）全國宗教資訊系統","source_url":"https://religion.moi.gov.tw/Report/foundation.xml","license":"OGDL-Taiwan-1.0","source_tier":1,"fetched_at":"2026-08-01","geocode_precision":"offline","geocode_detail":"cached","geocode_uid":"foundations_0015"}},{"type":"Feature","geometry":{"type":"Point","coordinates":[120.4462795,22.7472673]},"properties":{"name":"財團法人佛光山人間佛教發展基金會","county":"高雄市","address":"高雄市大樹區興田路153號雲來集1樓","phone":"07-6561921#2050","principal":"釋心保","source":"moi_foundation_xml","source_org":"內政部（宗教及禮制司）全國宗教資訊系統","source_url":"https://religion.moi.gov.tw/Report/foundation.xml","license":"OGDL-Taiwan-1.0","source_tier":1,"fetched_at":"2026-08-01","geocode_precision":"offline","geocode_detail":"interpolated","geocode_uid":"foundations_0017"}},{"type":"Feature","geometry":{"type":"Point","coordinates":[120.31528118645902,22.611071969073823]},"properties":{"name":"財團法人佛教華嚴光明基金會","county":"高雄市","address":"高雄市前鎮區嘉陵街2號9樓","phone":"07-3327833","principal":"林益謙","source":"moi_foundation_xml","source_org":"內政部（宗教及禮制司）全國宗教資訊系統","source_url":"https://religion.moi.gov.tw/Report/foundation.xml","license":"OGDL-Taiwan-1.0","source_tier":1,"fetched_at":"2026-08-01","geocode_precision":"offline","geocode_detail":"interpolated","geocode_uid":"foundations_0018"}},{"type":"Feature","geometry":{"type":"Point","coordinates":[121.6342483,25.0715212]},"properties":{"name":"財團法人新北市一貫道天華基金會","county":"新北市","address":"新北市汐止區湖光里明峰街26號2樓","phone":"02-22217389","principal":"羅銀祥","source":"moi_foundation_xml","source_org":"內政部（宗教及禮制司）全國宗教資訊系統","source_url":"https://religion.moi.gov.tw/Report/foundation.xml","license":"OGDL-Taiwan-1.0","source_tier":1,"fetched_at":"2026-08-01","geocode_precision":"offline","geocode_detail":"cached","geocode_uid":"foundations_0019"}},{"type":"Feature","geometry":{"type":"Point","coordinates":[121.5688515,25.2948471]},"properties":{"name":"財團法人新北市紫陽宗教基金會","county":"新北市","address":"新北市石門區中央路37-2號","phone":"02-26381024","principal":"林育申","source":"moi_foundation_xml","source_org":"內政部（宗教及禮制司）全國宗教資訊系統","source_url":"https://religion.moi.gov.tw/Report/foundation.xml","license":"OGDL-Taiwan-1.0","source_tier":1,"fetched_at":"2026-08-01","geocode_precision":"offline","geocode_detail":"exact","geocode_uid":"foundations_0020"}},{"type":"Feature","geometry":{"type":"Point","coordinates":[121.467225,25.1566621]},"properties":{"name":"財團法人新北市南屏基金會","county":"新北市","address":"新北市淡水區八勢路1段120號","phone":"983-174357","principal":"陳俊廷","source":"moi_foundation_xml","source_org":"內政部（宗教及禮制司）全國宗教資訊系統","source_url":"https://religion.moi.gov.tw/Report/foundation.xml","license":"OGDL-Taiwan-1.0","source_tier":1,"fetched_at":"2026-08-01","geocode_precision":"offline","geocode_detail":"exact","geocode_uid":"foundations_0021"}},{"type":"Feature","geometry":{"type":"Point","coordinates":[121.304689,24.962156]},"properties":{"name":"財團法人大中華關公基金會","county":"桃園市","address":"桃園市八德區永福街168號","phone":"03-3661530","principal":"沈會豐","source":"moi_foundation_xml","source_org":"內政部（宗教及禮制司）全國宗教資訊系統","source_url":"https://religion.moi.gov.tw/Report/foundation.xml","license":"OGDL-Taiwan-1.0","source_tier":1,"fetched_at":"2026-08-01","geocode_precision":"offline","geocode_detail":"cached","geocode_uid":"foundations_0022"}},{"type":"Feature","geometry":{"type":"Point","coordinates":[120.5284014,24.1161099]},"properties":{"name":"財團法人佛教祥恩基金會","county":"彰化縣","address":"彰化縣和美鎮彰新路3段616號2樓","phone":"00-00000000","principal":"杜綉珍","source":"moi_foundation_xml","source_org":"內政部（宗教及禮制司）全國宗教資訊系統","source_url":"https://religion.moi.gov.tw/Report/foundation.xml","license":"OGDL-Taiwan-1.0","source_tier":1,"fetched_at":"2026-08-01","geocode_precision":"offline","geocode_detail":"exact","geocode_uid":"foundations_0023"}},{"type":"Feature","geometry":{"type":"Point","coordinates":[120.2814176,22.5962566]},"properties":{"name":"財團法人佛教大願院地藏王廟基金會","county":"高雄市","address":"高雄市旗津區中洲三路2號","phone":"07-5717520","principal":"呂啓源","source":"moi_foundation_xml","source_org":"內政部（宗教及禮制司）全國宗教資訊系統","source_url":"https://religion.moi.gov.tw/Report/foundation.xml","license":"OGDL-Taiwan-1.0","source_tier":1,"fetched_at":"2026-08-01","geocode_precision":"offline","geocode_detail":"exact","geocode_uid":"foundations_0025"}},{"type":"Feature","geometry":{"type":"Point","coordinates":[120.2998991,22.6196943]},"properties":{"name":"財團法人優缽羅佛教基金會","county":"高雄市","address":"高雄市前金區中華四路282號10樓","phone":"02-87807766#337","principal":"曾權業","source":"moi_foundation_xml","source_org":"內政部（宗教及禮制司）全國宗教資訊系統","source_url":"https://religion.moi.gov.tw/Report/foundation.xml","license":"OGDL-Taiwan-1.0","source_tier":1,"fetched_at":"2026-08-01","geocode_precision":"offline","geocode_detail":"exact","geocode_uid":"foundations_0026"}},{"type":"Feature","geometry":{"type":"Point","coordinates":[121.5234,25.067879]},"properties":{"name":"財團法人佛教淨土院基金會","county":"臺北市","address":"臺北市中山區中山北路3段55巷4號6樓","phone":"02-29590209","principal":"釋秉誠","source":"moi_foundation_xml","source_org":"內政部（宗教及禮制司）全國宗教資訊系統","source_url":"https://religion.moi.gov.tw/Report/foundation.xml","license":"OGDL-Taiwan-1.0","source_tier":1,"fetched_at":"2026-08-01","geocode_precision":"offline","geocode_detail":"cached","geocode_uid":"foundations_0027"}},{"type":"Feature","geometry":{"type":"Point","coordinates":[120.318837,22.5687011]},"properties":{"name":"財團法人黃仙在天上聖母基金會","county":"高雄市","address":"高雄市前鎮區漁港南一路15號","phone":"093-2891904","principal":"黃一茂","source":"moi_foundation_xml","source_org":"內政部（宗教及禮制司）全國宗教資訊系統","source_url":"https://religion.moi.gov.tw/Report/foundation.xml","license":"OGDL-Taiwan-1.0","source_tier":1,"fetched_at":"2026-08-01","geocode_precision":"offline","geocode_detail":"interpolated","geocode_uid":"foundations_0028"}},{"type":"Feature","geometry":{"type":"Point","coordinates":[120.2911167,22.6683052]},"properties":{"name":"財團法人福亨佛教文化弘揚基金會","county":"高雄市","address":"高雄市鼓山區裕興路20號","phone":"07-5520520","principal":"戴瑋辰","source":"moi_foundation_xml","source_org":"內政部（宗教及禮制司）全國宗教資訊系統","source_url":"https://religion.moi.gov.tw/Report/foundation.xml","license":"OGDL-Taiwan-1.0","source_tier":1,"fetched_at":"2026-08-01","geocode_precision":"offline","geocode_detail":"cached","geocode_uid":"foundations_0029"}},{"type":"Feature","geometry":{"type":"Point","coordinates":[120.68130131258486,24.143390688648093]},"properties":{"name":"財團法人臺灣省臺中市集興宮","county":"臺中市","address":"臺中市中區光復路142號","source":"moi_foundation_xml","source_org":"內政部（宗教及禮制司）全國宗教資訊系統","source_url":"https://religion.moi.gov.tw/Report/foundation.xml","license":"OGDL-Taiwan-1.0","source_tier":1,"fetched_at":"2026-08-01","geocode_precision":"offline","geocode_detail":"interpolated","geocode_uid":"foundations_0030"}},{"type":"Feature","geometry":{"type":"Point","coordinates":[120.5261272,24.0653727]},"properties":{"name":"財團法人佛教凡善基金會","county":"彰化縣","address":"彰化縣彰化市崙美路41號1樓","phone":"04-7638640","principal":"董小芸","source":"moi_foundation_xml","source_org":"內政部（宗教及禮制司）全國宗教資訊系統","source_url":"https://religion.moi.gov.tw/Report/foundation.xml","license":"OGDL-Taiwan-1.0","source_tier":1,"fetched_at":"2026-08-01","geocode_precision":"offline","geocode_detail":"exact","geocode_uid":"foundations_0031"}},{"type":"Feature","geometry":{"type":"Point","coordinates":[120.6466096,24.168114]},"properties":{"name":"財團法人臺中市宏聖佛教基金會","county":"臺中市","address":"臺中市西屯區惠來里惠來路三段118號1樓","phone":"04-22396695","principal":"林玉霜","source":"moi_foundation_xml","source_org":"內政部（宗教及禮制司）全國宗教資訊系統","source_url":"https://religion.moi.gov.tw/Report/foundation.xml","license":"OGDL-Taiwan-1.0","source_tier":1,"fetched_at":"2026-08-01","geocode_precision":"offline","geocode_detail":"exact","geocode_uid":"foundations_0032"}},{"type":"Feature","geometry":{"type":"Point","coordinates":[120.6390388,24.161721]},"properties":{"name":"財團法人台中市菩因佛教基金會","county":"臺中市","address":"臺中市西屯區惠來里惠民路8號11樓之2","phone":"04-24718855","principal":"林玉琴","source":"moi_foundation_xml","source_org":"內政部（宗教及禮制司）全國宗教資訊系統","source_url":"https://religion.moi.gov.tw/Report/foundation.xml","license":"OGDL-Taiwan-1.0","source_tier":1,"fetched_at":"2026-08-01","geocode_precision":"offline","geocode_detail":"exact","geocode_uid":"foundations_0033"}},{"type":"Feature","geometry":{"type":"Point","coordinates":[121.4943524,24.9841171]},"properties":{"name":"財團法人新北市一貫道發一崇德宗教發展基金會","county":"新北市","address":"新北市中和區圓通路367巷33弄34之6號1樓","phone":"02-22461390","principal":"李奇豪","source":"moi_foundation_xml","source_org":"內政部（宗教及禮制司）全國宗教資訊系統","source_url":"https://religion.moi.gov.tw/Report/foundation.xml","license":"OGDL-Taiwan-1.0","source_tier":1,"fetched_at":"2026-08-01","geocode_precision":"offline","geocode_detail":"exact","geocode_uid":"foundations_0034"}},{"type":"Feature","geometry":{"type":"Point","coordinates":[120.29191468335529,22.658484160676874]},"properties":{"name":"財團法人高雄市喜樂島平安基金會","county":"高雄市","address":"高雄市鼓山區龍子里中華一路868號","phone":"07-5597733","principal":"張舜華","source":"moi_foundation_xml","source_org":"內政部（宗教及禮制司）全國宗教資訊系統","source_url":"https://religion.moi.gov.tw/Report/foundation.xml","license":"OGDL-Taiwan-1.0","source_tier":1,"fetched_at":"2026-08-01","geocode_precision":"offline","geocode_detail":"cached","geocode_uid":"foundations_0036"}},{"type":"Feature","geometry":{"type":"Point","coordinates":[120.5518836,23.0365267]},"properties":{"name":"財團法人九蓮白陽山聖道院基金會","county":"高雄市","address":"高雄市杉林區集來里通仙巷421號","phone":"09-36190864","principal":"漆寶玲","source":"moi_foundation_xml","source_org":"內政部（宗教及禮制司）全國宗教資訊系統","source_url":"https://religion.moi.gov.tw/Report/foundation.xml","license":"OGDL-Taiwan-1.0","source_tier":1,"fetched_at":"2026-08-01","geocode_precision":"offline","geocode_detail":"exact","geocode_uid":"foundations_0037"}},{"type":"Feature","geometry":{"type":"Point","coordinates":[120.3143791,22.611096]},"properties":{"name":"財團法人文殊講堂基金會","county":"高雄市","address":"高雄市前鎮區興東里嘉陵街6號","phone":"07-3327833","principal":"林益謙","source":"moi_foundation_xml","source_org":"內政部（宗教及禮制司）全國宗教資訊系統","source_url":"https://religion.moi.gov.tw/Report/foundation.xml","license":"OGDL-Taiwan-1.0","source_tier":1,"fetched_at":"2026-08-01","geocode_precision":"offline","geocode_detail":"exact","geocode_uid":"foundations_0038"}},{"type":"Feature","geometry":{"type":"Point","coordinates":[120.8723159,24.6813437]},"properties":{"name":"財團法人藏傳佛教台灣桑耶寺基金會","county":"苗栗縣","address":"苗栗縣竹南鎮大厝里16鄰南大路190巷20弄1號","phone":"03-6673668#218","principal":"蘇林蓁","source":"moi_foundation_xml","source_org":"內政部（宗教及禮制司）全國宗教資訊系統","source_url":"https://religion.moi.gov.tw/Report/foundation.xml","license":"OGDL-Taiwan-1.0","source_tier":1,"fetched_at":"2026-08-01","geocode_precision":"offline","geocode_detail":"exact","geocode_uid":"foundations_0039"}},{"type":"Feature","geometry":{"type":"Point","coordinates":[121.5214382,25.1100746]},"properties":{"name":"財團法人台北市石牌霛石福德正神宗教文化基金會","county":"臺北市","address":"臺北市北投區明德路150巷22號1樓","phone":"02-2822-1356","principal":"何漢清","source":"moi_foundation_xml","source_org":"內政部（宗教及禮制司）全國宗教資訊系統","source_url":"https://religion.moi.gov.tw/Report/foundation.xml","license":"OGDL-Taiwan-1.0","source_tier":1,"fetched_at":"2026-08-01","geocode_precision":"offline","geocode_detail":"exact","geocode_uid":"foundations_0040"}},{"type":"Feature","geometry":{"type":"Point","coordinates":[120.3249444,22.6028325]},"properties":{"name":"財團法人道教玄德殿基金會","county":"高雄市","address":"高雄市前鎮區班超路92-2號","phone":"07-7218592","principal":"歐詠瑛","source":"moi_foundation_xml","source_org":"內政部（宗教及禮制司）全國宗教資訊系統","source_url":"https://religion.moi.gov.tw/Report/foundation.xml","license":"OGDL-Taiwan-1.0","source_tier":1,"fetched_at":"2026-08-01","geocode_precision":"google","geocode_detail":"exact","geocode_uid":"foundations_0002"}},{"type":"Feature","geometry":{"type":"Point","coordinates":[120.336139,23.512329]},"properties":{"name":"財團法人台灣省嘉義縣道教未天祖基金會","county":"嘉義縣","address":"嘉義縣新港鄉溪北村溪北36-5號","phone":"07-6972271","source":"moi_foundation_xml","source_org":"內政部（宗教及禮制司）全國宗教資訊系統","source_url":"https://religion.moi.gov.tw/Report/foundation.xml","license":"OGDL-Taiwan-1.0","source_tier":1,"fetched_at":"2026-08-01","geocode_precision":"google","geocode_detail":"approximate","geocode_uid":"foundations_0007"}},{"type":"Feature","geometry":{"type":"Point","coordinates":[120.677474,23.05765]},"properties":{"name":"財團法人高雄市彩虹山宗教基金會","county":"高雄市","address":"高雄市六龜區新發村新開27之1號","phone":"07-2814161#608","principal":"王宏仁","source":"moi_foundation_xml","source_org":"內政部（宗教及禮制司）全國宗教資訊系統","source_url":"https://religion.moi.gov.tw/Report/foundation.xml","license":"OGDL-Taiwan-1.0","source_tier":1,"fetched_at":"2026-08-01","geocode_precision":"google","geocode_detail":"approximate","geocode_uid":"foundations_0010"}},{"type":"Feature","geometry":{"type":"Point","coordinates":[120.3377852,23.053697]},"properties":{"name":"財團法人國際佛教法林基金會","county":"臺南市","address":"臺南市新化區𦰡拔里𦰡拔林31-5號","phone":"00-00000000","principal":"黃明泰","source":"moi_foundation_xml","source_org":"內政部（宗教及禮制司）全國宗教資訊系統","source_url":"https://religion.moi.gov.tw/Report/foundation.xml","license":"OGDL-Taiwan-1.0","source_tier":1,"fetched_at":"2026-08-01","geocode_precision":"google","geocode_detail":"approximate","geocode_uid":"foundations_0016"}},{"type":"Feature","geometry":{"type":"Point","coordinates":[120.3136821,22.6294977]},"properties":{"name":"財團法人高雄市噶瑪噶舉基金會","county":"高雄市","address":"高雄市苓雅區高雄市苓雅區光華一路226號10F","phone":"07-2237878","principal":"釋法海","source":"moi_foundation_xml","source_org":"內政部（宗教及禮制司）全國宗教資訊系統","source_url":"https://religion.moi.gov.tw/Report/foundation.xml","license":"OGDL-Taiwan-1.0","source_tier":1,"fetched_at":"2026-08-01","geocode_precision":"google","geocode_detail":"exact","geocode_uid":"foundations_0024"}},{"type":"Feature","geometry":{"type":"Point","coordinates":[121.5198716,25.0421407]},"properties":{"name":"財團法人基督教亞西亞宣教慈善基金會","county":"臺北市","address":"臺北市中正區汀洲路3段27巷7號1樓","phone":"02-12345678","principal":"楊寧亞","source":"moi_foundation_xml","source_org":"內政部（宗教及禮制司）全國宗教資訊系統","source_url":"https://religion.moi.gov.tw/Report/foundation.xml","license":"OGDL-Taiwan-1.0","source_tier":1,"fetched_at":"2026-08-01","geocode_precision":"google","geocode_detail":"approximate","geocode_uid":"foundations_0035"}}]}
