{
  "type": "FeatureCollection",
  "properties": {
    "name": "台灣宗教百景",
    "source": "內政部宗教百景",
    "year": 2021,
    "total_count": 100,
    "processed_at": "2026-01-22T19:18:32.381635"
  },
  "features": [
    {
      "type": "Feature",
      "geometry": {
        "type": "Point",
        "coordinates": [
          121.744171143,
          25.1312541962
        ]
      },
      "properties": {
        "name": "鷄籠中元祭",
        "name_en": "Keelung Zhongyuan Ghost Festival",
        "name_jp": "鶏籠中元祭(行事・信仰)",
        "name_kr": "지룽 중원제",
        "county": "基隆市",
        "town": "中正區",
        "address": "信一路181號",
        "county_en": "Keelung City",
        "town_en": "Zhongzheng Dist.",
        "address_en": "No. 181, Xinyi Rd.",
        "lat": 25.1312541962,
        "lng": 121.744171143
      }
    },
    {
      "type": "Feature",
      "geometry": {
        "type": "Point",
        "coordinates": [
          121.577720642,
          25.0510578156
        ]
      },
      "properties": {
        "name": "松山慈祐宮",
        "name_en": "Sung Shan Tzu Yu Temple",
        "name_jp": "松山慈祐宮",
        "name_kr": "쑹산 자우궁",
        "county": "臺北市",
        "town": "松山區",
        "address": "八德路4段761號",
        "county_en": "Taipei City",
        "town_en": "Songshan Dist.",
        "address_en": "No.761, Sec. 4, Bade Rd.",
        "lat": 25.0510578156,
        "lng": 121.577720642
      }
    },
    {
      "type": "Feature",
      "geometry": {
        "type": "Point",
        "coordinates": [
          121.587509155,
          25.0365447998
        ]
      },
      "properties": {
        "name": "松山慈惠堂",
        "name_en": "Sung Shan Tsu Huei Temple",
        "name_jp": "松山慈恵堂",
        "name_kr": "쑹산 자혜당",
        "county": "臺北市",
        "town": "信義區",
        "address": "福德街251巷33號",
        "county_en": "Taipei City",
        "town_en": "Xinyi Dist.",
        "address_en": "No.33, Ln. 251, Fude St.",
        "lat": 25.0365447998,
        "lng": 121.587509155
      }
    },
    {
      "type": "Feature",
      "geometry": {
        "type": "Point",
        "coordinates": [
          121.534210205,
          25.0279369354
        ]
      },
      "properties": {
        "name": "台北清真寺",
        "name_en": "Taipei Grand Mosque",
        "name_jp": "台北清真寺",
        "name_kr": "타이베이 이슬람사원",
        "county": "臺北市",
        "town": "大安區",
        "address": "新生南路2段62號",
        "county_en": "Taipei City",
        "town_en": "Da'an Dist.",
        "address_en": "No. 62, Section 2, Xinsheng S Rd.",
        "lat": 25.0279369354,
        "lng": 121.534210205
      }
    },
    {
      "type": "Feature",
      "geometry": {
        "type": "Point",
        "coordinates": [
          121.533500671,
          25.0627536774
        ]
      },
      "properties": {
        "name": "臺北行天宮",
        "name_en": "Hsing Tian Kong, Taipei",
        "name_jp": "台北行天宮",
        "name_kr": "타이베이 행천궁",
        "county": "臺北市",
        "town": "中山區",
        "address": "民權東路2段109號",
        "county_en": "Taipei City",
        "town_en": "Zhongshan Dist.",
        "address_en": "No. 109, Section 2, Minquan E Rd.",
        "lat": 25.0627536774,
        "lng": 121.533500671
      }
    },
    {
      "type": "Feature",
      "geometry": {
        "type": "Point",
        "coordinates": [
          121.72731781,
          25.0231170654
        ]
      },
      "properties": {
        "name": "平溪天燈節",
        "name_en": "Pingxi Sky Lantern Festival",
        "name_jp": "平渓天灯節(行事・信仰)",
        "name_kr": "핑시 천등절",
        "county": "新北市",
        "town": "平溪區",
        "address": "菁桐國小(菁桐街45號)、平溪國中(石底街92號)、十分天燈廣場(南山坪136號)",
        "county_en": "New Taipei City",
        "town_en": "Pingxi Dist.",
        "address_en": "Jingtong Elementary School (No.45, Jingtong St.), Pingxi Junior High School (No.92, Shidi St.), and",
        "lat": 25.0231170654,
        "lng": 121.72731781
      }
    },
    {
      "type": "Feature",
      "geometry": {
        "type": "Point",
        "coordinates": [
          121.972885132,
          25.0176525116
        ]
      },
      "properties": {
        "name": "福隆靈鷲山無生道場",
        "name_en": "Ling Jiou Mountain Monastery, Fulong",
        "name_jp": "福隆霊鷲山無生道場",
        "name_kr": "푸룽 영취산 무생도량",
        "county": "新北市",
        "town": "貢寮區",
        "address": "福連里香蘭街7-1號",
        "county_en": "New Taipei City",
        "town_en": "Gongliao Dist.",
        "address_en": "No.7-1, Xianglan St., Fulian Vil.",
        "lat": 25.0176525116,
        "lng": 121.972885132
      }
    },
    {
      "type": "Feature",
      "geometry": {
        "type": "Point",
        "coordinates": [
          121.36591498,
          25.0033611039
        ]
      },
      "properties": {
        "name": "桃園壽山巖觀音寺",
        "name_en": "Shoushanyan Guanyin Temple, Taoyuan",
        "name_jp": "桃園寿山巖観音寺",
        "name_kr": "수산암타오위안 수산암 관음사",
        "county": "桃園市",
        "town": "龜山區",
        "address": "嶺頂村萬壽路2段6巷111號",
        "county_en": "Taoyuan County",
        "town_en": "Guishan Township",
        "address_en": "No.111, Ln. 6, Sec. 2, Wanshou Rd., Lingding Vill.",
        "lat": 25.0033611039,
        "lng": 121.36591498
      }
    },
    {
      "type": "Feature",
      "geometry": {
        "type": "Point",
        "coordinates": [
          120.965881348,
          24.804485321
        ]
      },
      "properties": {
        "name": "新竹都城隍廟．竹塹中元城隍祭",
        "name_en": "Hsinchu Cheng Huang Temple (Hsinchu City God Temple) and Chuchang Zhongyuan City God Festival",
        "name_jp": "新竹都城隍廟・竹塹中元城隍祭",
        "name_kr": "신주 도성황묘  주첸 중원 성황제",
        "county": "新竹市",
        "town": "北區",
        "address": "中山路75號",
        "county_en": "Hsinchu City",
        "town_en": "North Dist.",
        "address_en": "No.75, Zhongshan Rd.",
        "lat": 24.804485321,
        "lng": 120.965881348
      }
    },
    {
      "type": "Feature",
      "geometry": {
        "type": "Point",
        "coordinates": [
          121.520965576,
          25.0720291138
        ]
      },
      "properties": {
        "name": "臺北臨濟護國禪寺",
        "name_en": "Rinzai Zen Buddhism Temple, Taipei",
        "name_jp": "台北臨済護国禅寺",
        "name_kr": "타이베이 임제호국선사",
        "county": "臺北市",
        "town": "中山區",
        "address": "酒泉街5巷27號",
        "county_en": "Taipei City",
        "town_en": "Zhongshan Dist.",
        "address_en": "No. 27, Jiuquan St.",
        "lat": 25.0720291138,
        "lng": 121.520965576
      }
    },
    {
      "type": "Feature",
      "geometry": {
        "type": "Point",
        "coordinates": [
          121.51940918,
          25.0434780121
        ]
      },
      "properties": {
        "name": "臺北濟南基督長老教會",
        "name_en": "Chè-lâm Presbyterian Church, Taipei",
        "name_jp": "台北済南基督長老教会",
        "name_kr": "타이베이 찌난 기독장로교회",
        "county": "臺北市",
        "town": "中正區",
        "address": "中山南路3號",
        "county_en": "Taipei City",
        "town_en": "Zhongzheng Dist.",
        "address_en": "No. 3, Zhongshan S Rd.",
        "lat": 25.0434780121,
        "lng": 121.51940918
      }
    },
    {
      "type": "Feature",
      "geometry": {
        "type": "Point",
        "coordinates": [
          121.515545547,
          25.0730708164
        ]
      },
      "properties": {
        "name": "臺北大龍峒保安宮",
        "name_en": "Dalongdong Baoan Temple, Taipei",
        "name_jp": "台北大龍峒保安宮",
        "name_kr": "타이베이 따룽둥 보안궁",
        "county": "臺北市",
        "town": "大同區",
        "address": "哈密街61號",
        "county_en": "Taipei City",
        "town_en": "Datong Dist.",
        "address_en": "No. 61, Hami St.",
        "lat": 25.0730708164,
        "lng": 121.515545547
      }
    },
    {
      "type": "Feature",
      "geometry": {
        "type": "Point",
        "coordinates": [
          121.510139465,
          25.0556182861
        ]
      },
      "properties": {
        "name": "台北霞海城隍廟．五月十三迎城隍",
        "name_en": "Taipei Xia-Hai City God Temple and the Welcoming of the City God on the 13th day of the Fifth Lunar",
        "name_jp": "台北霞海城隍廟．五月十三迎城隍",
        "name_kr": "타이베이 샤하이 성황묘ㆍ5월13 성황 영접 퍼레이드",
        "county": "臺北市",
        "town": "大同區",
        "address": "迪化街1段61號",
        "county_en": "Taipei City",
        "town_en": "Datong Dist.",
        "address_en": "No. 61, Section 1, Dihua St.",
        "lat": 25.0556182861,
        "lng": 121.510139465
      }
    },
    {
      "type": "Feature",
      "geometry": {
        "type": "Point",
        "coordinates": [
          121.512718201,
          25.0596389771
        ]
      },
      "properties": {
        "name": "台灣基督長老教會大稻埕教會",
        "name_en": "Dadaocheng Presbyterian Church",
        "name_jp": "台湾基督長老教会大稻埕教会",
        "name_kr": "타이완기독장로교회 따다오청 교회",
        "county": "臺北市",
        "town": "大同區",
        "address": "甘州街40號",
        "county_en": "Taipei City",
        "town_en": "Datong Dist.",
        "address_en": "No. 40, Ganzhou St.",
        "lat": 25.0596389771,
        "lng": 121.512718201
      }
    },
    {
      "type": "Feature",
      "geometry": {
        "type": "Point",
        "coordinates": [
          121.499931335,
          25.0367794037
        ]
      },
      "properties": {
        "name": "艋舺龍山寺",
        "name_en": "Manka Longshan Temple",
        "name_jp": "艋舺龍山寺",
        "name_kr": "멍자 용산사",
        "county": "臺北市",
        "town": "萬華區",
        "address": "廣州街211號",
        "county_en": "Taipei City",
        "town_en": "Wanhua Dist.",
        "address_en": "No. 211, Guangzhou St.",
        "lat": 25.0367794037,
        "lng": 121.499931335
      }
    },
    {
      "type": "Feature",
      "geometry": {
        "type": "Point",
        "coordinates": [
          121.586631775,
          24.9798622131
        ]
      },
      "properties": {
        "name": "臺北指南宮",
        "name_en": "Chih-Nan Temple, Taipei",
        "name_jp": "臺北指南宮",
        "name_kr": "타이베이 지남궁",
        "county": "臺北市",
        "town": "文山區",
        "address": "萬壽路115號",
        "county_en": "Taipei City",
        "town_en": "Wenshan Dist.",
        "address_en": "No. 115, Wanshou Rd.",
        "lat": 24.9798622131,
        "lng": 121.586631775
      }
    },
    {
      "type": "Feature",
      "geometry": {
        "type": "Point",
        "coordinates": [
          121.370368958,
          24.933801651
        ]
      },
      "properties": {
        "name": "三峽祖師廟",
        "name_en": "Sanxia Zushi Temple",
        "name_jp": "三峡祖師廟",
        "name_kr": "싼샤 조사묘",
        "county": "新北市",
        "town": "三峽區",
        "address": "秀川里長福街1號",
        "county_en": "New Taipei City",
        "town_en": "Sanxia Dist.",
        "address_en": "No.1, Changfu St., Xiuchuan Vil.",
        "lat": 24.933801651,
        "lng": 121.370368958
      }
    },
    {
      "type": "Feature",
      "geometry": {
        "type": "Point",
        "coordinates": [
          121.389640808,
          25.0837364197
        ]
      },
      "properties": {
        "name": "林口竹林山觀音寺",
        "name_en": "Zhulinshan Guanyin Temple, Linkou",
        "name_jp": "林口竹林山観音寺",
        "name_kr": "린커우 죽림산 관음사",
        "county": "新北市",
        "town": "林口區",
        "address": "菁湖里竹林路325號",
        "county_en": "New Taipei City",
        "town_en": "Linkou Dist.",
        "address_en": "No.325, Zhulin Rd., Jinhu Vil.",
        "lat": 25.0837364197,
        "lng": 121.389640808
      }
    },
    {
      "type": "Feature",
      "geometry": {
        "type": "Point",
        "coordinates": [
          121.615005493,
          25.239692688
        ]
      },
      "properties": {
        "name": "金山法鼓山世界佛教教育園區",
        "name_en": "Dharma Drum Mountain World Center for Buddhist Education, Jinshan",
        "name_jp": "金山法鼓山世界仏教教育園区",
        "name_kr": "진산 법고산 세계불교교육단지",
        "county": "新北市",
        "town": "金山區",
        "address": "三界里7鄰法鼓路555號",
        "county_en": "New Taipei City",
        "town_en": "Jinshan Dist.",
        "address_en": "No.555, Fagu Rd., 7th Neighborhood, Sanjie Vil.",
        "lat": 25.239692688,
        "lng": 121.615005493
      }
    },
    {
      "type": "Feature",
      "geometry": {
        "type": "Point",
        "coordinates": [
          120.204116821,
          22.9937477112
        ]
      },
      "properties": {
        "name": "台灣首廟天壇",
        "name_en": "Tiangong Temple, Taiwan",
        "name_jp": "台湾首廟天壇",
        "name_kr": "타이완 수묘 천단",
        "county": "臺南市",
        "town": "中西區",
        "address": "忠義路2段84巷16號",
        "county_en": "Tainan City",
        "town_en": "West Central Dist.",
        "address_en": "No. 16, Lane 84, Section 2, Zhongyi Rd.",
        "lat": 22.9937477112,
        "lng": 120.204116821
      }
    },
    {
      "type": "Feature",
      "geometry": {
        "type": "Point",
        "coordinates": [
          121.824958801,
          24.8538970947
        ]
      },
      "properties": {
        "name": "頭城搶孤",
        "name_en": "The Toucheng Ghost Grappling Competition",
        "name_jp": "頭城搶孤(行事・信仰)",
        "name_kr": "터우청 창고제",
        "county": "宜蘭縣",
        "town": "頭城鎮",
        "address": "開蘭東路71號前500公尺(開蘭東路.頭濱路三段交叉口)",
        "county_en": "Yilan County",
        "town_en": "Toucheng Township",
        "address_en": "Approx. 500 meters in front of No.71, Kailan E. Rd.(Intersection of Kailan E. Rd. and Toubin Rd.)",
        "lat": 24.8538970947,
        "lng": 121.824958801
      }
    },
    {
      "type": "Feature",
      "geometry": {
        "type": "Point",
        "coordinates": [
          121.754211426,
          24.764295578
        ]
      },
      "properties": {
        "name": "宜蘭水燈節",
        "name_en": "Yilan Water Lantern Festival",
        "name_jp": "宜蘭水灯節(行事・信仰)",
        "name_kr": "이란 수등절",
        "county": "宜蘭縣",
        "town": "宜蘭市",
        "address": "環河路(宜蘭市河濱公園)",
        "county_en": "Yilan County",
        "town_en": "Yilan City",
        "address_en": "Yilan Riverside Park on Huanhe Rd.",
        "lat": 24.764295578,
        "lng": 121.754211426
      }
    },
    {
      "type": "Feature",
      "geometry": {
        "type": "Point",
        "coordinates": [
          121.767570496,
          24.7072162628
        ]
      },
      "properties": {
        "name": "二結王公過火",
        "name_en": "Erjie Wanggong Fire-Crossing Festival",
        "name_jp": "二結王公過火(行事・信仰)",
        "name_kr": "얼제 왕공 불더미 건너기",
        "county": "宜蘭縣",
        "town": "五結鄉",
        "address": "鎮安村舊街路98號",
        "county_en": "Yilan County",
        "town_en": "Wujie Township",
        "address_en": "No.98, Jiujie Rd., Zhen'an Vil.",
        "lat": 24.7072162628,
        "lng": 121.767570496
      }
    },
    {
      "type": "Feature",
      "geometry": {
        "type": "Point",
        "coordinates": [
          120.611213684,
          22.5950832367
        ]
      },
      "properties": {
        "name": "萬金聖母聖殿．聖母遊行",
        "name_en": "Minor Basilica of the Immaculate Conception (Wanjin) and Procession of the Immaculate Conception",
        "name_jp": "万金聖母聖殿・聖母パレード",
        "name_kr": "완진 성모성전ㆍ성모 퍼레이드",
        "county": "屏東縣",
        "town": "萬巒鄉",
        "address": "萬興路24號",
        "county_en": "Pingtung County",
        "town_en": "Wanluan Township",
        "address_en": "No. 24, Wanxing Rd.",
        "lat": 22.5950832367,
        "lng": 120.611213684
      }
    },
    {
      "type": "Feature",
      "geometry": {
        "type": "Point",
        "coordinates": [
          121.347626337,
          24.8401407543
        ]
      },
      "properties": {
        "name": "桃園原民部落基國派老教堂",
        "name_en": "Tuba Tribe Church, Taoyuan",
        "name_jp": "桃園原住民部落基国派教堂",
        "name_kr": "타오위안 원주민 부락 기국파교당",
        "county": "桃園市",
        "town": "復興區",
        "address": "三民村18鄰96-3號",
        "county_en": "Taoyuan County",
        "town_en": "Fuxing Township",
        "address_en": "No. 96-3, 18th Neighborhood, Sanmin Vill.",
        "lat": 24.8401407543,
        "lng": 121.347626337
      }
    },
    {
      "type": "Feature",
      "geometry": {
        "type": "Point",
        "coordinates": [
          121.274528503,
          24.8890705109
        ]
      },
      "properties": {
        "name": "大溪齋明寺",
        "name_en": "Zhaiming Monastery, Daxi",
        "name_jp": "大渓齋明寺",
        "name_kr": "따시 재명사",
        "county": "桃園市",
        "town": "大溪區",
        "address": "齋明街153號",
        "county_en": "Taoyuan County",
        "town_en": "Daxi Township",
        "address_en": "No.153, Zhaiming St.",
        "lat": 24.8890705109,
        "lng": 121.274528503
      }
    },
    {
      "type": "Feature",
      "geometry": {
        "type": "Point",
        "coordinates": [
          121.280821572,
          24.8721105968
        ]
      },
      "properties": {
        "name": "大溪蓮座山觀音寺",
        "name_en": "Lianzuo Mountain Guanyin Temple, Daxi",
        "name_jp": "大渓蓮座山観音寺",
        "name_kr": "따시 롄줘산 관음사",
        "county": "桃園市",
        "town": "大溪區",
        "address": "瑞安路2段48巷28號",
        "county_en": "Taoyuan County",
        "town_en": "Daxi Township",
        "address_en": "No.28, Ln. 48, Sec. 2, Rui’an Rd.",
        "lat": 24.8721105968,
        "lng": 121.280821572
      }
    },
    {
      "type": "Feature",
      "geometry": {
        "type": "Point",
        "coordinates": [
          121.295173645,
          25.0537261963
        ]
      },
      "properties": {
        "name": "南崁五福宮",
        "name_en": "Wufu Temple, Nankan",
        "name_jp": "南崁五福宮",
        "name_kr": "난칸 오복궁",
        "county": "桃園市",
        "town": "蘆竹區",
        "address": "五福路1號",
        "county_en": "Taoyuan County",
        "town_en": "Luzhu Township",
        "address_en": "No.1, Wufu Rd.",
        "lat": 25.0537261963,
        "lng": 121.295173645
      }
    },
    {
      "type": "Feature",
      "geometry": {
        "type": "Point",
        "coordinates": [
          121.227920532,
          24.9623298645
        ]
      },
      "properties": {
        "name": "中壢仁海宮‧聖蹟亭",
        "name_en": "Renhai Temple and Sacred Script Pavilion, Zhongli",
        "name_jp": "中壢仁海宮・聖跡亭",
        "name_kr": "중리 인해궁•성적정",
        "county": "桃園市",
        "town": "中壢區",
        "address": "延平路198號(仁海宮)、延平路205號(元化院)",
        "county_en": "Taoyuan County",
        "town_en": "Zhongli City",
        "address_en": "No.198 (Renhai Temple) and No. 205 (Yuan Hua Uan) of Yanping Rd.",
        "lat": 24.9623298645,
        "lng": 121.227920532
      }
    },
    {
      "type": "Feature",
      "geometry": {
        "type": "Point",
        "coordinates": [
          120.970024109,
          24.7988872528
        ]
      },
      "properties": {
        "name": "新竹竹蓮寺",
        "name_en": "Hsinchu Zhulian Temple",
        "name_jp": "新竹竹蓮寺",
        "name_kr": "신주 죽련사",
        "county": "新竹市",
        "town": "東區",
        "address": "竹蓮街100號",
        "county_en": "Hsinchu City",
        "town_en": "East Dist.",
        "address_en": "No.100, Zhulian St.",
        "lat": 24.7988872528,
        "lng": 120.970024109
      }
    },
    {
      "type": "Feature",
      "geometry": {
        "type": "Point",
        "coordinates": [
          120.964894279,
          24.808540006
        ]
      },
      "properties": {
        "name": "新竹長和宮",
        "name_en": "Hsinchu Chang Ho Temple",
        "name_jp": "新竹長和宮",
        "name_kr": "신주 장화궁",
        "county": "新竹市",
        "town": "北區",
        "address": "北門街135號",
        "county_en": "Hsinchu City",
        "town_en": "North Dist.",
        "address_en": "No.135, Beimen St.",
        "lat": 24.808540006,
        "lng": 120.964894279
      }
    },
    {
      "type": "Feature",
      "geometry": {
        "type": "Point",
        "coordinates": [
          120.987449646,
          24.6819324493
        ]
      },
      "properties": {
        "name": "峨眉彌勒大道大自然文化世界",
        "name_en": "Nature Loving Wonderland, Maitreya Great Tao, Emei",
        "name_jp": "峨眉弥勒大道大自然文化世界",
        "name_kr": "어메이 미륵대도  대자연문화세계",
        "county": "新竹縣",
        "town": "峨眉鄉",
        "address": "湖光村快樂路1號",
        "county_en": "Hsinchu County",
        "town_en": "Emei Township",
        "address_en": "No.1, Kuaile Rd., Huguang Vill.",
        "lat": 24.6819324493,
        "lng": 120.987449646
      }
    },
    {
      "type": "Feature",
      "geometry": {
        "type": "Point",
        "coordinates": [
          121.036270142,
          24.8433532715
        ]
      },
      "properties": {
        "name": "新埔褒忠亭義民廟",
        "name_en": "Baozhong Yimin Temple, Xinpu",
        "name_jp": "新埔褒忠亭義民廟",
        "name_kr": "신푸 포충정의민묘",
        "county": "新竹縣",
        "town": "新埔鎮",
        "address": "下寮里義民路3段360號",
        "county_en": "Hsinchu County",
        "town_en": "Xinpu Township",
        "address_en": "No. 360, Section 3, Yimin Rd, Xinpu Township",
        "lat": 24.8433532715,
        "lng": 121.036270142
      }
    },
    {
      "type": "Feature",
      "geometry": {
        "type": "Point",
        "coordinates": [
          120.709259033,
          24.5713291168
        ]
      },
      "properties": {
        "name": "白沙屯媽祖徒步進香",
        "name_en": "Baishatun Mazu Foot Pilgrimage",
        "name_jp": "白沙屯媽祖徒歩進香(行事・信仰)",
        "name_kr": "바이사툰 마조 도보 참배",
        "county": "苗栗縣",
        "town": "通霄鎮",
        "address": "白東里8號",
        "county_en": "Miaoli County",
        "town_en": "Tongxiao Township",
        "address_en": "No. 8, Zhongzheng Rd.",
        "lat": 24.5713291168,
        "lng": 120.709259033
      }
    },
    {
      "type": "Feature",
      "geometry": {
        "type": "Point",
        "coordinates": [
          120.826644897,
          24.5647945404
        ]
      },
      "properties": {
        "name": "玉清宮苗栗（火旁）龍",
        "name_en": "Yuqing Temple's Bombing of the Dragon, Miaoli",
        "name_jp": "玉清宮苗栗(火旁)龍(行事・信仰)",
        "name_kr": "옥청궁 먀오리 방용 축제",
        "county": "苗栗縣",
        "town": "苗栗市",
        "address": "玉清里16鄰為民街35號",
        "county_en": "Miaoli County",
        "town_en": "Miaoli City",
        "address_en": "No. 35, Weimin St.",
        "lat": 24.5647945404,
        "lng": 120.826644897
      }
    },
    {
      "type": "Feature",
      "geometry": {
        "type": "Point",
        "coordinates": [
          120.682925371,
          24.492441452
        ]
      },
      "properties": {
        "name": "通霄神社",
        "name_en": "Tongsiao Shinto Shrine",
        "name_jp": "通霄神社",
        "name_kr": "퉁샤오 신사",
        "county": "苗栗縣",
        "town": "通霄鎮",
        "address": "通東里虎頭山公園內",
        "county_en": "Miaoli County",
        "town_en": "Tongxiao Township",
        "address_en": "Hutoushan Park, Tongxiao Township",
        "lat": 24.492441452,
        "lng": 120.682925371
      }
    },
    {
      "type": "Feature",
      "geometry": {
        "type": "Point",
        "coordinates": [
          120.600496469,
          24.178835136
        ]
      },
      "properties": {
        "name": "東海大學路思義教堂",
        "name_en": "Luce Chapel, Tunghai University",
        "name_jp": "東海大学路思義教堂",
        "name_kr": "동해대학 루스 채플",
        "county": "臺中市",
        "town": "西屯區",
        "address": "臺灣大道4段1727號",
        "county_en": "Taichung City",
        "town_en": "Xitun Dist.",
        "address_en": "No. 1727, Section 4, Taiwan Blvd",
        "lat": 24.178835136,
        "lng": 120.600496469
      }
    },
    {
      "type": "Feature",
      "geometry": {
        "type": "Point",
        "coordinates": [
          120.539367676,
          24.1500797272
        ]
      },
      "properties": {
        "name": "大肚磺溪書院",
        "name_en": "Huangxi Academy, Dadu",
        "name_jp": "大肚磺渓書院",
        "name_kr": "따두 황계서원",
        "county": "臺中市",
        "town": "大肚區",
        "address": "磺溪里文昌一街10號",
        "county_en": "Taichung City",
        "town_en": "Dadu Dist.",
        "address_en": "No. 10, Wenchangyi St.",
        "lat": 24.1500797272,
        "lng": 120.539367676
      }
    },
    {
      "type": "Feature",
      "geometry": {
        "type": "Point",
        "coordinates": [
          120.62361145,
          24.3453426361
        ]
      },
      "properties": {
        "name": "大甲鎮瀾宮媽祖遶境進香",
        "name_en": "Mazu Pilgrimage from Zhenlan Temple, Dajia",
        "name_jp": "大甲鎮瀾宮媽祖巡礼活動(行事・信仰)",
        "name_kr": "다자따쟈 진란궁  마조 참배 퍼레이드",
        "county": "臺中市",
        "town": "大甲區",
        "address": "順天路158號",
        "county_en": "Taichung City",
        "town_en": "Dajia Dist.",
        "address_en": "No. 158, Shuntian Rd.",
        "lat": 24.3453426361,
        "lng": 120.62361145
      }
    },
    {
      "type": "Feature",
      "geometry": {
        "type": "Point",
        "coordinates": [
          120.681230449,
          24.1460867428
        ]
      },
      "properties": {
        "name": "臺中柳原教會",
        "name_en": "Liu-Yuan Presbyterian Church, Taichung",
        "name_jp": "台中柳原教会",
        "name_kr": "타이중 류위안 교회류원교회",
        "county": "臺中市",
        "town": "中區",
        "address": "興中街119號",
        "county_en": "Taichung City",
        "town_en": "Central Dist.",
        "address_en": "No. 119, Xingzhong St.",
        "lat": 24.1460867428,
        "lng": 120.681230449
      }
    },
    {
      "type": "Feature",
      "geometry": {
        "type": "Point",
        "coordinates": [
          120.63910675,
          24.1378078461
        ]
      },
      "properties": {
        "name": "臺中萬和宮．老二媽西屯省親遶境",
        "name_en": "Wanhe Temple, Taichung, and the Xitun Parade and Parental Visit by the Goddess Lao'er Ma",
        "name_jp": "台中万和宮・老二媽西屯省親巡行活動",
        "name_kr": "타이중 만화궁ㆍ노이마 시툰 귀향 순례",
        "county": "臺中市",
        "town": "南屯區",
        "address": "萬和路1段51號",
        "county_en": "Taichung City",
        "town_en": "Nantun Dist.",
        "address_en": "No. 51, Section 1, Wanhe Rd.",
        "lat": 24.1378078461,
        "lng": 120.63910675
      }
    },
    {
      "type": "Feature",
      "geometry": {
        "type": "Point",
        "coordinates": [
          120.697845459,
          24.1408252716
        ]
      },
      "properties": {
        "name": "臺中樂成宮．旱溪媽祖遶境十八庄",
        "name_en": "Le Cheng Temple, Taichung, and Hanxi Mazu’s Eighteen Villages Celebration Parade",
        "name_jp": "台中楽成宮・旱渓媽祖十八庄巡礼活動",
        "name_kr": "타이중 낙성궁‧한계 마조 18 마을 퍼레이드",
        "county": "臺中市",
        "town": "東區",
        "address": "旱溪街48號",
        "county_en": "Taichung City",
        "town_en": "East Dist.",
        "address_en": "No. 48, Hanxi St.",
        "lat": 24.1408252716,
        "lng": 120.697845459
      }
    },
    {
      "type": "Feature",
      "geometry": {
        "type": "Point",
        "coordinates": [
          120.548811441,
          24.0784413529
        ]
      },
      "properties": {
        "name": "彰化八卦山大佛",
        "name_en": "Mt.Bagua Great Buddha, Changhua",
        "name_jp": "彰化八卦山大仏",
        "name_kr": "장화 팔괘산 대불",
        "county": "彰化縣",
        "town": "彰化市",
        "address": "溫泉路31號",
        "county_en": "Changhua County",
        "town_en": "Changhua City",
        "address_en": "No. 31, Wenquan Rd.",
        "lat": 24.0784413529,
        "lng": 120.548811441
      }
    },
    {
      "type": "Feature",
      "geometry": {
        "type": "Point",
        "coordinates": [
          120.435226175,
          24.0504190596
        ]
      },
      "properties": {
        "name": "鹿港龍山寺",
        "name_en": "Long-shan Temple, Lukang",
        "name_jp": "鹿港龍山寺",
        "name_kr": "루강 용산사",
        "county": "彰化縣",
        "town": "鹿港鎮",
        "address": "龍山里金門巷81號",
        "county_en": "Changhua County",
        "town_en": "Lukang Township",
        "address_en": "No. 81, King Men Lane",
        "lat": 24.0504190596,
        "lng": 120.435226175
      }
    },
    {
      "type": "Feature",
      "geometry": {
        "type": "Point",
        "coordinates": [
          120.395439148,
          24.0692672729
        ]
      },
      "properties": {
        "name": "彰化玻璃廟護聖宮",
        "name_en": "Husheng Glass Temple, Changhua",
        "name_jp": "彰化玻璃廟護聖宮",
        "name_kr": "장화 파리묘 호성궁",
        "county": "彰化縣",
        "town": "鹿港鎮",
        "address": "鹿工南四路28號",
        "county_en": "Changhua County",
        "town_en": "Lukang Township",
        "address_en": "No.28, Lugong South 4th Rd.",
        "lat": 24.0692672729,
        "lng": 120.395439148
      }
    },
    {
      "type": "Feature",
      "geometry": {
        "type": "Point",
        "coordinates": [
          120.513595581,
          23.9378204346
        ]
      },
      "properties": {
        "name": "埔心羅厝天主堂",
        "name_en": "The Catholic Church of the Lotsu, Puxin (The Holy Name of Jesus)",
        "name_jp": "埔心羅厝天主堂",
        "name_kr": "푸신 뤄춰 천주당",
        "county": "彰化縣",
        "town": "埔心鄉",
        "address": "羅厝村羅永路109號",
        "county_en": "Changhua County",
        "town_en": "Puxin Township",
        "address_en": "No. 109, Luoyong Rd.",
        "lat": 23.9378204346,
        "lng": 120.513595581
      }
    },
    {
      "type": "Feature",
      "geometry": {
        "type": "Point",
        "coordinates": [
          120.543387499,
          24.0790082607
        ]
      },
      "properties": {
        "name": "彰化孔子廟",
        "name_en": "Changhua Confucius Temple",
        "name_jp": "彰化孔子廟",
        "name_kr": "장화 공자묘",
        "county": "彰化縣",
        "town": "彰化市",
        "address": "孔門路30號",
        "county_en": "Changhua County",
        "town_en": "Changhua City",
        "address_en": "No. 30, Kongmen Rd.",
        "lat": 24.0790082607,
        "lng": 120.543387499
      }
    },
    {
      "type": "Feature",
      "geometry": {
        "type": "Point",
        "coordinates": [
          120.431396484,
          24.0593166351
        ]
      },
      "properties": {
        "name": "鹿港天后宮",
        "name_en": "Lugang Mazu Temple, Lukang",
        "name_jp": "鹿港天后宮",
        "name_kr": "루강 천후궁",
        "county": "彰化縣",
        "town": "鹿港鎮",
        "address": "玉順里中山路430號",
        "county_en": "Changhua County",
        "town_en": "Lukang Township",
        "address_en": "No. 430, Zhongshan Rd.",
        "lat": 24.0593166351,
        "lng": 120.431396484
      }
    },
    {
      "type": "Feature",
      "geometry": {
        "type": "Point",
        "coordinates": [
          120.538536072,
          24.0677108765
        ]
      },
      "properties": {
        "name": "彰化南瑤宮",
        "name_en": "Nanyao Temple, Changhua",
        "name_jp": "彰化南瑶宮",
        "name_kr": "장화 남요궁",
        "county": "彰化縣",
        "town": "彰化市",
        "address": "南瑤里南瑤路43號",
        "county_en": "Changhua County",
        "town_en": "Changhua City",
        "address_en": "No. 43, Nanyao Rd.",
        "lat": 24.0677108765,
        "lng": 120.538536072
      }
    },
    {
      "type": "Feature",
      "geometry": {
        "type": "Point",
        "coordinates": [
          120.684532166,
          23.9074001312
        ]
      },
      "properties": {
        "name": "南投藍田書院",
        "name_en": "Lantian Academy, Nantou",
        "name_jp": "南投藍田書院",
        "name_kr": "난터우 남전서원",
        "county": "南投縣",
        "town": "南投市",
        "address": "崇文里文昌街140號",
        "county_en": "Nantou County",
        "town_en": "Nantou City",
        "address_en": "No. 140, Wenchang St.",
        "lat": 23.9074001312,
        "lng": 120.684532166
      }
    },
    {
      "type": "Feature",
      "geometry": {
        "type": "Point",
        "coordinates": [
          120.944325652,
          24.0093846442
        ]
      },
      "properties": {
        "name": "埔里中台禪寺",
        "name_en": "Chung Tai Chan Monastery, Puli",
        "name_jp": "埔里中台禅寺",
        "name_kr": "푸리 중대선사",
        "county": "南投縣",
        "town": "埔里鎮",
        "address": "一新里中台路2號",
        "county_en": "Nantou County",
        "town_en": "Puli Township",
        "address_en": "No. 2, Zhongtai Rd.",
        "lat": 24.0093846442,
        "lng": 120.944325652
      }
    },
    {
      "type": "Feature",
      "geometry": {
        "type": "Point",
        "coordinates": [
          120.722549796,
          23.817046306
        ]
      },
      "properties": {
        "name": "竹山社寮紫南宮吃丁酒．借金",
        "name_en": "Jhushan Zi Nan Temple: Eating of Ding-jiu and Lending of Money",
        "name_jp": "竹山社寮紫南宮吃丁酒・借金(行事・信仰)",
        "name_kr": "주산 서랴오 자남궁 의 정주잔치ㆍ차금",
        "county": "南投縣",
        "town": "竹山鎮",
        "address": "社寮里大公街40號",
        "county_en": "Nantou County",
        "town_en": "Zhushan Township",
        "address_en": "No. 40, Dagong St.",
        "lat": 23.817046306,
        "lng": 120.722549796
      }
    },
    {
      "type": "Feature",
      "geometry": {
        "type": "Point",
        "coordinates": [
          120.630937502,
          23.8318281995
        ]
      },
      "properties": {
        "name": "名間受天宮玄天上帝香期",
        "name_en": "Incense-offering Period for the Lord of the Somber Heavens at Shoutian Temple, Mingjian",
        "name_jp": "名間受天宮玄天上帝香期(行事・信仰)",
        "name_kr": "밍젠 수천궁 현천상제 참배 행사",
        "county": "南投縣",
        "town": "名間鄉",
        "address": "松山村松山街118號",
        "county_en": "Nantou County",
        "town_en": "Mingjian Township",
        "address_en": "No. 118, Songshan St.",
        "lat": 23.8318281995,
        "lng": 120.630937502
      }
    },
    {
      "type": "Feature",
      "geometry": {
        "type": "Point",
        "coordinates": [
          120.845344543,
          23.9755077362
        ]
      },
      "properties": {
        "name": "國姓靈光寺",
        "name_en": "Lingguang Temple, Guoxing",
        "name_jp": "国姓霊光寺",
        "name_kr": "궈싱 영광사",
        "county": "南投縣",
        "town": "國姓鄉",
        "address": "大石村昌榮巷35號",
        "county_en": "Nantou County",
        "town_en": "Guoxing Township",
        "address_en": "No. 35, Chang Rong Lane",
        "lat": 23.9755077362,
        "lng": 120.845344543
      }
    },
    {
      "type": "Feature",
      "geometry": {
        "type": "Point",
        "coordinates": [
          120.695648193,
          23.9651527405
        ]
      },
      "properties": {
        "name": "草屯雷藏寺",
        "name_en": "Lei Tsang Temple, Caotun",
        "name_jp": "草屯雷藏寺",
        "name_kr": "차오툰 뇌장사",
        "county": "南投縣",
        "town": "草屯鎮",
        "address": "山腳里蓮生巷100號",
        "county_en": "Nantou County",
        "town_en": "Caotun Township",
        "address_en": "No. 100, Lian Sheng Lane",
        "lat": 23.9651527405,
        "lng": 120.695648193
      }
    },
    {
      "type": "Feature",
      "geometry": {
        "type": "Point",
        "coordinates": [
          120.304504395,
          23.5680408478
        ]
      },
      "properties": {
        "name": "北港朝天宮．迎媽祖",
        "name_en": "Chaotian Temple, Beigang, and Mazu Carnival",
        "name_jp": "北港朝天宮・媽祖歓迎活動",
        "name_kr": "베이강 조천궁．마조 영접 퍼레이드",
        "county": "雲林縣",
        "town": "北港鎮",
        "address": "中山路178號",
        "county_en": "Yunlin County",
        "town_en": "Beigang Township",
        "address_en": "No. 178, Zhongshan Rd.",
        "lat": 23.5680408478,
        "lng": 120.304504395
      }
    },
    {
      "type": "Feature",
      "geometry": {
        "type": "Point",
        "coordinates": [
          120.45401001,
          23.4783802032
        ]
      },
      "properties": {
        "name": "嘉義城隍廟",
        "name_en": "Chiayi Cheng-Huang Temple（Chiayi City God Temple）",
        "name_jp": "嘉義城隍廟",
        "name_kr": "자이 성황묘",
        "county": "嘉義市",
        "town": "東區",
        "address": "吳鳳北路168號",
        "county_en": "Chiayi City",
        "town_en": "West Dist.",
        "address_en": "No. 168, Wufeng N Rd.",
        "lat": 23.4783802032,
        "lng": 120.45401001
      }
    },
    {
      "type": "Feature",
      "geometry": {
        "type": "Point",
        "coordinates": [
          120.308799744,
          23.5618457794
        ]
      },
      "properties": {
        "name": "新港水仙宮",
        "name_en": "Xingang Shuixian Temple",
        "name_jp": "新港水仙宮",
        "name_kr": "신강 수선궁",
        "county": "嘉義縣",
        "town": "新港鄉",
        "address": "南港村3鄰舊南港58號",
        "county_en": "Chiayi County",
        "town_en": "Xingang Township",
        "address_en": "No. 58, Jiu Nangang",
        "lat": 23.5618457794,
        "lng": 120.308799744
      }
    },
    {
      "type": "Feature",
      "geometry": {
        "type": "Point",
        "coordinates": [
          121.406616211,
          23.1231555939
        ]
      },
      "properties": {
        "name": "臺東三仙台",
        "name_en": "Sanxiantai, Taitung",
        "name_jp": "台東三仙台",
        "name_kr": "타이둥 삼선대",
        "county": "臺東縣",
        "town": "成功鎮",
        "address": "三仙里基翬路74號",
        "county_en": "Taitung County",
        "town_en": "Chenggong Township",
        "address_en": "No. 74, Jihui Rd.",
        "lat": 23.1231555939,
        "lng": 121.406616211
      }
    },
    {
      "type": "Feature",
      "geometry": {
        "type": "Point",
        "coordinates": [
          121.564743042,
          23.9737033844
        ]
      },
      "properties": {
        "name": "吉安慶修院",
        "name_en": "Qingxiu Yuan, Ji'an",
        "name_jp": "吉安慶修院",
        "name_kr": "지안 경수원",
        "county": "花蓮縣",
        "town": "吉安鄉",
        "address": "中興路345-1號",
        "county_en": "Hualien County",
        "town_en": "Ji'an Township",
        "address_en": "No. 345-1, Zhongxing Rd.",
        "lat": 23.9737033844,
        "lng": 121.564743042
      }
    },
    {
      "type": "Feature",
      "geometry": {
        "type": "Point",
        "coordinates": [
          119.564041138,
          23.5646934509
        ]
      },
      "properties": {
        "name": "澎湖天后宮",
        "name_en": "Penghu Tianhou(Mazu) Temple",
        "name_jp": "澎湖天后宮",
        "name_kr": "펑후 천후궁",
        "county": "澎湖縣",
        "town": "馬公市",
        "address": "中央里正義街1號",
        "county_en": "Penghu County",
        "town_en": "Magong City",
        "address_en": "No. 1, Zheng Yi St.",
        "lat": 23.5646934509,
        "lng": 119.564041138
      }
    },
    {
      "type": "Feature",
      "geometry": {
        "type": "Point",
        "coordinates": [
          118.417915344,
          24.4613780975
        ]
      },
      "properties": {
        "name": "金門海印寺",
        "name_en": "Haiyin Temple, Kinmen",
        "name_jp": "金門海印寺",
        "name_kr": "진먼 해인사",
        "county": "金門縣",
        "town": "金湖鎮",
        "address": "太武山海印寺1號",
        "county_en": "Kinmen County",
        "town_en": "Jinhu Township",
        "address_en": "No. 1, Haiyin Temple",
        "lat": 24.4613780975,
        "lng": 118.417915344
      }
    },
    {
      "type": "Feature",
      "geometry": {
        "type": "Point",
        "coordinates": [
          119.924537659,
          26.1421527863
        ]
      },
      "properties": {
        "name": "馬祖金板境天后宮．燒塔節",
        "name_en": "Jinbanjing Mazu Temple, Matsu, and the Tower Burning Festival",
        "name_jp": "馬祖金板境天后宮・焼塔節",
        "name_kr": "마주 진반징 천후궁·소탑절",
        "county": "連江縣",
        "town": "南竿鄉",
        "address": "仁愛村59-2號",
        "county_en": "Lienchiang County",
        "town_en": "Nangan Township",
        "address_en": "No. 59-2, Ren-Ai Village",
        "lat": 26.1421527863,
        "lng": 119.924537659
      }
    },
    {
      "type": "Feature",
      "geometry": {
        "type": "Point",
        "coordinates": [
          120.616615295,
          22.8888988495
        ]
      },
      "properties": {
        "name": "高雄一貫道神威天台山道場",
        "name_en": "I-Kuan Tao Shenwei Tiantai Mountain, Kaohsiung",
        "name_jp": "高雄一貫道神威天台山道場",
        "name_kr": "가오슝 일관도 신위 천대산 도량",
        "county": "高雄市",
        "town": "六龜區",
        "address": "新寮里三民路81號",
        "county_en": "Kaohsiung City",
        "town_en": "Liugui Dist.",
        "address_en": "No. 81, Sanmin Rd.",
        "lat": 22.8888988495,
        "lng": 120.616615295
      }
    },
    {
      "type": "Feature",
      "geometry": {
        "type": "Point",
        "coordinates": [
          120.151603699,
          23.5754642487
        ]
      },
      "properties": {
        "name": "口湖牽水(車藏)",
        "name_en": "Kouhu Quianshuizang (Drawing Spirits Out of the Water) Cultural Festival",
        "name_jp": "口湖牽水(車藏)(行事・信仰)",
        "name_kr": "커우후 첸수이좡  문화제",
        "county": "雲林縣",
        "town": "口湖鄉",
        "address": "港東村民主路5號",
        "county_en": "Yunlin County",
        "town_en": "Kouhu Township",
        "address_en": "No. 5, Minzhu Rd.",
        "lat": 23.5754642487,
        "lng": 120.151603699
      }
    },
    {
      "type": "Feature",
      "geometry": {
        "type": "Point",
        "coordinates": [
          120.255203247,
          23.7482528687
        ]
      },
      "properties": {
        "name": "麥寮拱範宮",
        "name_en": "Mailiao Gongfan Temple",
        "name_jp": "麦寮拱範宮",
        "name_kr": "마이랴오 공범궁",
        "county": "雲林縣",
        "town": "麥寮鄉",
        "address": "麥豐村中正路3號",
        "county_en": "Yunlin County",
        "town_en": "Mailiao Township",
        "address_en": "No. 3, Zhongzheng Rd.",
        "lat": 23.7482528687,
        "lng": 120.255203247
      }
    },
    {
      "type": "Feature",
      "geometry": {
        "type": "Point",
        "coordinates": [
          120.390556335,
          23.6765651703
        ]
      },
      "properties": {
        "name": "土庫順天宮",
        "name_en": "Shuntian Temple, Tuku",
        "name_jp": "土庫順天宮",
        "name_kr": "투쿠 순천궁",
        "county": "雲林縣",
        "town": "土庫鎮",
        "address": "中正路109號",
        "county_en": "Yunlin County",
        "town_en": "Tuku Township",
        "address_en": "No. 109, Zhongzheng Rd.",
        "lat": 23.6765651703,
        "lng": 120.390556335
      }
    },
    {
      "type": "Feature",
      "geometry": {
        "type": "Point",
        "coordinates": [
          120.462173462,
          23.6664352417
        ]
      },
      "properties": {
        "name": "雲林六房媽過爐",
        "name_en": "Liufang Mazu Handing over the Censer Ceremony, Yunlin",
        "name_jp": "雲林六房媽過炉(行事・信仰)",
        "name_kr": "윈린 육방마조 향로 이전 행사",
        "county": "雲林縣",
        "town": "斗六市",
        "address": "斗六市（大北勢股）、虎尾鎮（過溪股）、斗南鎮（斗南股）、大埤鄉（五",
        "county_en": "Yunlin County",
        "town_en": "Douliu City",
        "address_en": "Huwei Township, Dounan Township, Dapi Township, Tuku Township,",
        "lat": 23.6664352417,
        "lng": 120.462173462
      }
    },
    {
      "type": "Feature",
      "geometry": {
        "type": "Point",
        "coordinates": [
          118.41178894,
          24.4912605286
        ]
      },
      "properties": {
        "name": "沙美萬安堂",
        "name_en": "Wan'an Temple, Shamei",
        "name_jp": "沙美萬安堂",
        "name_kr": "사메이 만안당",
        "county": "金門縣",
        "town": "金沙鎮",
        "address": "沙美勝利路15號",
        "county_en": "Kinmen County",
        "town_en": "Jinsha Township",
        "address_en": "No. 15, Shengli Rd.",
        "lat": 24.4912605286,
        "lng": 118.41178894
      }
    },
    {
      "type": "Feature",
      "geometry": {
        "type": "Point",
        "coordinates": [
          120.688591003,
          23.9631309509
        ]
      },
      "properties": {
        "name": "草屯光慧文教館",
        "name_en": "Kuang-Hwei Educational Memorial Hall, Caotun",
        "name_jp": "草屯光慧文教館",
        "name_kr": "차오툰 광혜문교관",
        "county": "南投縣",
        "town": "草屯鎮",
        "address": "虎山路332巷166號",
        "county_en": "Nantou County",
        "town_en": "Caotun Township",
        "address_en": "No. 166, Lane 332, Hushan Rd.",
        "lat": 23.9631309509,
        "lng": 120.688591003
      }
    },
    {
      "type": "Feature",
      "geometry": {
        "type": "Point",
        "coordinates": [
          120.459640503,
          23.8010482788
        ]
      },
      "properties": {
        "name": "西螺太平媽祖文化祭",
        "name_en": "Taiping Mazu Cultural Festival, Xiluo",
        "name_jp": "西螺太平媽祖文化祭(行事・信仰)",
        "name_kr": "시뤄 태평 마조 문화제",
        "county": "雲林縣",
        "town": "西螺鎮",
        "address": "延平路180號",
        "county_en": "Yunlin County",
        "town_en": "Xiluo Township",
        "address_en": "No. 180, Yanping Rd.",
        "lat": 23.8010482788,
        "lng": 120.459640503
      }
    },
    {
      "type": "Feature",
      "geometry": {
        "type": "Point",
        "coordinates": [
          120.749549866,
          23.4549045563
        ]
      },
      "properties": {
        "name": "阿里山鄒族戰祭Mayasvi",
        "name_en": "Tsou Tribe Mayasvi Festival, Mount Ali",
        "name_jp": "阿里山鄒族(ツォウ族)戦祭Mayasvi",
        "name_kr": "아리산 쩌우족 전투제(Mayasvi)",
        "county": "嘉義縣",
        "town": "阿里山",
        "address": "達邦村3鄰(達邦村中心)、達邦村特富野195號（男子聚會所kuba）",
        "county_en": "Chiayi County",
        "town_en": "Alishan Township",
        "address_en": "Dabang Village Center: Village 3, Dabang, Alishan Township, Chiayi City, Taiwan 600 Kuba: No. 195, F",
        "lat": 23.4549045563,
        "lng": 120.749549866
      }
    },
    {
      "type": "Feature",
      "geometry": {
        "type": "Point",
        "coordinates": [
          120.347877502,
          23.5566177368
        ]
      },
      "properties": {
        "name": "新港奉天宮．天上聖母元宵遶境",
        "name_en": "Fengtian Temple, Xingang, and the Mazu Lantern Festival Procession",
        "name_jp": "新港奉天宮・天上聖母元宵巡礼活動",
        "name_kr": "신강 봉천궁 천상성모 정월 대보름 순례",
        "county": "嘉義縣",
        "town": "新港鄉",
        "address": "新民路53號",
        "county_en": "Chiayi County",
        "town_en": "Xingang Township",
        "address_en": "No. 53, Xinmin Rd.",
        "lat": 23.5566177368,
        "lng": 120.347877502
      }
    },
    {
      "type": "Feature",
      "geometry": {
        "type": "Point",
        "coordinates": [
          120.143371582,
          23.2858448029
        ]
      },
      "properties": {
        "name": "南鯤鯓代天府",
        "name_en": "Nankunshen Daitian Temple",
        "name_jp": "南鯤鯓代天府",
        "name_kr": "남곤신 대천부",
        "county": "臺南市",
        "town": "北門區",
        "address": "鯤江里976號",
        "county_en": "Tainan City",
        "town_en": "Beimen Dist.",
        "address_en": "No. 976, Kun Shan Li",
        "lat": 23.2858448029,
        "lng": 120.143371582
      }
    },
    {
      "type": "Feature",
      "geometry": {
        "type": "Point",
        "coordinates": [
          120.204582214,
          22.9901733398
        ]
      },
      "properties": {
        "name": "臺南孔子廟",
        "name_en": "Tainan Confucius Temple",
        "name_jp": "台南孔子廟",
        "name_kr": "타이난 공자묘",
        "county": "臺南市",
        "town": "中西區",
        "address": "南門路2號",
        "county_en": "Tainan City",
        "town_en": "West Central Dist.",
        "address_en": "No. 2, Nanmen Rd.",
        "lat": 22.9901733398,
        "lng": 120.204582214
      }
    },
    {
      "type": "Feature",
      "geometry": {
        "type": "Point",
        "coordinates": [
          120.207626343,
          22.9878139496
        ]
      },
      "properties": {
        "name": "臺南延平郡王祠",
        "name_en": "Koxinga Shrine, Tainan",
        "name_jp": "台南延平郡王祠",
        "name_kr": "타이난 연평군왕사",
        "county": "臺南市",
        "town": "中西區",
        "address": "開山路152號",
        "county_en": "Tainan City",
        "town_en": "West Central Dist.",
        "address_en": "No. 152, Kaishan Rd.",
        "lat": 22.9878139496,
        "lng": 120.207626343
      }
    },
    {
      "type": "Feature",
      "geometry": {
        "type": "Point",
        "coordinates": [
          120.127296448,
          23.0668334961
        ]
      },
      "properties": {
        "name": "臺南正統鹿耳門聖母廟",
        "name_en": "Orthodox Luermen Sheng-Mu (Mazu) Temple",
        "name_jp": "台南正統鹿耳門聖母廟",
        "name_kr": "타이난 정통 루얼먼 성모묘",
        "county": "臺南市",
        "town": "安南區",
        "address": "城安路160號",
        "county_en": "Tainan City",
        "town_en": "Annan Dist.",
        "address_en": "No. 160, Chengan Rd.",
        "lat": 23.0668334961,
        "lng": 120.127296448
      }
    },
    {
      "type": "Feature",
      "geometry": {
        "type": "Point",
        "coordinates": [
          120.474510193,
          23.3394813538
        ]
      },
      "properties": {
        "name": "白河大仙寺",
        "name_en": "Daxian Temple, Baihe",
        "name_jp": "白河大仙寺",
        "name_kr": "바이허 대선사",
        "county": "臺南市",
        "town": "白河區",
        "address": "仙草里8鄰岩前1號",
        "county_en": "Tainan City",
        "town_en": "Baihe Dist.",
        "address_en": "No. 1, Yanqian, Xiancao Village",
        "lat": 23.3394813538,
        "lng": 120.474510193
      }
    },
    {
      "type": "Feature",
      "geometry": {
        "type": "Point",
        "coordinates": [
          120.480880737,
          23.3252658844
        ]
      },
      "properties": {
        "name": "白河火山碧雲寺",
        "name_en": "Biyun Temple, Baihe",
        "name_jp": "白河火山碧雲寺",
        "name_kr": "바이허 화산 벽운사",
        "county": "臺南市",
        "town": "白河區",
        "address": "仙草里火山1號",
        "county_en": "Tainan City",
        "town_en": "Baihe Dist.",
        "address_en": "No. 1, Huo Shan Rd.",
        "lat": 23.3252658844,
        "lng": 120.480880737
      }
    },
    {
      "type": "Feature",
      "geometry": {
        "type": "Point",
        "coordinates": [
          120.481956482,
          23.1819190979
        ]
      },
      "properties": {
        "name": "臺南大智山玄空法寺",
        "name_en": "Dazhishan Xuankong Temple, Tainan",
        "name_jp": "台南大智山玄空法寺",
        "name_kr": "타이난 대지산 현공법사",
        "county": "臺南市",
        "town": "楠西區",
        "address": "中華路270號",
        "county_en": "Tainan City",
        "town_en": "Nanxi Dist.",
        "address_en": "No. 270, Zhonghua Rd.",
        "lat": 23.1819190979,
        "lng": 120.481956482
      }
    },
    {
      "type": "Feature",
      "geometry": {
        "type": "Point",
        "coordinates": [
          120.201713562,
          22.996427536
        ]
      },
      "properties": {
        "name": "臺南祀典大天后宮",
        "name_en": "Tainan Grand Matsu Temple",
        "name_jp": "台南祀典大天后宮",
        "name_kr": "타이난 사전대천후궁",
        "county": "臺南市",
        "town": "中西區",
        "address": "永福路2段227巷18號",
        "county_en": "Tainan City",
        "town_en": "West Central Dist.",
        "address_en": "No. 18, Lane 227, Section 2, Yongfu Rd.",
        "lat": 22.996427536,
        "lng": 120.201713562
      }
    },
    {
      "type": "Feature",
      "geometry": {
        "type": "Point",
        "coordinates": [
          120.202087402,
          22.9967441559
        ]
      },
      "properties": {
        "name": "臺灣祀典武廟",
        "name_en": "The State Temple of the Martial God,Taiwan",
        "name_jp": "台湾祀典武廟",
        "name_kr": "타이난 사전무묘",
        "county": "臺南市",
        "town": "中西區",
        "address": "永福路2段229號",
        "county_en": "Tainan City",
        "town_en": "West Central Dist.",
        "address_en": "No. 229, Section 2, Yongfu Rd.",
        "lat": 22.9967441559,
        "lng": 120.202087402
      }
    },
    {
      "type": "Feature",
      "geometry": {
        "type": "Point",
        "coordinates": [
          120.265785217,
          23.3241252899
        ]
      },
      "properties": {
        "name": "鹽水蜂炮",
        "name_en": "Yanshui Beehive Rockets",
        "name_jp": "塩水蜂炮(行事・信仰)",
        "name_kr": "옌수이 폭죽제",
        "county": "臺南市",
        "town": "鹽水區",
        "address": "武廟里7鄰武廟路87號",
        "county_en": "Tainan City",
        "town_en": "Yanshui Dist.",
        "address_en": "No. 87, Wumiao Rd.",
        "lat": 23.3241252899,
        "lng": 120.265785217
      }
    },
    {
      "type": "Feature",
      "geometry": {
        "type": "Point",
        "coordinates": [
          120.201858521,
          23.1213626862
        ]
      },
      "properties": {
        "name": "西港刈香",
        "name_en": "Xigang Holy Fire Pilgrimage",
        "name_jp": "西港刈香(行事・信仰)",
        "name_kr": "시강 예향 제",
        "county": "臺南市",
        "town": "西港區",
        "address": "慶安路32號",
        "county_en": "Tainan City",
        "town_en": "Xigang Dist.",
        "address_en": "No. 32, Qing'an Rd.",
        "lat": 23.1213626862,
        "lng": 120.201858521
      }
    },
    {
      "type": "Feature",
      "geometry": {
        "type": "Point",
        "coordinates": [
          120.210411072,
          22.99958992
        ]
      },
      "properties": {
        "name": "臺南西華堂",
        "name_en": "Xihua Temple, Tainan",
        "name_jp": "台南西華堂",
        "name_kr": "타이난 서화당",
        "county": "臺南市",
        "town": "北區",
        "address": "北忠街92號",
        "county_en": "Tainan City",
        "town_en": "North Dist.",
        "address_en": "No. 92, Beizhong St.",
        "lat": 22.99958992,
        "lng": 120.210411072
      }
    },
    {
      "type": "Feature",
      "geometry": {
        "type": "Point",
        "coordinates": [
          120.232795715,
          23.0916786194
        ]
      },
      "properties": {
        "name": "安定蘇厝第一代天府真護宮王船祭",
        "name_en": "Sucuo First Daitian Temple (Zhenhu Temple) Wangye Boat-Burning Festival, Anding",
        "name_jp": "安定蘇厝第一代天府真護宮王船祭",
        "name_kr": "안딩쑤춰 제일대천부진호궁왕선제",
        "county": "臺南市",
        "town": "安定區",
        "address": "蘇厝里293-2號",
        "county_en": "Tainan City",
        "town_en": "Anding Dist.",
        "address_en": "No. 293-2, Su Cuo Li",
        "lat": 23.0916786194,
        "lng": 120.232795715
      }
    },
    {
      "type": "Feature",
      "geometry": {
        "type": "Point",
        "coordinates": [
          120.291748047,
          22.6205062866
        ]
      },
      "properties": {
        "name": "高雄玫瑰聖母聖殿主教座堂",
        "name_en": "Minor Basilica-Cathedral of the Holy Rosary, Kaohsiung",
        "name_jp": "高雄玫瑰聖母聖殿主教座堂",
        "name_kr": "가오슝 로사리오 성모성전 주교좌 대성당",
        "county": "高雄市",
        "town": "苓雅區",
        "address": "五福三路151號",
        "county_en": "Kaohsiung City",
        "town_en": "Lingya Dist.",
        "address_en": "No. 151, Wufu 3rd Rd.",
        "lat": 22.6205062866,
        "lng": 120.291748047
      }
    },
    {
      "type": "Feature",
      "geometry": {
        "type": "Point",
        "coordinates": [
          120.446281433,
          22.7472667694
        ]
      },
      "properties": {
        "name": "高雄佛光山寺．佛陀紀念館",
        "name_en": "Fo Guang Shan Temple and Buddha Memorial Center, Kaohsiung",
        "name_jp": "高雄仏光山寺・仏陀紀念館",
        "name_kr": "가오슝 불광산사 및 불타기념관",
        "county": "高雄市",
        "town": "大樹區",
        "address": "興田里興田路153號",
        "county_en": "Kaohsiung City",
        "town_en": "Dashu Dist.",
        "address_en": "No. 153, Xingtian Rd.",
        "lat": 22.7472667694,
        "lng": 120.446281433
      }
    },
    {
      "type": "Feature",
      "geometry": {
        "type": "Point",
        "coordinates": [
          120.470367432,
          22.9123897552
        ]
      },
      "properties": {
        "name": "內門順賢宮",
        "name_en": "Shunxian Gong(Temple), Neimen",
        "name_jp": "内門順賢宮",
        "name_kr": "네이먼 순현궁",
        "county": "高雄市",
        "town": "內門區",
        "address": "內南里菜園頂8之8號",
        "county_en": "Kaohsiung City",
        "town_en": "Neimen Dist.",
        "address_en": "No. 8-8, Cai Yuan Ding",
        "lat": 22.9123897552,
        "lng": 120.470367432
      }
    },
    {
      "type": "Feature",
      "geometry": {
        "type": "Point",
        "coordinates": [
          120.455032349,
          22.9171276093
        ]
      },
      "properties": {
        "name": "內門宋江陣",
        "name_en": "Song Jiang Battle Array, Neimen",
        "name_jp": "内門宋江陣(行事・信仰)",
        "name_kr": "네이먼 송강진",
        "county": "高雄市",
        "town": "內門區",
        "address": "觀亭里中正路115巷18號",
        "county_en": "Kaohsiung City",
        "town_en": "Neimen Dist.",
        "address_en": "No. 18, Lane 115, Zhongzheng Rd.",
        "lat": 22.9171276093,
        "lng": 120.455032349
      }
    },
    {
      "type": "Feature",
      "geometry": {
        "type": "Point",
        "coordinates": [
          120.448783875,
          22.4630908966
        ]
      },
      "properties": {
        "name": "東港迎王平安祭典",
        "name_en": "Welcoming Donggang Wangye Deities Ceremony",
        "name_jp": "東港迎王平安祭典",
        "name_kr": "둥강 영왕평안제전",
        "county": "屏東縣",
        "town": "東港鎮",
        "address": "東隆街21-1號",
        "county_en": "Pingtung County",
        "town_en": "Donggang Township",
        "address_en": "No. 21-1, Donglong St.",
        "lat": 22.4630908966,
        "lng": 120.448783875
      }
    },
    {
      "type": "Feature",
      "geometry": {
        "type": "Point",
        "coordinates": [
          120.749946594,
          22.0039234161
        ]
      },
      "properties": {
        "name": "恆春搶孤及爬孤棚",
        "name_en": "The Hengchun Ghost Grappling Competition",
        "name_jp": "恒春搶孤・爬孤棚(行事・信仰)",
        "name_kr": "헝춘 창고 및 파고붕 겨루기",
        "county": "屏東縣",
        "town": "恆春鎮",
        "address": "屏東縣恆春東門城外",
        "county_en": "Pingtung County",
        "town_en": "Hengchun Township",
        "address_en": "East Gate, Hengchun Old Town",
        "lat": 22.0039234161,
        "lng": 120.749946594
      }
    },
    {
      "type": "Feature",
      "geometry": {
        "type": "Point",
        "coordinates": [
          121.155433655,
          22.7495059967
        ]
      },
      "properties": {
        "name": "臺東炮炸寒單爺",
        "name_en": "Bombing Lord Handan, Taitung",
        "name_jp": "台東炮炸寒単爺(行事・信仰)",
        "name_kr": "타이둥 한단야 폭죽제",
        "county": "臺東縣",
        "town": "臺東市",
        "address": "正氣路2-1號",
        "county_en": "Taitung County",
        "town_en": "Taitung City",
        "address_en": "No. 2, Zhengqi Rd.",
        "lat": 22.7495059967,
        "lng": 121.155433655
      }
    },
    {
      "type": "Feature",
      "geometry": {
        "type": "Point",
        "coordinates": [
          121.154983521,
          22.7572364807
        ]
      },
      "properties": {
        "name": "臺東天后宮",
        "name_en": "Taitung Tianhau (Mazu) Temple",
        "name_jp": "臺東天后宮",
        "name_kr": "타이둥 천후궁",
        "county": "臺東縣",
        "town": "臺東市",
        "address": "中華路一段222號",
        "county_en": "Taitung County",
        "town_en": "Taitung City",
        "address_en": "No. 222, Section 1, Zhonghua Rd.",
        "lat": 22.7572364807,
        "lng": 121.154983521
      }
    },
    {
      "type": "Feature",
      "geometry": {
        "type": "Point",
        "coordinates": [
          121.504325867,
          23.4744644165
        ]
      },
      "properties": {
        "name": "花蓮Makotaay(港口)部落阿美族ilisin豐年祭",
        "name_en": "Ilisin Harvest Festival of the Amis Makotaay (Gangkou) Tribe in Hualien",
        "name_jp": "花蓮Makotaay(港口) 集落アミ族ilisin 豊年祭",
        "name_kr": "화롄 Makotaay(강커우) 부락 아메이족 Ilisin 풍년제",
        "county": "花蓮縣",
        "town": "豐濱鄉",
        "address": "港口村7鄰118號",
        "county_en": "Hualien County",
        "town_en": "Fengbin Township",
        "address_en": "No. 118, Village 7, Gangkou Village",
        "lat": 23.4744644165,
        "lng": 121.504325867
      }
    },
    {
      "type": "Feature",
      "geometry": {
        "type": "Point",
        "coordinates": [
          121.589393616,
          23.9924297333
        ]
      },
      "properties": {
        "name": "花蓮慈濟文化園區",
        "name_en": "Tzu Chi Cultural Park, Hualien",
        "name_jp": "花蓮慈済文化園区",
        "name_kr": "화롄 자제 문화단지",
        "county": "花蓮縣",
        "town": "花蓮市",
        "address": "中央路3段701號至707號",
        "county_en": "Hualien County",
        "town_en": "Hualien City",
        "address_en": "No. 701-707, Section 3, Zhongyang Rd.",
        "lat": 23.9924297333,
        "lng": 121.589393616
      }
    },
    {
      "type": "Feature",
      "geometry": {
        "type": "Point",
        "coordinates": [
          119.561958313,
          23.5676631927
        ]
      },
      "properties": {
        "name": "澎湖觀音亭",
        "name_en": "Guanyin Temple, Penghu",
        "name_jp": "澎湖観音亭",
        "name_kr": "펑후 관음정",
        "county": "澎湖縣",
        "town": "馬公市",
        "address": "中興里介壽路7號",
        "county_en": "Penghu County",
        "town_en": "Magong City",
        "address_en": "No. 7, Jieshou Rd.",
        "lat": 23.5676631927,
        "lng": 119.561958313
      }
    },
    {
      "type": "Feature",
      "geometry": {
        "type": "Point",
        "coordinates": [
          118.413238525,
          24.4889316559
        ]
      },
      "properties": {
        "name": "金門風獅爺",
        "name_en": "Wind Lions of Kinmen",
        "name_jp": "金門風獅爺(行事・信仰)",
        "name_kr": "진먼 풍사야",
        "county": "金門縣",
        "town": "金沙鎮",
        "address": "環島東路1段112號",
        "county_en": "Kinmen County",
        "town_en": "Jinsha Township",
        "address_en": "No. 112, Section 1, Huandao E Rd.",
        "lat": 24.4889316559,
        "lng": 118.413238525
      }
    },
    {
      "type": "Feature",
      "geometry": {
        "type": "Point",
        "coordinates": [
          118.316047668,
          24.4323444366
        ]
      },
      "properties": {
        "name": "金門浯島迎城隍",
        "name_en": "Welcoming Wudao Chenghuangye (City God) in Kinmen",
        "name_jp": "金門浯島迎城隍",
        "name_kr": "진먼 우다오 성황 영접 퍼레이드",
        "county": "金門縣",
        "town": "金城鎮",
        "address": "光前路40號",
        "county_en": "Kinmen County",
        "town_en": "Jincheng Township",
        "address_en": "No. 40, Guangqian Rd.",
        "lat": 24.4323444366,
        "lng": 118.316047668
      }
    },
    {
      "type": "Feature",
      "geometry": {
        "type": "Point",
        "coordinates": [
          118.233978271,
          24.4221992493
        ]
      },
      "properties": {
        "name": "烈嶼保生大帝廟",
        "name_en": "Baosheng Dadi Temple, Lieyu",
        "name_jp": "烈嶼保生大帝廟",
        "name_kr": "례위 보생대제묘",
        "county": "金門縣",
        "town": "烈嶼鄉",
        "address": "上庫路3之1號",
        "county_en": "Kinmen County",
        "town_en": "Lieyu Township",
        "address_en": "No. 3-1, Shangku Rd.",
        "lat": 24.4221992493,
        "lng": 118.233978271
      }
    }
  ]
}