{
 "type": "FeatureCollection",
 "features": [
  {
   "type": "Feature",
   "properties": {
    "line_id": "R",
    "route_id": "R",
    "color": "#d90023",
    "source": "OpenStreetMap (ways 197881274, 806179562, 453081585)",
    "license": "ODbL 1.0 © OpenStreetMap contributors",
    "retrieved_at": "2026-10-04",
    "opened": "2026-08-30",
    "note": "信義線東延段象山(R02)至廣慈/奉天宮(R01)，2026-08-30 通車；地下線形為 OSM 近似位置，非官方施工圖",
    "name": "淡水信義線東延段 象山→廣慈/奉天宮",
    "track_id": "R-EXT-XINYI-EAST",
    "direction": 0,
    "start_station": "R02",
    "end_station": "R01"
   },
   "geometry": {
    "type": "LineString",
    "coordinates": [
     [
      121.57008008832449,
      25.03286811021769
     ],
     [
      121.5714549,
      25.0327686
     ],
     [
      121.5722757,
      25.0328369
     ],
     [
      121.5724117,
      25.0328469
     ],
     [
      121.5725666,
      25.0328706
     ],
     [
      121.5727175,
      25.0328962
     ],
     [
      121.5729488,
      25.0329381
     ],
     [
      121.5733713,
      25.0330468
     ],
     [
      121.5736476,
      25.0331532
     ],
     [
      121.5738069,
      25.0332168
     ],
     [
      121.5739359,
      25.0332718
     ],
     [
      121.5742118,
      25.0334033
     ],
     [
      121.5747078,
      25.0336988
     ],
     [
      121.5751909,
      25.034001
     ],
     [
      121.5774657,
      25.0357325
     ],
     [
      121.577656,
      25.0358693
     ],
     [
      121.5778423,
      25.0359881
     ],
     [
      121.5780797,
      25.0361087
     ],
     [
      121.5782909,
      25.0361816
     ],
     [
      121.5785001,
      25.0362265
     ],
     [
      121.5787219,
      25.0362581
     ],
     [
      121.5794021,
      25.0363144
     ],
     [
      121.5796655,
      25.0363708
     ],
     [
      121.5799008,
      25.0364474
     ],
     [
      121.5803361,
      25.036633
     ],
     [
      121.5812852,
      25.0369887
     ],
     [
      121.5822145,
      25.037352
     ]
    ]
   }
  },
  {
   "type": "Feature",
   "properties": {
    "line_id": "R",
    "route_id": "R",
    "color": "#d90023",
    "source": "OpenStreetMap (ways 197881274, 806179562, 453081585)",
    "license": "ODbL 1.0 © OpenStreetMap contributors",
    "retrieved_at": "2026-10-04",
    "opened": "2026-08-30",
    "note": "信義線東延段象山(R02)至廣慈/奉天宮(R01)，2026-08-30 通車；地下線形為 OSM 近似位置，非官方施工圖",
    "station_id": "R01",
    "name": "廣慈/奉天宮",
    "name_zh": "廣慈/奉天宮",
    "name_en": "Guangci/Fengtian Temple"
   },
   "geometry": {
    "type": "Point",
    "coordinates": [
     121.5823111,
     25.0374683
    ]
   }
  }
 ]
}