{"type": "FeatureCollection", "features": [{"type": "Feature", "geometry": {"type": "Point", "coordinates": [121.09078, 23.46649]}, "properties": {"height_m": 93, "neigh_median": 3.0, "frac_neigh_tall": 0.04, "frac_nodata": 0.25, "isolated": true}}, {"type": "Feature", "geometry": {"type": "Point", "coordinates": [120.73972, 23.38159]}, "properties": {"height_m": 149, "neigh_median": 21.5, "frac_neigh_tall": 0.04, "frac_nodata": 0.21, "isolated": true}}, {"type": "Feature", "geometry": {"type": "Point", "coordinates": [121.10982, 23.22062]}, "properties": {"height_m": 92, "neigh_median": 6.5, "frac_neigh_tall": 0.12, "frac_nodata": 0.5, "isolated": true}}]}