{"type":"FeatureCollection","features":[{"type":"Feature","properties":{"id":1,"name":"8大森林樂園","city":"屏東縣","address":"92055屏東縣潮州鎮潮州路800號","phone":"08-7898822","open_hours":"08：30-17：00","website":"","ticket_info":"全票600元；軍警學生票400元；專案票全面199元；博幼票300元；屏東縣民票280元※即日起至107年12月31日止，全面專案價一律享購199元【學生、軍警】：出示證件◎票價及營業時間如有變更請以…","has_nursing_room":1,"has_accessible_facility":1,"has_aed":1,"has_water_dispenser":1,"muslim_friendly":0,"is_green_building":0,"is_env_edu_site":0,"inspection_date":"2025-09-17","inspection_issues_count":8,"inspection_latest":"一、本署114年9月17日辦理「8大森林樂園」督導考核競賽，經中央及地方各權責機關考核結果，應改善事項如下：\n(一)\t旅遊安全維護\n1.\t建立緊急救護及救難系統(衛生福利部) ：\n(1)\t請定期更新衛材替換過期品。\n(2)\t目前急救站在封鎖管制區且離活動區過遠，請適度調整位置。\n2.\t職業安全衛生(勞動部)：\n(1)\t合梯部分有凹陷，未有絕緣防滑腳部套及硬質隙材。\n(2)\t變電箱未有絕緣防護設施。","coord_source":"park_address"},"geometry":{"type":"Point","coordinates":[120.557001,22.548554]}},{"type":"Feature","properties":{"id":2,"name":"九族文化村","city":"南投縣","address":"555南投縣魚池鄉大林村金天巷45號","phone":"049-2895361","open_hours":"平日09：30~17：00假日09：30~17：30全年無休‧農曆除夕營業至下午三點二月櫻花祭期間園區與設施開放時間可能異動","website":"https://www.nine.com.tw/","ticket_info":"成人：850    團體：750學生：750    團體：650兒童：650    團體：550博幼：420    團體：420博幼標準：65歲以上長者、孕婦、持有身心障礙手冊者及身障者必要陪伴者一人…","has_nursing_room":1,"has_accessible_facility":1,"has_aed":1,"has_water_dispenser":1,"muslim_friendly":1,"is_green_building":0,"is_env_edu_site":1,"inspection_date":"2025-09-08","inspection_issues_count":8,"inspection_latest":"一、本署114年9月8日辦理「九族文化村」督導考核競賽，經中央及地方各權責機關考核結果，應改善事項如下：\n(一)\t旅遊安全維護\n職業安全衛生(勞動部）：\n(1)\t無敵艦隊電氣室內的風扇未裝防護網。\n(2)\t餐廳內斷壓力表未標示最大壓力。\n(3)\t歐式花園電動火車變電箱標示非相關人員請勿觸碰。\n二、前項應改善事項業請該權責主管機關依其主管法令列為後續重點檢查項目並限期改善、追蹤輔導；餘經出席機關代表","coord_source":"park_address"},"geometry":{"type":"Point","coordinates":[120.94472222222223,23.870444444444445]}},{"type":"Feature","properties":{"id":3,"name":"大路觀主題樂園","city":"屏東縣","address":"90645屏東縣高樹鄉廣興村中正路188號","phone":"08-795-6789","open_hours":"平日09:00-17:00、假日08:30-17:30","website":"https://www.dalukuanland.com/","ticket_info":"全票400、學生票350、優待票及學童票280、幼童票200  (園區不定期作票價優惠方案)","has_nursing_room":1,"has_accessible_facility":1,"has_aed":1,"has_water_dispenser":1,"muslim_friendly":1,"is_green_building":0,"is_env_edu_site":0,"inspection_date":"2025-09-01","inspection_issues_count":8,"inspection_latest":"一、本署114年9月1日辦理「大路觀主題樂園」督導考核競賽，經中央及地方各權責機關考核結果，應改善事項如下：\n(一)\t旅遊安全維護\n1.\t職業安全衛生(勞動部)：\n(1)\t小型鍋爐操作人員証未辦理回訓。\n(2)\t仍有勞工未依規定辦理一般健康檢查(工務、65歲以上應每年至少1次)。\n(3)\t溫泉水設備區及汙水場，請改善人員通行路線安全(如通道保持平坦、上下樓梯設施等)。\n2. 餐飲環境衛生(衛生福利","coord_source":"park_address"},"geometry":{"type":"Point","coordinates":[120.625593,22.737382]}},{"type":"Feature","properties":{"id":4,"name":"小人國主題樂園","city":"桃園市","address":"325,桃園市龍潭區高原里7鄰高原路891號","phone":"(03)4717211~6","open_hours":"園區營業時間平日09:00~16:30假日09:30~17:00","website":"https://www.wow.com.tw/","ticket_info":"票別      原價     特價成 人 票    $799元     $499元學 生 票    $699元     $499元學 童 票    $599元     $499元幼 童 票    $4…","has_nursing_room":1,"has_accessible_facility":1,"has_aed":1,"has_water_dispenser":1,"muslim_friendly":0,"is_green_building":1,"is_env_edu_site":1,"inspection_date":"2025-09-12","inspection_issues_count":5,"inspection_latest":"一、本署114年9月12日辦理「小人國主題樂園」督導考核競賽，經中央及地方各權責機關考核結果，應改善事項如下：\n旅遊安全維護\n職業安全衛生(勞動部)：\n(1)\t摩天輪設置之固定梯未有墜落警告標示。\n(2)\t水池局限空間未上鎖。\n二、前項應改善事項業請該權責主管機關依其主管法令列為後續重點檢查項目並限期改善、追蹤輔導；餘經出席機關代表表示符合其權責法規。","coord_source":"park_address"},"geometry":{"type":"Point","coordinates":[121.18847222222223,24.832305555555557]}},{"type":"Feature","properties":{"id":5,"name":"小叮噹科學主題樂園","city":"新竹縣","address":"(304)新竹縣新豐鄉松柏村康和路199號","phone":"03-5592132","open_hours":"上午08:30-下午17:00","website":"https://www.ding-dong.com.tw/","ticket_info":"全  票:個人500元/團體450元學童票:個人400元/團體360元(高中以下)幼童票:個人350元/團體300元(3-6歲)孝親票:個人250元(60歲以上及體障者)","has_nursing_room":1,"has_accessible_facility":1,"has_aed":1,"has_water_dispenser":1,"muslim_friendly":0,"is_green_building":1,"is_env_edu_site":1,"inspection_date":"2025-08-04","inspection_issues_count":7,"inspection_latest":"一、本署114年8月4日辦理「小叮噹科學主題樂園」督導考核競賽，經中央及地方各權責機關考核結果，應改善事項如下：\n(一)\t旅遊安全維護\n       職業安全衛生(勞動部)：\n       自動檢查計畫應依實際情況調整。\n(二)\t環境整潔美化\n 環境清潔及垃圾處理(環境部環境管理署)：\n（1）應注意泳池旁、植栽紅磚破損情形，並詳予維護，以保護遊客安全。\n（2）廢棄輪胎再利用，應採打洞或填塞水泥，避","coord_source":"park_address"},"geometry":{"type":"Point","coordinates":[120.980012,24.868938]}},{"type":"Feature","properties":{"id":6,"name":"小墾丁渡假村","city":"屏東縣","address":"郵遞區號:94744地址:屏東縣滿州鄉滿州村中山路205號","phone":"專線08-8802880  免付費:0800-000076","open_hours":"00-24 全天候","website":"https://www.kentington.com.tw/","ticket_info":"園區以住宿為主提供住宿入園免費；住宿價格如網站公告","has_nursing_room":1,"has_accessible_facility":1,"has_aed":1,"has_water_dispenser":1,"muslim_friendly":1,"is_green_building":1,"is_env_edu_site":0,"inspection_date":"2025-09-16","inspection_issues_count":8,"inspection_latest":"一、本署114年9月16日辦理「小墾丁渡假村」督導考核競賽，經中央及地方各權責機關考核結果，應改善事項如下：\n(一)\t旅遊安全維護\n1.\t建立緊急救護及救難系統(衛生福利部) ：\n(1)\t救護站急救箱的設置及定義應更清楚，並更新至地圖及告示牌上。\n(2)\t緊急救護訓練應考量評估是否符合實際需求，進行課程修正。\n2.\t職業安全衛生(勞動部)：\n(1)\t安全資料表未更新。\n(2)\t廚房排水溝蓋未有止滑","coord_source":"park_address"},"geometry":{"type":"Point","coordinates":[120.83225,22.026138888888887]}},{"type":"Feature","properties":{"id":7,"name":"六福村主題遊樂園","city":"新竹縣","address":"306新竹縣關西鎮仁安里拱子溝60號","phone":"(03)5475665","open_hours":"1、2、3、4、5、6、9、10、11、12月營業時間 09:00-17:00; 7、8月營業時間 09:00-20:00","website":"https://www.leofoovillage.com.tw/","ticket_info":"成人票$999、學生票$899、學童票$699、幼童票$499、博愛票$399、100cm以下免費入園","has_nursing_room":1,"has_accessible_facility":1,"has_aed":1,"has_water_dispenser":1,"muslim_friendly":1,"is_green_building":0,"is_env_edu_site":1,"inspection_date":"2025-08-08","inspection_issues_count":7,"inspection_latest":"一、本署114年8月8日辦理「六福村主題遊樂園」督導考核競賽，經中央及地方各權責機關考核結果，應改善事項如下：\n(一)\t旅遊安全維護\n      職業安全衛生 (勞動部) ：\n        1.阿拉伯皇宮飛毯區之乙炔及氧氣未分開儲存。\n        2.甲級管理師未回訓。\n(二)\t環境整潔美化(環境部環境管理署)：\n1.\t請定期檢視水池、投入氯錠，避免病媒蚊孳生。\n2.\t部分公廁鏡面霧化有斑點","coord_source":"park_address"},"geometry":{"type":"Point","coordinates":[121.180603,24.825239]}},{"type":"Feature","properties":{"id":8,"name":"火炎山溫泉度假村","city":"苗栗縣","address":"郵遞區號:35878園區地址:苗栗縣苑裡鎮石鎮里8鄰1號","phone":"037-740373","open_hours":"08:30-17:00","website":"","ticket_info":"全票:350/愛心票:250/團體票:250","has_nursing_room":1,"has_accessible_facility":1,"has_aed":1,"has_water_dispenser":0,"muslim_friendly":0,"is_green_building":0,"is_env_edu_site":0,"inspection_date":"2025-08-11","inspection_issues_count":7,"inspection_latest":"一、本署114年8月11日辦理「火炎山遊樂區」督導考核競賽，經中央及地方各權責機關考核結果，應改善事項如下：\n(一)\t旅遊安全維護\n1.\t建立緊急救護及救難系統(衛生福利部)\n意外事件無論事件大小皆應紀錄，且載明處理情形，以利後續檢討改善，預防事件發生。\n2.\t職業安全衛生(勞動部）：\n請修復冷凍庫彈簧門把。\n3.\t環境清潔及垃圾處理(環境部環境管理署)：\n請增加資源回收區各類回收物之中文標示。\n","coord_source":"park_address"},"geometry":{"type":"Point","coordinates":[120.700801,24.409867]}},{"type":"Feature","properties":{"id":9,"name":"柳營尖山埤渡假村","city":"臺南市","address":"郵遞區號:73658;園區住址:臺南市柳營區旭山里60號","phone":"06-6233888","open_hours":"1. 園區一日旅遊開放時間:08:30-17:00。2. 露營開放時間:全年無休。3. 江南會館開放時間:全年無休。","website":"https://www.taisugar.com.tw/resting/jianshanpi/index.aspx","ticket_info":"1. 門票:成人票150元、優待票120元、學童票100元、敬老票75元、身心障礙遊客免費。2. 設施價格:(1) 遊湖畫舫:100元/人;持身心障礙手冊、3歲以下孩童及65歲以上成人買優待票60元/…","has_nursing_room":1,"has_accessible_facility":1,"has_aed":1,"has_water_dispenser":1,"muslim_friendly":0,"is_green_building":0,"is_env_edu_site":1,"inspection_date":"2025-09-05","inspection_issues_count":8,"inspection_latest":"一、本署114年9月5日辦理「柳營尖山埤渡假村」督導考核競賽，經中央及地方各權責機關考核結果，應改善事項如下：\n(一)\t旅遊安全維護\n1.\t建立緊急救護及救難系統(衛生福利部)：\n導覽圖上AED數量與摺頁地圖上不同，缺少泳池AED標示，需與AED急救網資訊一致，請改善。\n2.\t職業安全衛生(勞動部) ：\n(1)\t請加強承攬管理，如高空工作車人員應確實使用安全帶，繩索吊掛作業人員也要有證照，並進行單","coord_source":"park_address"},"geometry":{"type":"Point","coordinates":[120.392637,23.266749]}},{"type":"Feature","properties":{"id":10,"name":"西湖渡假村","city":"苗栗縣","address":"36742苗栗縣三義鄉西湖村西湖11號","phone":"037-876-699","open_hours":"09:00-17:00（除苗栗縣政府公告停班課當日，全年無休；開放賞螢期間視螢火蟲蟲況及遊客狀況延長營業時間）","website":"https://www.westlake.com.tw/","ticket_info":"全票：$399元優惠票（國中以上學生/軍警/30人以上之團體）：$350元學童票（6歲以上至國小學童）：$300元苗栗縣民票、幼兒票（3-6歲）：$250元敬老票（65歲以上）、身障人士：$200元","has_nursing_room":1,"has_accessible_facility":1,"has_aed":1,"has_water_dispenser":1,"muslim_friendly":1,"is_green_building":0,"is_env_edu_site":1,"inspection_date":"2025-08-11","inspection_issues_count":7,"inspection_latest":"一、本署114年8月11日辦理「西湖渡假村」督導考核競賽，經中央及地方各權責機關考核結果，應改善事項如下：\n(一)\t旅遊安全維護\n1、\t職業安全衛生(勞動部)\n(1)\t空壓機未每年定期實施自動檢查。\n(2)\t部分松香水容器未設置危害標示。\n(3)\t松園會館空調機房之馬達外殼未接地。\n2、\t環境清潔及垃圾處理 (環境部環境管理署)：\n請確實依水污染防治許可證操作並記錄。\n3、\t餐飲環境衛生(衛生福利","coord_source":"park_address"},"geometry":{"type":"Point","coordinates":[120.7585986,24.3901972]}},{"type":"Feature","properties":{"id":11,"name":"杉林溪森林生態渡假園區","city":"南投縣","address":"55791南投縣竹山鎮大鞍里溪山路6號","phone":"049-2611217","open_hours":"除天候因素，園區全年無休、全天開放","website":"http://www.goto307.com.tw","ticket_info":"原價300元全票/250元/人，30人以上團體每人220元優惠票/200元/人，30人以上團體每人180元【優惠票：限軍警、高中、國中、國小】敬老愛心票/150元【60歲以上長者、持有身心障礙手冊及必…","has_nursing_room":1,"has_accessible_facility":1,"has_aed":1,"has_water_dispenser":1,"muslim_friendly":0,"is_green_building":0,"is_env_edu_site":1,"inspection_date":"2025-09-19","inspection_issues_count":8,"inspection_latest":"一、本署114年9月19日辦理「杉林溪森林生態渡假園區」督導考核競賽，經中央及地方各權責機關考核結果，應改善事項如下：\n(一)\t旅遊安全維護\n職業安全衛生(勞動部）：\n(1)\t木梯需更換為標準合梯。\n(2)\t發電機室配電箱一處無中隔板，無標示用途。\n(3)\t侷限空間廚房消防水池未公告禁止進入。\n（二）遊樂業者管理\n1. 建築管理(內政部國土管理署)：\n未取得合法使照建物，請儘快完成補照事宜。\n2.","coord_source":"park_address"},"geometry":{"type":"Point","coordinates":[120.7921,23.6397]}},{"type":"Feature","properties":{"id":12,"name":"怡園渡假村","city":"花蓮縣","address":"97451花蓮縣壽豐鄉豐坪路三段6巷21號","phone":"03-8651166","open_hours":"遊園：08:00～18:00住宿：00:00～24:00全天開放","website":"https://www.yiyuanresort.com.tw/ticket.html","ticket_info":"1.全　票 NT$500 ‧滿19歲(含)以上，未滿65歲以下之成年人。2.優待票 NT$400 ‧滿13歲(含)以上、未滿19歲以下之青少年，憑身分證件購買。‧學生身份不限年齡，憑有效之個人學生證購…","has_nursing_room":1,"has_accessible_facility":1,"has_aed":1,"has_water_dispenser":1,"muslim_friendly":1,"is_green_building":0,"is_env_edu_site":0,"inspection_date":"2025-08-18","inspection_issues_count":9,"inspection_latest":"一、本署114年8月18日辦理「怡園渡假村」督導考核競賽，經中央及地方各權責機關考核結果，應改善事項如下：\n旅遊安全維護\n1.\t緊急救護及救難(衛生福利部)：\n(1)\t救護站標示牌脫落請修復，另建議牌面加大，並裝設燈牌發亮功能，以利識別。\n(2)\t救護包清點單，氧氣筒殘量數目皆空白無填寫，雖有註記多少要更換，但同步制定最低安全值更佳。\n(3)\t甦醒球(AMBU)的面罩沒有氣。\n2.\t職業安全衛生(","coord_source":"park_address"},"geometry":{"type":"Point","coordinates":[121.52222222222223,23.840555555555554]}},{"type":"Feature","properties":{"id":13,"name":"東勢林場遊樂區","city":"臺中市","address":"42352臺中市東勢區勢林街6-1號","phone":"（04）2587-2191","open_hours":"星期一至星期日 06:30 至 22:00備註:園區全年無休，除遭遇颱風，並由臺中市政府發布本日停班停課訊息。","website":"https://www.tsfa.com.tw/","ticket_info":"全票250元兒童、學生票200元幼童敬老票125元東勢鄉親票60元","has_nursing_room":1,"has_accessible_facility":1,"has_aed":1,"has_water_dispenser":1,"muslim_friendly":0,"is_green_building":0,"is_env_edu_site":1,"inspection_date":"2025-08-12","inspection_issues_count":8,"inspection_latest":"一、本署114年8月12日辦理「東勢林場遊樂區」督導考核競賽，經中央及地方各權責機關考核結果，應改善事項如下：\n(一)\t旅遊安全維護\n1.\t緊急救護及救難系統(衛生福利部）\nAED設備設有使用紀錄表單，惟未列印且放置於設施旁，請改善，以利AED使用即時記錄。\n2.\t職業安全衛生(勞動部）\n(1)\t使用危害性化學品之相關作業勞工，應接受3小時安全衛生教育訓練。\n(2)\t廢水處理區之空壓機，應設防護罩","coord_source":"park_address"},"geometry":{"type":"Point","coordinates":[120.8703937903344,24.28221740651827]}},{"type":"Feature","properties":{"id":14,"name":"香格里拉樂園","city":"苗栗縣","address":"361苗栗縣造橋鄉豐湖村1鄰乳姑山15-3號","phone":"037-561369","open_hours":"早上:9點0分至下午5點0分","website":"https://www.shangrila.com.tw/","ticket_info":"全票:500元，半票:400元，愛心票:249元","has_nursing_room":1,"has_accessible_facility":1,"has_aed":1,"has_water_dispenser":1,"muslim_friendly":0,"is_green_building":0,"is_env_edu_site":0,"inspection_date":"2023-08-10","inspection_issues_count":5,"inspection_latest":"一、本局112年8月10日辦理「香格里拉樂園」督導考核競賽，經中央及地方各權責機關考核結果，應改善事項如下：\n(一)\t旅遊安全維護\n1.\t緊急救護及救難系統(衛生福利部）：\n(1)\t\t本(112)年度尚未辦理緊急救護訓練及相關演習，請改善。\n(2)\t\t依「公共場所必要緊急救護設備管理辦法」，應指定負責AED管理員，請改善。\n(3)\t\t意外事件報告單，應更新至最新日期，請改善。\n2.\t職業安全衛生(","coord_source":"park_address"},"geometry":{"type":"Point","coordinates":[120.84668,24.624301]}},{"type":"Feature","properties":{"id":15,"name":"泰雅渡假村","city":"南投縣","address":"544南投縣國姓鄉北港村北原路56-2號","phone":"049-2461311","open_hours":"園區開放時間：星期一到星期五 10:30~17:00星期六 10:30~17:30星期日 10:30~17:00溫泉：星期一到星期日 17:00~22:00","website":"https://www.atayal.com.tw/zh-tw","ticket_info":"全票：300元/人(原價450元/人)半票：250元/ 人團體票：250元/人 學生票:250/人 幼童票：200元/人","has_nursing_room":1,"has_accessible_facility":1,"has_aed":1,"has_water_dispenser":1,"muslim_friendly":0,"is_green_building":0,"is_env_edu_site":0,"inspection_date":"2025-08-28","inspection_issues_count":9,"inspection_latest":"一、本署114年8月28日辦理「泰雅渡假村」督導考核競賽，經中央及地方各權責機關考核結果，應改善事項如下：\n(一)\t旅遊安全維護\n1.\t職業安全衛生（勞動部職業安全衛生署）：\n(1)\t請依最新指引或相關法規，更新執行職務遭受不法侵害預防計畫。\n(2)\t危害性化學品清單未完整。\n(3)\t飲料販賣機、油炸機未接地。\n(4)\t泰雅餐廳廚房入口一處不平整，輕食館一處鋼筋未移除。\n2.\t配合警政業務及案件預","coord_source":"park_address"},"geometry":{"type":"Point","coordinates":[120.941123,24.066686]}},{"type":"Feature","properties":{"id":16,"name":"野柳海洋世界","city":"新北市","address":"207新北市萬里區野柳里港東路167-3號","phone":"02-24921111","open_hours":"平日：09：00~17：00假日：09：00~17：30","website":"https://www.oceanworld.com.tw/","ticket_info":"全票400元、學童票：330元、愛心/博愛票：225元","has_nursing_room":1,"has_accessible_facility":1,"has_aed":1,"has_water_dispenser":1,"muslim_friendly":0,"is_green_building":0,"is_env_edu_site":0,"inspection_date":"2025-08-25","inspection_issues_count":8,"inspection_latest":"一、本署114年8月25日辦理「野柳海洋世界」督導考核競賽，經中央及地方各權責機關考核結果，應改善事項如下：\n(一)\t旅遊安全維護\n1.\t職業安全衛生(勞動部）：\n(1)\t無工作場所巡視紀錄。\n(2)\t無對承攬人之安衛教育訓練查核紀錄，或對承攬人辦理安衛教育訓練之紀錄。\n(3)\t應於協議組織會議紀錄明確指定自己的勞工工作場所負責人，擔任指揮、監督及協調之工作。\n(4)\t危害通識計畫，其執行內容應適","coord_source":"park_address"},"geometry":{"type":"Point","coordinates":[121.69136111111112,25.205083333333334]}},{"type":"Feature","properties":{"id":17,"name":"雲仙樂園","city":"新北市","address":"233 新北市烏來區烏來里瀑布路1-1號        指標的","phone":"02-26616510","open_hours":"9:00-22:00","website":"https://www.yun-hsien.com.tw/","ticket_info":"全票 220元 ＊19 歲(含)以上，65 歲以下之成年人 優惠票 150元 ＊19 歲以下學生(須備證件） ＊年滿 3 歲，未滿 12 歲之學童半票 110元 ＊年滿 65 歲(含)以上之長者(須備…","has_nursing_room":1,"has_accessible_facility":1,"has_aed":1,"has_water_dispenser":1,"muslim_friendly":0,"is_green_building":0,"is_env_edu_site":1,"inspection_date":"2025-09-11","inspection_issues_count":7,"inspection_latest":"一、本署114年9月11日辦理「雲仙樂園」督導考核競賽，經中央及地方各權責機關考核結果，應改善事項如下：\n(一)\t旅遊安全維護\n1.\t緊急救護及救難系統(衛生福利部）：\n(1)\tAED設置位置變更，應於平面圖進行變更標示。\n(2)\tAED放置裝置應通電，誤觸裝置警示未啟動\n2.\t職業安全衛生(勞動部）：\n(1)\t瓦斯桶放置區，應依法評估劃設防爆區，使用防爆電器。\n(2)\t流籠作業人員於開口邊緣作業","coord_source":"park_address"},"geometry":{"type":"Point","coordinates":[121.551234,24.848815]}},{"type":"Feature","properties":{"id":18,"name":"義大世界","city":"高雄市","address":"840高雄市大樹區學城路一段10號","phone":"886-7-656-8080","open_hours":"週一至週日09：00~17：30，全年無休(除遇天災事變等不可抗力之情事等)","website":"https://www.edathemepark.com.tw/","ticket_info":"1. 全票899元適用對象：滿18歲(含)以上成人。2. 學生票799元適用對象：滿13歲(含)以上之國中、高中、大學、研究所在學學生，憑學生證購買。3. 優待票580元適用對象：滿3歲(含)以上、1…","has_nursing_room":1,"has_accessible_facility":1,"has_aed":1,"has_water_dispenser":1,"muslim_friendly":0,"is_green_building":1,"is_env_edu_site":0,"inspection_date":"2025-09-02","inspection_issues_count":8,"inspection_latest":"一、本署114年9月2日辦理「義大世界」督導考核競賽，經中央及地方各權責機關考核結果，應改善事項如下：\n(一)\t旅遊安全維護\n1. 餐飲環境衛生(衛生福利部食品藥物管理署)：\n(1)\t聖城餐廳及美食部落之桌面或層架需加強保持清潔。\n(2)\t聖城餐廳之食材保存盒應保持清潔。\n二、前項應改善事項業請該權責主管機關依其主管法令列為後續重點檢查項目並限期改善、追蹤輔導；餘經出席機關代表表示符合其權責法規。","coord_source":"park_address"},"geometry":{"type":"Point","coordinates":[120.40400666666666,22.724738333333335]}},{"type":"Feature","properties":{"id":20,"name":"頑皮世界野生動物園","city":"臺南市","address":"72649 台南市學甲區三慶里頂洲75-25號","phone":"06-7810000","open_hours":"08:00-17:00","website":"https://www.wanpiworldzoo.com.tw/","ticket_info":"全票(480元)１２歲(含)以上學童票(380元)６歲(含)以上、未滿１２歲幼童票(280元)３歲(含)以上、未滿６歲敬老票(240元)６５歲(含)以上仁愛票(240元)持有身心障礙手冊本人及一名陪同…","has_nursing_room":1,"has_accessible_facility":1,"has_aed":1,"has_water_dispenser":1,"muslim_friendly":0,"is_green_building":0,"is_env_edu_site":0,"inspection_date":"2025-09-04","inspection_issues_count":8,"inspection_latest":"一、本署114年9月4日辦理「頑皮世界」督導考核競賽，經中央及地方各權責機關考核結果，應改善事項如下：\n(一)\t旅遊安全維護\n1.\t職業安全衛生(勞動部)：\n(1)\t颱風後重建，有發包工程(修樹、機電……)未有承攬管理資料，請補充。\n(2)\t颱風後多數管理文件遺失，請儘速重建(如4.\t化學品清單未完整、教育訓練資料未建立)。\n2. 建築管理(內政部國土管理署)：\n(1)\t停車場棚架未領照，請儘速申","coord_source":"park_address"},"geometry":{"type":"Point","coordinates":[120.20922222222222,23.281666666666666]}},{"type":"Feature","properties":{"id":21,"name":"綠舞日式主題園區","city":"宜蘭縣","address":"26841宜蘭縣五結鄉五濱路二段459號","phone":"(03) 960-3979","open_hours":"四~十月 09：00-18：00(購票時間09：00-17：00) 十一月~三月 09：00-17：00(購票時間09：00-16：00)(如遇特殊情況，將另行公告)","website":"https://www.dwsresort.com.tw/park/","ticket_info":"全  票 300元/人學生票 270元/人優惠票 250元/人 團體票 240元/人免  費 未滿6歲or身高未滿120公分之幼兒，幼兒團體恕不適用。門票可折抵園區餐飲消費NT$100","has_nursing_room":1,"has_accessible_facility":1,"has_aed":1,"has_water_dispenser":1,"muslim_friendly":1,"is_green_building":1,"is_env_edu_site":1,"inspection_date":"2025-08-26","inspection_issues_count":8,"inspection_latest":"一、本署114年8月26日辦理「綠舞莊園日式主題遊樂區」督導考核競賽，經中央及地方各權責機關考核結果，應改善事項如下：\n(一)\t旅遊安全維護\n1.\t緊急救護及救難系統(衛生福利部）：\n園區導覽中有2處醫護站，但2處醫護站的設備和人力配置有所差異，遊客中心的醫護站有全套器材，但無救護人員常駐，請建立啟動SOP；綠舞飯店內的救護站僅有一般型急救箱，與計畫書內容不同，但有EMT-1常駐，建議修正。\n2.","coord_source":"park_address"},"geometry":{"type":"Point","coordinates":[121.820735,24.703138]}},{"type":"Feature","properties":{"id":22,"name":"遠雄海洋公園股份有限公司","city":"花蓮縣","address":"郵遞區號:97449地址:花蓮縣壽豐鄉鹽寮村福德189號","phone":"03-8123100","open_hours":"週一至週五：09:30~17:00週六、週日：09:00~17:00(1-6月;9-12月等淡季採取階段性每週三閉園一日)","website":"https://www.farglory-oceanpark.com.tw/","ticket_info":"一般：1.全票：$890，19歲(含)以上65歲以下之成年人2.優待票：$790  (1)13歲(含)以上18歲(含)以下之青少年  (2)學生身份不限年齡需主動出示有效之個人學生證3.博愛票：$59…","has_nursing_room":1,"has_accessible_facility":1,"has_aed":1,"has_water_dispenser":1,"muslim_friendly":0,"is_green_building":0,"is_env_edu_site":0,"inspection_date":"2025-08-19","inspection_issues_count":8,"inspection_latest":"一、本署114年8月19日辦理「遠雄海洋公園」督導考核競賽，經中央及地方各權責機關考核結果，應改善事項如下：\n(一)\t旅遊安全維護\n1.\t緊急救護及救難(衛生福利部)：\n(1)\t水族館逃生動線圖請增加AED位置標示。\n(2)\t導覽app內未標示所有AED位置。\n(3)\t移動式AED電池已過期(2024年8月)。\n2.職業安全衛生(勞動部)：\n(1)\t餐廳外瓦斯間入口應標示非相關工作人員禁止進入。\n","coord_source":"park_address"},"geometry":{"type":"Point","coordinates":[121.60333333333332,23.901944444444442]}},{"type":"Feature","properties":{"id":23,"name":"劍湖山世界股份有限公司","city":"雲林縣","address":"646雲林縣古坑鄉永光村大湖口67號N","phone":"TEL：05-5825789FAX：05-5825781","open_hours":"園區平假日營業時間09:00至21:00止遊樂設施運轉時間平日(週一~週五) 09:30至16:30止假日(例假及國定假期09:30至17:20止","website":"https://www.janfusun.com.tw/fancyworld.php","ticket_info":"活動票899元※ 一般成人。軍警學生票699元※國中(含)以上學生及軍警。學童票599元※7-12歲或121cm以上之學童對象。樂齡票399元※ 60歲(含)以上長者。幼童愛心票350元※?3～6歲或…","has_nursing_room":1,"has_accessible_facility":1,"has_aed":1,"has_water_dispenser":1,"muslim_friendly":1,"is_green_building":0,"is_env_edu_site":1,"inspection_date":"2025-09-09","inspection_issues_count":7,"inspection_latest":"本署114年9月9日辦理「劍湖山世界」督導考核競賽，經中央及地方各權責機關考核結果，應改善事項：無，經出席機關代表表示符合其權責法規。","coord_source":"park_address"},"geometry":{"type":"Point","coordinates":[120.579306,23.615576]}},{"type":"Feature","properties":{"id":24,"name":"麗寶樂園","city":"臺中市","address":"42145臺中市后里區福容路3號","phone":"04-25582459","open_hours":"探索世界：平日週一到週五 9：30~17：00             星期六日及連續假期及暑假－9：30~20：00馬拉灣：5月、6月、9月、10月中旬9：30~17：00          7、8月暑假9：30~20：00","website":"https://www.lihpaoresort.com/LihpaolandApp","ticket_info":"單園(探索或馬拉)：全票750元                  學生票650元                  學童票6~12歲490元                  博幼票399元(3~6…","has_nursing_room":1,"has_accessible_facility":1,"has_aed":1,"has_water_dispenser":1,"muslim_friendly":1,"is_green_building":0,"is_env_edu_site":0,"inspection_date":"2025-08-29","inspection_issues_count":8,"inspection_latest":"一、本署114年8月29日辦理「麗寶樂園」督導考核競賽，經中央及地方各權責機關考核結果，應改善事項如下：\n(一)\t旅遊安全維護\n1、\t職業安全衛生(勞動部)\n(1)馬拉灣機房室之空壓機傳動帶，應設置護罩。\n(2)馬拉灣機房室之次氯酸鈉安全資料表，每3年應至少檢討1次。\n(3)熊大麗寶小鎮廚房冷凍庫低溫場所，應有相關警告標示，並提供防護衣供低溫作業勞工使用。\n2、\t餐飲環境衛生(衛生福利部食品藥物管","coord_source":"park_address"},"geometry":{"type":"Point","coordinates":[120.695457,24.32082]}},{"type":"Feature","properties":{"id":25,"name":"台東原生應用植物園","city":"臺東縣","address":"954台東縣卑南鄉8號","phone":"089-570011","open_hours":"星期一至星期四 上午08：30~下午17：30星期五至星期日 上午08：30~晚上19：30(連續假期全天候供餐)","website":"https://yuan-sen.com.tw/","ticket_info":"入園抵用券成人$200優待$100(●適用於年齡7歲(含)以上至12歲兒童●台東縣市居民及其親友)【可抵用園區商品、下午茶，但不得抵扣用餐消費及與其他優惠並用】用餐抵用券成人$450兒童$299(適用…","has_nursing_room":1,"has_accessible_facility":1,"has_aed":1,"has_water_dispenser":1,"muslim_friendly":0,"is_green_building":0,"is_env_edu_site":0,"inspection_date":"2025-08-20","inspection_issues_count":6,"inspection_latest":"一、本署114年8月20日辦理「台東原生應用植物園」督導考核競賽，經中央及地方各權責機關考核結果，應改善事項如下：\n(一)\t旅遊安全維護\n1.\t緊急救護及救難(衛生福利部)：\n(1)\t查無新進人員CPR與AED紀錄，請改善。\n(2)\t下半年尚未完成外包廠商每半年一次之檢測。\n2.\t職業安全衛生(勞動部)：\n(1)\t職業安全衛生教育訓練教材未保存3年，請改善。\n(2)\t請加強設備管理(如水塔、風扇、","coord_source":"parking"},"geometry":{"type":"Point","coordinates":[121.10366430555801,22.85379555396709]}},{"type":"Feature","properties":{"id":26,"name":"尚順育樂世界","city":"苗栗縣","address":"351苗栗縣頭份市育樂街6號","phone":"037-539999","open_hours":"尚順育樂天地苗栗縣頭份市育樂街6-6號週一至週日 10:00-18:00","website":"https://www.ss-plaza.com.tw/","ticket_info":"票價說明，收費分為購買套票或單項持悠遊卡扣款遊玩。1. 育樂天地遊園券 全館套票設施 優惠價 699 元 (原價1199 元)2.單項設施收費請參考官網說明為主。","has_nursing_room":1,"has_accessible_facility":1,"has_aed":1,"has_water_dispenser":1,"muslim_friendly":0,"is_green_building":0,"is_env_edu_site":0,"inspection_date":"2025-08-05","inspection_issues_count":3,"inspection_latest":"一、本署114年8月5日辦理「尚順育樂世界」督導考核競賽，經中央及地方各權責機關考核結果，應改善事項如下：\n(一)\t旅遊安全維護\n1.\t職業安全衛生(勞動部）：\n(1)\t職業安全衛生人員未完成報備。\n(2)\t瓦斯管線未確實標示。\n(3)\t安全資料危害圖示(柴油)與實際不符。\n(4)\t受電室內放置與電路無關之雜物。\n(5)\t中間槽之侷限空間無禁止進入公告。\n(6)\t部分扇風機未有護罩。\n(7)\t合梯","coord_source":"park_address"},"geometry":{"type":"Point","coordinates":[120.90466,24.68825]}},{"type":"Feature","properties":{"id":27,"name":"九九峰動物樂園","city":"南投縣","address":"542 南投縣草屯鎮富頂路一段726巷99號","phone":"049-2565107","open_hours":"平日假日夏令09:00~18:00　　09:00~18:30冬令09:00~17:00　　09:00~17:30","website":"http://www.jojozoopark.com","ticket_info":"成人票560元團體票460元學生票360元博愛票280元縣民票200元","has_nursing_room":1,"has_accessible_facility":1,"has_aed":1,"has_water_dispenser":1,"muslim_friendly":0,"is_green_building":0,"is_env_edu_site":0,"inspection_date":"2025-09-18","inspection_issues_count":3,"inspection_latest":"一、本署114年9月18日辦理「九九峰動物樂園」督導考核競賽，經中央及地方各權責機關考核結果，應改善事項如下：\n旅遊安全維護\n職業安全衛生(勞動部）：\n1.小型鍋爐輪值人員未有證照。\n2.柴油桶未設置危害標示。\n3.現場有一個瓦斯鋼瓶未固定。\n4.發電機室內堆放與電器無關的雜物。\n二、前項應改善事項業請該權責主管機關依其主管法令列為後續重點檢查項目並限期改善、追蹤輔導；餘經出席機關代表表示符合其權","coord_source":"parking"},"geometry":{"type":"Point","coordinates":[120.70751811812912,23.962223895829087]}}]}