{"type":"FeatureCollection","features":[{"type":"Feature","properties":{"name":"知本","county":"臺東縣","district":"卑南鄉","quality":"中性碳酸氫鈉泉","type":"hot_spring"},"geometry":{"type":"Point","coordinates":[121.01340248335714,22.693660784260814]}},{"type":"Feature","properties":{"name":"磺港","county":"新北市","district":"金山區","quality":"酸性氯化物泉","type":"hot_spring"},"geometry":{"type":"Point","coordinates":[121.6438431604821,25.22791878192425]}},{"type":"Feature","properties":{"name":"四磺坪","county":"新北市","district":"金山區","quality":"酸性硫酸鹽泉","type":"hot_spring"},"geometry":{"type":"Point","coordinates":[121.60351343859446,25.194731250267463]}},{"type":"Feature","properties":{"name":"大分","county":"花蓮縣","district":"卓溪鄉","quality":"中性碳酸氫鈉泉","type":"hot_spring"},"geometry":{"type":"Point","coordinates":[121.10776360928725,23.39128095356339]}},{"type":"Feature","properties":{"name":"龜丹","county":"臺南市","district":"楠西區","quality":"鹼性氯化物泉","type":"hot_spring"},"geometry":{"type":"Point","coordinates":[120.53624994267601,23.123723614464836]}},{"type":"Feature","properties":{"name":"精英","county":"南投縣","district":"仁愛鄉","quality":"中性碳酸氫鈉泉","type":"hot_spring"},"geometry":{"type":"Point","coordinates":[121.1971732824168,24.03063568917997]}},{"type":"Feature","properties":{"name":"寶來","county":"高雄市","district":"六龜區","quality":"中性碳酸氫鈉泉","type":"hot_spring"},"geometry":{"type":"Point","coordinates":[120.70188776735131,23.107534558534347]}},{"type":"Feature","properties":{"name":"東里二號","county":"花蓮縣","district":"富里鄉","quality":"鹼性硫酸鹽泉","type":"hot_spring"},"geometry":{"type":"Point","coordinates":[121.3214505963193,23.2490046865093]}},{"type":"Feature","properties":{"name":"旭海","county":"屏東縣","district":"牡丹鄉","quality":"中性碳酸氫鈉泉","type":"hot_spring"},"geometry":{"type":"Point","coordinates":[120.87763052687937,22.1897554344986]}},{"type":"Feature","properties":{"name":"上桃林","county":"臺東縣","district":"延平鄉","quality":"鹼性碳酸氫鹽泉","type":"hot_spring"},"geometry":{"type":"Point","coordinates":[120.94494117241709,22.884440220866193]}},{"type":"Feature","properties":{"name":"士文溪","county":"屏東縣","district":"春日鄉","quality":"鹼性碳酸氫鈉泉","type":"hot_spring"},"geometry":{"type":"Point","coordinates":[120.65307758913889,22.36946449067987]}},{"type":"Feature","properties":{"name":"比魯二號","county":"臺東縣","district":"金峰鄉","quality":"鹼性碳酸氫鈉泉","type":"hot_spring"},"geometry":{"type":"Point","coordinates":[120.84450647795475,22.579125333171042]}},{"type":"Feature","properties":{"name":"加年端","county":"南投縣","district":"信義鄉","quality":"","type":"hot_spring"},"geometry":{"type":"Point","coordinates":[121.09053871102289,23.73954588447506]}},{"type":"Feature","properties":{"name":"嘎拉賀","county":"桃園市","district":"復興區","quality":"中性碳酸氫鈉泉","type":"hot_spring"},"geometry":{"type":"Point","coordinates":[121.41100406219473,24.631084265885754]}},{"type":"Feature","properties":{"name":"大武","county":"屏東縣","district":"霧臺鄉","quality":"中性碳酸氫鈉泉","type":"hot_spring"},"geometry":{"type":"Point","coordinates":[120.800629700331,22.745826757440557]}},{"type":"Feature","properties":{"name":"七坑","county":"高雄市","district":"桃源區","quality":"中性碳酸氫鈉泉","type":"hot_spring"},"geometry":{"type":"Point","coordinates":[120.75270298404516,23.101725406610036]}},{"type":"Feature","properties":{"name":"紅葉(台東)","county":"臺東縣","district":"延平鄉","quality":"中性碳酸氫鈉泉","type":"hot_spring"},"geometry":{"type":"Point","coordinates":[121.0681314185716,22.889122174132986]}},{"type":"Feature","properties":{"name":"玉穗","county":"高雄市","district":"桃源區","quality":"中性碳酸氫鈉泉","type":"hot_spring"},"geometry":{"type":"Point","coordinates":[120.79469505251775,23.181922569032317]}},{"type":"Feature","properties":{"name":"泰崗","county":"新竹縣","district":"尖石鄉","quality":"中性碳酸氫鈉泉","type":"hot_spring"},"geometry":{"type":"Point","coordinates":[121.29674106237289,24.62249591407382]}},{"type":"Feature","properties":{"name":"多望溪","county":"宜蘭縣","district":"大同鄉","quality":"中性碳酸氫鈉泉","type":"hot_spring"},"geometry":{"type":"Point","coordinates":[121.50698136008383,24.552332446347556]}},{"type":"Feature","properties":{"name":"伊巴厚","county":"南投縣","district":"信義鄉","quality":"中性碳酸氫鈉泉","type":"hot_spring"},"geometry":{"type":"Point","coordinates":[121.01893138609319,23.669264245109314]}},{"type":"Feature","properties":{"name":"高中","county":"高雄市","district":"桃源區","quality":"鹼性碳酸氫鈉泉","type":"hot_spring"},"geometry":{"type":"Point","coordinates":[120.71379792514641,23.135253210142572]}},{"type":"Feature","properties":{"name":"梅山","county":"高雄市","district":"桃源區","quality":"鹼性碳酸氫鈉泉","type":"hot_spring"},"geometry":{"type":"Point","coordinates":[120.84004253791737,23.293112807185434]}},{"type":"Feature","properties":{"name":"太魯灣","county":"南投縣","district":"仁愛鄉","quality":"中性碳酸氫鈉泉","type":"hot_spring"},"geometry":{"type":"Point","coordinates":[121.17076259428481,24.019931305473882]}},{"type":"Feature","properties":{"name":"普沙羽揚","county":"臺東縣","district":"達仁鄉","quality":"鹼性碳酸氫鈉泉","type":"hot_spring"},"geometry":{"type":"Point","coordinates":[120.79889829825014,22.36900689168535]}},{"type":"Feature","properties":{"name":"樂嘉","county":"花蓮縣","district":"萬榮鄉","quality":"中性碳酸氫鹽泉","type":"hot_spring"},"geometry":{"type":"Point","coordinates":[121.26922272860173,23.792306706895843]}},{"type":"Feature","properties":{"name":"嘎拉賀二號","county":"桃園市","district":"復興區","quality":"中性碳酸氫鈉泉","type":"hot_spring"},"geometry":{"type":"Point","coordinates":[121.40762619765894,24.62810496612716]}},{"type":"Feature","properties":{"name":"白冷","county":"臺中市","district":"和平區","quality":"","type":"hot_spring"},"geometry":{"type":"Point","coordinates":[120.92823978104117,24.17665267746723]}},{"type":"Feature","properties":{"name":"四季","county":"宜蘭縣","district":"大同鄉","quality":"中性碳酸氫鈉泉","type":"hot_spring"},"geometry":{"type":"Point","coordinates":[121.4422057881009,24.478789227079705]}},{"type":"Feature","properties":{"name":"雙流","county":"屏東縣","district":"獅子鄉","quality":"中性碳酸氫鈉泉","type":"hot_spring"},"geometry":{"type":"Point","coordinates":[120.81184673933517,22.220616918171363]}},{"type":"Feature","properties":{"name":"金崙","county":"臺東縣","district":"太麻里鄉","quality":"中性碳酸氫鈉泉","type":"hot_spring"},"geometry":{"type":"Point","coordinates":[120.93793787706049,22.528785244698227]}},{"type":"Feature","properties":{"name":"萬山","county":"高雄市","district":"茂林區","quality":"中性碳酸氫鈉泉","type":"hot_spring"},"geometry":{"type":"Point","coordinates":[120.74820713013807,22.94165903771547]}},{"type":"Feature","properties":{"name":"安通","county":"花蓮縣","district":"玉里鎮","quality":"中性氯化物硫酸鹽泉","type":"hot_spring"},"geometry":{"type":"Point","coordinates":[121.34047431813002,23.28206073755056]}},{"type":"Feature","properties":{"name":"六重溪","county":"臺南市","district":"白河區","quality":"中性氯化物泉","type":"hot_spring"},"geometry":{"type":"Point","coordinates":[120.47864543791042,23.31232968826462]}},{"type":"Feature","properties":{"name":"萬大南溪","county":"南投縣","district":"仁愛鄉","quality":"中性碳酸氫鈉泉","type":"hot_spring"},"geometry":{"type":"Point","coordinates":[121.19760628736883,23.940754901895033]}},{"type":"Feature","properties":{"name":"芃芃","county":"宜蘭縣","district":"大同鄉","quality":"中性碳酸氫鈉泉","type":"hot_spring"},"geometry":{"type":"Point","coordinates":[121.5216396904383,24.616611479415138]}},{"type":"Feature","properties":{"name":"芽丁","county":"宜蘭縣","district":"南澳鄉","quality":"中性碳酸氫鹽泉","type":"hot_spring"},"geometry":{"type":"Point","coordinates":[121.72240096727691,24.544429925003676]}},{"type":"Feature","properties":{"name":"四重溪","county":"屏東縣","district":"車城鄉","quality":"中性碳酸氫鈉泉","type":"hot_spring"},"geometry":{"type":"Point","coordinates":[120.74777936216206,22.094566217708252]}},{"type":"Feature","properties":{"name":"長春","county":"臺北市","district":"北投區","quality":"酸性硫酸鹽泉","type":"hot_spring"},"geometry":{"type":"Point","coordinates":[121.50658320683564,25.142019639260308]}},{"type":"Feature","properties":{"name":"地熱谷","county":"臺北市","district":"北投區","quality":"","type":"hot_spring"},"geometry":{"type":"Point","coordinates":[121.5114361276526,25.137976486046732]}},{"type":"Feature","properties":{"name":"四稜","county":"桃園市","district":"復興區","quality":"中性碳酸氫鈉泉","type":"hot_spring"},"geometry":{"type":"Point","coordinates":[121.43440910569028,24.638376835050128]}},{"type":"Feature","properties":{"name":"小隱潭","county":"臺北市","district":"北投區","quality":"酸性硫酸鹽泉","type":"hot_spring"},"geometry":{"type":"Point","coordinates":[121.5390079247505,25.156169369257505]}},{"type":"Feature","properties":{"name":"文山","county":"花蓮縣","district":"秀林鄉","quality":"中性硫酸鹽泉","type":"hot_spring"},"geometry":{"type":"Point","coordinates":[121.4908092385326,24.20166692236488]}},{"type":"Feature","properties":{"name":"南澳","county":"宜蘭縣","district":"南澳鄉","quality":"","type":"hot_spring"},"geometry":{"type":"Point","coordinates":[121.7946299187672,24.421704243563866]}},{"type":"Feature","properties":{"name":"東埔","county":"南投縣","district":"信義鄉","quality":"鹼性碳酸氫鈉泉","type":"hot_spring"},"geometry":{"type":"Point","coordinates":[120.93131019158692,23.563156436931358]}},{"type":"Feature","properties":{"name":"碧山","county":"臺東縣","district":"海端鄉","quality":"鹼性碳酸氫鈉泉","type":"hot_spring"},"geometry":{"type":"Point","coordinates":[121.0292639025139,23.17627417360913]}},{"type":"Feature","properties":{"name":"哈尤溪","county":"屏東縣","district":"霧臺鄉","quality":"鹼性碳酸氫鈉泉","type":"hot_spring"},"geometry":{"type":"Point","coordinates":[120.82877053575454,22.760164481627992]}},{"type":"Feature","properties":{"name":"少年溪","county":"高雄市","district":"桃源區","quality":"鹼性碳酸氫鈉泉","type":"hot_spring"},"geometry":{"type":"Point","coordinates":[120.76799822787379,23.176738117532473]}},{"type":"Feature","properties":{"name":"富源","county":"花蓮縣","district":"萬榮鄉","quality":"中性碳酸氫鈉泉","type":"hot_spring"},"geometry":{"type":"Point","coordinates":[121.34220810712692,23.58757324340184]}},{"type":"Feature","properties":{"name":"富里","county":"花蓮縣","district":"富里鄉","quality":"中性氯化物泉","type":"hot_spring"},"geometry":{"type":"Point","coordinates":[121.28680754491462,23.171988113530205]}},{"type":"Feature","properties":{"name":"硫磺谷","county":"臺北市","district":"北投區","quality":"酸性硫酸鹽泉","type":"hot_spring"},"geometry":{"type":"Point","coordinates":[121.52414668208762,25.144016917357497]}},{"type":"Feature","properties":{"name":"十二坑","county":"高雄市","district":"桃源區","quality":"中性碳酸氫鈉泉","type":"hot_spring"},"geometry":{"type":"Point","coordinates":[120.8062516519684,23.126878107066883]}},{"type":"Feature","properties":{"name":"挹翠橋","county":"臺北市","district":"北投區","quality":"酸性硫酸鹽泉","type":"hot_spring"},"geometry":{"type":"Point","coordinates":[121.51126374755223,25.141832028966753]}},{"type":"Feature","properties":{"name":"金泉","county":"新北市","district":"金山區","quality":"中性氯化物泉","type":"hot_spring"},"geometry":{"type":"Point","coordinates":[121.64025899144207,25.22198506834819]}},{"type":"Feature","properties":{"name":"湖山","county":"臺北市","district":"北投區","quality":"中性碳酸氫鈉泉","type":"hot_spring"},"geometry":{"type":"Point","coordinates":[121.535686116137,25.14960908022456]}},{"type":"Feature","properties":{"name":"馬陵","county":"臺中市","district":"和平區","quality":"中性碳酸氫鈉泉","type":"hot_spring"},"geometry":{"type":"Point","coordinates":[121.05515938947133,24.22967984402554]}},{"type":"Feature","properties":{"name":"泰安","county":"苗栗縣","district":"泰安鄉","quality":"鹼性碳酸氫鈉泉","type":"hot_spring"},"geometry":{"type":"Point","coordinates":[120.98234159581543,24.470650095633363]}},{"type":"Feature","properties":{"name":"轆轆","county":"臺東縣","district":"海端鄉","quality":"鹼性碳酸氫鈉泉","type":"hot_spring"},"geometry":{"type":"Point","coordinates":[121.04827259858331,23.124081869550256]}},{"type":"Feature","properties":{"name":"小錦屏","county":"新竹縣","district":"尖石鄉","quality":"中性碳酸氫鈉泉","type":"hot_spring"},"geometry":{"type":"Point","coordinates":[121.2047337472143,24.650060654577892]}},{"type":"Feature","properties":{"name":"彩霞","county":"臺東縣","district":"海端鄉","quality":"中性碳酸氫鈉泉","type":"hot_spring"},"geometry":{"type":"Point","coordinates":[121.10600757238235,23.138051028717815]}},{"type":"Feature","properties":{"name":"新都驕溪","county":"屏東縣","district":"獅子鄉","quality":"鹼性碳酸氫鈉泉","type":"hot_spring"},"geometry":{"type":"Point","coordinates":[120.75645061191514,22.32091951602877]}},{"type":"Feature","properties":{"name":"翠林橋","county":"臺北市","district":"士林區","quality":"酸性硫酸鹽泉","type":"hot_spring"},"geometry":{"type":"Point","coordinates":[121.56733915109892,25.182352762008957]}},{"type":"Feature","properties":{"name":"十三坑","county":"高雄市","district":"桃源區","quality":"","type":"hot_spring"},"geometry":{"type":"Point","coordinates":[120.82609611540131,23.123830843538475]}},{"type":"Feature","properties":{"name":"枋山溪","county":"屏東縣","district":"獅子鄉","quality":"鹼性碳酸氫鈉泉","type":"hot_spring"},"geometry":{"type":"Point","coordinates":[120.71361224854901,22.274021457721474]}},{"type":"Feature","properties":{"name":"七股","county":"臺北市","district":"士林區","quality":"酸性硫酸鹽泉","type":"hot_spring"},"geometry":{"type":"Point","coordinates":[121.56501901874091,25.178362287854252]}},{"type":"Feature","properties":{"name":"梅蘭","county":"高雄市","district":"桃源區","quality":"中性碳酸氫鈉泉","type":"hot_spring"},"geometry":{"type":"Point","coordinates":[120.80993806334597,23.23373142398848]}},{"type":"Feature","properties":{"name":"下馬","county":"臺東縣","district":"海端鄉","quality":"鹼性碳酸氫鈉泉","type":"hot_spring"},"geometry":{"type":"Point","coordinates":[121.05759358410768,23.161573670676944]}},{"type":"Feature","properties":{"name":"雲山","county":"高雄市","district":"桃源區","quality":"中性碳酸氫鈉泉","type":"hot_spring"},"geometry":{"type":"Point","coordinates":[120.77721700075774,23.02990530988683]}},{"type":"Feature","properties":{"name":"天狗","county":"苗栗縣","district":"泰安鄉","quality":"","type":"hot_spring"},"geometry":{"type":"Point","coordinates":[120.98649466970772,24.378987358141085]}},{"type":"Feature","properties":{"name":"無雙","county":"南投縣","district":"信義鄉","quality":"中性碳酸氫鈉泉","type":"hot_spring"},"geometry":{"type":"Point","coordinates":[121.01102291114022,23.591525646751357]}},{"type":"Feature","properties":{"name":"日月池","county":"高雄市","district":"桃源區","quality":"鹼性碳酸氫鈉泉","type":"hot_spring"},"geometry":{"type":"Point","coordinates":[120.7756363181605,23.182718335534712]}},{"type":"Feature","properties":{"name":"小油坑","county":"臺北市","district":"北投區","quality":"酸性硫酸鹽泉","type":"hot_spring"},"geometry":{"type":"Point","coordinates":[121.54775375109165,25.175511185250656]}},{"type":"Feature","properties":{"name":"莫很","county":"宜蘭縣","district":"南澳鄉","quality":"鹼性碳酸氫鈉泉","type":"hot_spring"},"geometry":{"type":"Point","coordinates":[121.60351245517762,24.430676795233197]}},{"type":"Feature","properties":{"name":"近黃","county":"臺東縣","district":"金峰鄉","quality":"中性碳酸氫鈉泉","type":"hot_spring"},"geometry":{"type":"Point","coordinates":[120.85434784899063,22.51459739532955]}},{"type":"Feature","properties":{"name":"和社","county":"南投縣","district":"信義鄉","quality":"","type":"hot_spring"},"geometry":{"type":"Point","coordinates":[120.87321764809161,23.565341317943478]}},{"type":"Feature","properties":{"name":"水尾","county":"新北市","district":"金山區","quality":"酸性氯化物泉","type":"hot_spring"},"geometry":{"type":"Point","coordinates":[121.64676026582778,25.22213731818115]}},{"type":"Feature","properties":{"name":"礁溪","county":"宜蘭縣","district":"礁溪鄉","quality":"中性碳酸氫鈉泉","type":"hot_spring"},"geometry":{"type":"Point","coordinates":[121.76728276426157,24.828805123454462]}},{"type":"Feature","properties":{"name":"大濁水","county":"宜蘭縣","district":"南澳鄉","quality":"中性碳酸氫鈉泉","type":"hot_spring"},"geometry":{"type":"Point","coordinates":[121.63207926396092,24.40254403387052]}},{"type":"Feature","properties":{"name":"中崙","county":"嘉義縣","district":"中埔鄉","quality":"鹼性氯化物泥漿泉","type":"hot_spring"},"geometry":{"type":"Point","coordinates":[120.55862705865086,23.373528866313382]}},{"type":"Feature","properties":{"name":"胡宗南墓","county":"臺北市","district":"北投區","quality":"中性碳酸氫鹽泉","type":"hot_spring"},"geometry":{"type":"Point","coordinates":[121.54308425438708,25.165028928004432]}},{"type":"Feature","properties":{"name":"不老","county":"高雄市","district":"六龜區","quality":"中性碳酸氫鈉泉","type":"hot_spring"},"geometry":{"type":"Point","coordinates":[120.69183756213316,23.062407663459183]}},{"type":"Feature","properties":{"name":"利吉","county":"臺東縣","district":"卑南鄉","quality":"中性氯化物泉","type":"hot_spring"},"geometry":{"type":"Point","coordinates":[121.16103960374437,22.864373895851845]}},{"type":"Feature","properties":{"name":"菁山","county":"臺北市","district":"士林區","quality":"酸性硫酸鹽泉","type":"hot_spring"},"geometry":{"type":"Point","coordinates":[121.55899596141717,25.1585508609198]}},{"type":"Feature","properties":{"name":"冷水坑","county":"臺北市","district":"士林區","quality":"中性硫酸鹽泉","type":"hot_spring"},"geometry":{"type":"Point","coordinates":[121.56260976771347,25.16789008347548]}},{"type":"Feature","properties":{"name":"雪見","county":"苗栗縣","district":"泰安鄉","quality":"中性碳酸氫鈉泉","type":"hot_spring"},"geometry":{"type":"Point","coordinates":[121.07473526871512,24.41675632360368]}},{"type":"Feature","properties":{"name":"爺亨","county":"桃園市","district":"復興區","quality":"中性碳酸氫鈉泉","type":"hot_spring"},"geometry":{"type":"Point","coordinates":[121.37501389920129,24.67514795924451]}},{"type":"Feature","properties":{"name":"鼎筆橋","county":"臺北市","district":"北投區","quality":"中性硫酸鹽泉","type":"hot_spring"},"geometry":{"type":"Point","coordinates":[121.53643740038966,25.155835641458292]}},{"type":"Feature","properties":{"name":"關子嶺","county":"臺南市","district":"白河區","quality":"鹼性碳酸氫鈉-氯化物泉","type":"hot_spring"},"geometry":{"type":"Point","coordinates":[120.50410210675103,23.339602008004878]}},{"type":"Feature","properties":{"name":"二子山","county":"花蓮縣","district":"萬榮鄉","quality":"鹼性碳酸氫鹽泉","type":"hot_spring"},"geometry":{"type":"Point","coordinates":[121.35668755307908,23.882480043170816]}},{"type":"Feature","properties":{"name":"奧萬大","county":"南投縣","district":"仁愛鄉","quality":"","type":"hot_spring"},"geometry":{"type":"Point","coordinates":[121.18529105679107,23.943858377736692]}},{"type":"Feature","properties":{"name":"陽明路","county":"臺北市","district":"北投區","quality":"酸性硫酸鹽泉","type":"hot_spring"},"geometry":{"type":"Point","coordinates":[121.54910881926598,25.148016149595193]}},{"type":"Feature","properties":{"name":"谷關","county":"臺中市","district":"和平區","quality":"鹼性碳酸氫鈉泉","type":"hot_spring"},"geometry":{"type":"Point","coordinates":[121.00932265972037,24.204154628459385]}},{"type":"Feature","properties":{"name":"秀巒","county":"新竹縣","district":"尖石鄉","quality":"中性碳酸氫鈉泉","type":"hot_spring"},"geometry":{"type":"Point","coordinates":[121.29256344127384,24.614125401867007]}},{"type":"Feature","properties":{"name":"樂樂谷","county":"南投縣","district":"信義鄉","quality":"中性碳酸氫鈉泉","type":"hot_spring"},"geometry":{"type":"Point","coordinates":[120.95255372674255,23.547190130581942]}},{"type":"Feature","properties":{"name":"雲海","county":"南投縣","district":"仁愛鄉","quality":"中性碳酸氫鈉泉","type":"hot_spring"},"geometry":{"type":"Point","coordinates":[121.21942381496197,24.032248802266448]}},{"type":"Feature","properties":{"name":"十坑","county":"高雄市","district":"桃源區","quality":"中性碳酸氫鹽泉","type":"hot_spring"},"geometry":{"type":"Point","coordinates":[120.78851103133732,23.120244952048882]}},{"type":"Feature","properties":{"name":"青山","county":"臺中市","district":"和平區","quality":"鹼性碳酸氫鈉泉","type":"hot_spring"},"geometry":{"type":"Point","coordinates":[121.16083004085351,24.252773992099602]}},{"type":"Feature","properties":{"name":"瑞穗","county":"花蓮縣","district":"萬榮鄉","quality":"中性碳酸鹽氯化物泉","type":"hot_spring"},"geometry":{"type":"Point","coordinates":[121.35026122944254,23.48747577193875]}},{"type":"Feature","properties":{"name":"栗松","county":"臺東縣","district":"海端鄉","quality":"鹼性碳酸氫鈉泉","type":"hot_spring"},"geometry":{"type":"Point","coordinates":[121.03509073702034,23.19663681132035]}},{"type":"Feature","properties":{"name":"廬山","county":"南投縣","district":"仁愛鄉","quality":"鹼性碳酸氫鈉泉","type":"hot_spring"},"geometry":{"type":"Point","coordinates":[121.18518640690203,24.02185590067772]}},{"type":"Feature","properties":{"name":"十八重溪","county":"南投縣","district":"信義鄉","quality":"鹼性碳酸氫鈉泉","type":"hot_spring"},"geometry":{"type":"Point","coordinates":[120.92099609340137,23.643058333485254]}},{"type":"Feature","properties":{"name":"紅香","county":"南投縣","district":"仁愛鄉","quality":"中性碳酸氫鈉泉","type":"hot_spring"},"geometry":{"type":"Point","coordinates":[121.18020254263854,24.16263983416106]}},{"type":"Feature","properties":{"name":"石洞","county":"高雄市","district":"桃源區","quality":"鹼性碳酸氫鈉泉","type":"hot_spring"},"geometry":{"type":"Point","coordinates":[120.7235270617423,23.085819346174613]}},{"type":"Feature","properties":{"name":"下七股","county":"臺北市","district":"士林區","quality":"中性硫酸鹽泉","type":"hot_spring"},"geometry":{"type":"Point","coordinates":[121.58061289743111,25.18216585699958]}},{"type":"Feature","properties":{"name":"磺山","county":"新北市","district":"萬里區","quality":"酸性硫酸鹽泉","type":"hot_spring"},"geometry":{"type":"Point","coordinates":[121.6129692666481,25.18679302730102]}},{"type":"Feature","properties":{"name":"土?","county":"臺東縣","district":"達仁鄉","quality":"鹼性碳酸氫鈉泉","type":"hot_spring"},"geometry":{"type":"Point","coordinates":[120.89241134752845,22.454289153334695]}},{"type":"Feature","properties":{"name":"大埔","county":"新北市","district":"金山區","quality":"酸性氯化物泉","type":"hot_spring"},"geometry":{"type":"Point","coordinates":[121.64342208859632,25.215796350923807]}},{"type":"Feature","properties":{"name":"員山","county":"宜蘭縣","district":"員山鄉","quality":"中性氯化物泉","type":"hot_spring"},"geometry":{"type":"Point","coordinates":[121.71285629002301,24.74972585493224]}},{"type":"Feature","properties":{"name":"磺溪","county":"臺北市","district":"士林區","quality":"酸性硫酸鹽泉","type":"hot_spring"},"geometry":{"type":"Point","coordinates":[121.57715212544039,25.17410847829668]}},{"type":"Feature","properties":{"name":"惠蓀","county":"南投縣","district":"仁愛鄉","quality":"鹼性碳酸氫鈉泉","type":"hot_spring"},"geometry":{"type":"Point","coordinates":[121.0733908738859,24.10215927858164]}},{"type":"Feature","properties":{"name":"後山","county":"臺北市","district":"北投區","quality":"中性硫酸鹽泉","type":"hot_spring"},"geometry":{"type":"Point","coordinates":[121.55317887863085,25.183968200036755]}},{"type":"Feature","properties":{"name":"雙重溪","county":"臺北市","district":"北投區","quality":"酸性硫酸鹽泉","type":"hot_spring"},"geometry":{"type":"Point","coordinates":[121.52935498041202,25.144305348479406]}},{"type":"Feature","properties":{"name":"復興","county":"高雄市","district":"桃源區","quality":"鹼性碳酸氫鈉-氯化物泉","type":"hot_spring"},"geometry":{"type":"Point","coordinates":[120.84279411606914,23.2142619354653]}},{"type":"Feature","properties":{"name":"東里一號","county":"花蓮縣","district":"富里鄉","quality":"中性氯化物泉","type":"hot_spring"},"geometry":{"type":"Point","coordinates":[121.33668309591393,23.235987131856973]}},{"type":"Feature","properties":{"name":"五區","county":"宜蘭縣","district":"南澳鄉","quality":"鹼性碳酸氫鈉泉","type":"hot_spring"},"geometry":{"type":"Point","coordinates":[121.75000640777485,24.51424849271043]}},{"type":"Feature","properties":{"name":"上里","county":"臺東縣","district":"延平鄉","quality":"鹼性碳酸氫鈉泉","type":"hot_spring"},"geometry":{"type":"Point","coordinates":[121.04110649478113,22.868234017463728]}},{"type":"Feature","properties":{"name":"湊合","county":"新北市","district":"三峽區","quality":"中性碳酸氫鹽泉","type":"hot_spring"},"geometry":{"type":"Point","coordinates":[121.3808519608939,24.87881672808803]}},{"type":"Feature","properties":{"name":"排骨溪","county":"宜蘭縣","district":"大同鄉","quality":"中性碳酸氫鈉泉","type":"hot_spring"},"geometry":{"type":"Point","coordinates":[121.50713805893861,24.603524414704598]}},{"type":"Feature","properties":{"name":"霧鹿","county":"臺東縣","district":"海端鄉","quality":"鹼性碳酸氫鈉泉","type":"hot_spring"},"geometry":{"type":"Point","coordinates":[121.04252735503692,23.173029187839106]}},{"type":"Feature","properties":{"name":"比魯","county":"臺東縣","district":"金峰鄉","quality":"鹼性碳酸氫鈉泉","type":"hot_spring"},"geometry":{"type":"Point","coordinates":[120.84607598937534,22.5844733069953]}},{"type":"Feature","properties":{"name":"大油坑","county":"臺北市","district":"士林區","quality":"酸性硫酸鹽泉","type":"hot_spring"},"geometry":{"type":"Point","coordinates":[121.57988118534176,25.172201957696565]}},{"type":"Feature","properties":{"name":"春陽","county":"南投縣","district":"仁愛鄉","quality":"中性碳酸氫鈉泉","type":"hot_spring"},"geometry":{"type":"Point","coordinates":[121.16543932424332,24.02364828071346]}},{"type":"Feature","properties":{"name":"都飛魯","county":"臺東縣","district":"金峰鄉","quality":"鹼性碳酸氫鈉泉","type":"hot_spring"},"geometry":{"type":"Point","coordinates":[120.84211647834108,22.525784624840995]}},{"type":"Feature","properties":{"name":"八煙","county":"新北市","district":"金山區","quality":"酸性硫酸鹽泉","type":"hot_spring"},"geometry":{"type":"Point","coordinates":[121.58872340009275,25.19349987226555]}},{"type":"Feature","properties":{"name":"金峰","county":"臺東縣","district":"金峰鄉","quality":"鹼性碳酸氫鈉泉","type":"hot_spring"},"geometry":{"type":"Point","coordinates":[120.93887153915783,22.594072359070772]}},{"type":"Feature","properties":{"name":"萬榮","county":"花蓮縣","district":"萬榮鄉","quality":"中性碳酸鹽氯化物泉","type":"hot_spring"},"geometry":{"type":"Point","coordinates":[121.3702938841361,23.725331468456435]}},{"type":"Feature","properties":{"name":"德基","county":"臺中市","district":"和平區","quality":"","type":"hot_spring"},"geometry":{"type":"Point","coordinates":[121.14617456587405,24.251497594924608]}},{"type":"Feature","properties":{"name":"竹子湖","county":"臺北市","district":"北投區","quality":"酸性硫酸鹽泉","type":"hot_spring"},"geometry":{"type":"Point","coordinates":[121.54527350118103,25.164343787130694]}},{"type":"Feature","properties":{"name":"頂北投","county":"臺北市","district":"北投區","quality":"中性碳酸氫鹽泉","type":"hot_spring"},"geometry":{"type":"Point","coordinates":[121.5312478141728,25.146239583190493]}},{"type":"Feature","properties":{"name":"烏來","county":"新北市","district":"烏來區","quality":"中性碳酸氫鈉泉","type":"hot_spring"},"geometry":{"type":"Point","coordinates":[121.55002381442155,24.863807971643254]}},{"type":"Feature","properties":{"name":"布蕭丸","county":"宜蘭縣","district":"南澳鄉","quality":"中性碳酸氫鈉泉","type":"hot_spring"},"geometry":{"type":"Point","coordinates":[121.62245014156068,24.421345634581407]}},{"type":"Feature","properties":{"name":"瑞岩","county":"南投縣","district":"仁愛鄉","quality":"中性碳酸氫鈉泉","type":"hot_spring"},"geometry":{"type":"Point","coordinates":[121.16986251418054,24.135184335621194]}},{"type":"Feature","properties":{"name":"丹大","county":"南投縣","district":"信義鄉","quality":"中性碳酸氫鈉泉","type":"hot_spring"},"geometry":{"type":"Point","coordinates":[121.1579212993092,23.70982859190963]}},{"type":"Feature","properties":{"name":"清泉","county":"新竹縣","district":"五峰鄉","quality":"中性碳酸氫鈉泉","type":"hot_spring"},"geometry":{"type":"Point","coordinates":[121.10522817465261,24.574772434642718]}},{"type":"Feature","properties":{"name":"桃林","county":"臺東縣","district":"延平鄉","quality":"中性碳酸氫鈉泉","type":"hot_spring"},"geometry":{"type":"Point","coordinates":[120.96054958698934,22.870492157706522]}},{"type":"Feature","properties":{"name":"天狗溪","county":"宜蘭縣","district":"大同鄉","quality":"鹼性碳酸氫鈉泉","type":"hot_spring"},"geometry":{"type":"Point","coordinates":[121.51108076208874,24.562782843511485]}},{"type":"Feature","properties":{"name":"龜山島","county":"宜蘭縣","district":"頭城鎮","quality":"","type":"hot_spring"},"geometry":{"type":"Point","coordinates":[121.96326105838993,24.836283369544976]}},{"type":"Feature","properties":{"name":"暇末","county":"臺東縣","district":"海端鄉","quality":"中性碳酸氫鈉泉","type":"hot_spring"},"geometry":{"type":"Point","coordinates":[121.09539635094497,23.1425730900933]}},{"type":"Feature","properties":{"name":"清水","county":"宜蘭縣","district":"大同鄉","quality":"中性碳酸氫鈉泉","type":"hot_spring"},"geometry":{"type":"Point","coordinates":[121.63374466587663,24.612921765357445]}},{"type":"Feature","properties":{"name":"鳩之澤(仁澤)","county":"宜蘭縣","district":"大同鄉","quality":"鹼性碳酸氫鹽泉","type":"hot_spring"},"geometry":{"type":"Point","coordinates":[121.508015231443,24.546785349119574]}},{"type":"Feature","properties":{"name":"多納","county":"高雄市","district":"茂林區","quality":"中性碳酸氫鈉泉","type":"hot_spring"},"geometry":{"type":"Point","coordinates":[120.72115582218306,22.91452158335605]}},{"type":"Feature","properties":{"name":"萬大北溪","county":"南投縣","district":"仁愛鄉","quality":"中性碳酸氫鈉泉","type":"hot_spring"},"geometry":{"type":"Point","coordinates":[121.22026859221552,23.94517567216019]}},{"type":"Feature","properties":{"name":"朝日","county":"臺東縣","district":"綠島鄉","quality":"中性氯化物泉","type":"hot_spring"},"geometry":{"type":"Point","coordinates":[121.50441446570335,22.63803107733022]}},{"type":"Feature","properties":{"name":"中山樓","county":"臺北市","district":"北投區","quality":"酸性硫酸鹽泉","type":"hot_spring"},"geometry":{"type":"Point","coordinates":[121.55234808247653,25.153718785093442]}},{"type":"Feature","properties":{"name":"碧侯","county":"宜蘭縣","district":"南澳鄉","quality":"鹼性碳酸氫鈉泉","type":"hot_spring"},"geometry":{"type":"Point","coordinates":[121.76815439781814,24.499801992544402]}},{"type":"Feature","properties":{"name":"馬槽","county":"臺北市","district":"北投區","quality":"中性硫酸鹽泉","type":"hot_spring"},"geometry":{"type":"Point","coordinates":[121.56141897541949,25.17647110420539]}},{"type":"Feature","properties":{"name":"陽明山","county":"臺北市","district":"北投區","quality":"酸性硫酸鹽泉","type":"hot_spring"},"geometry":{"type":"Point","coordinates":[121.54128698716318,25.16013334616669]}},{"type":"Feature","properties":{"name":"榮華","county":"桃園市","district":"復興區","quality":"中性碳酸氫鈉泉","type":"hot_spring"},"geometry":{"type":"Point","coordinates":[121.35316086963554,24.72198731603052]}},{"type":"Feature","properties":{"name":"四區","county":"宜蘭縣","district":"南澳鄉","quality":"中性碳酸氫鈉泉","type":"hot_spring"},"geometry":{"type":"Point","coordinates":[121.76238124668062,24.50616019975449]}},{"type":"Feature","properties":{"name":"紅葉(花蓮)","county":"花蓮縣","district":"萬榮鄉","quality":"中性碳酸氫鈉泉","type":"hot_spring"},"geometry":{"type":"Point","coordinates":[121.32526478951787,23.490753677393766]}}]}