{"type":"FeatureCollection","features":[{"type":"Feature","properties":{"zone_no":"P","name":"馬槽","area_m2":3528,"remark":null},"geometry":{"type":"Polygon","coordinates":[[[121.55864511769842,25.174785322500398],[121.55879376629974,25.17504372650073],[121.55926433511864,25.175128842609826],[121.55944407381521,25.174699744651637],[121.55936734894462,25.17446310659254],[121.55864511769842,25.174785322500398]]]}},{"type":"Feature","properties":{"zone_no":"O","name":"馬槽","area_m2":536,"remark":null},"geometry":{"type":"Polygon","coordinates":[[[121.56098867835391,25.174718551630292],[121.56104632828091,25.174964335941393],[121.56124065298567,25.174883891937192],[121.56120896334372,25.174690390905912],[121.56098867835391,25.174718551630292]]]}},{"type":"Feature","properties":{"zone_no":"N","name":"馬槽","area_m2":16119,"remark":null},"geometry":{"type":"Polygon","coordinates":[[[121.55994232520901,25.172929169650736],[121.56055683100396,25.173608196936545],[121.5612698293752,25.17336296058434],[121.56179597196888,25.172498665271082],[121.56171594383254,25.172044089512397],[121.55994232520901,25.172929169650736]]]}},{"type":"Feature","properties":{"zone_no":"M","name":"小油坑","area_m2":32111,"remark":null},"geometry":{"type":"Polygon","coordinates":[[[121.54527799865959,25.1756281112767],[121.54535195981663,25.17600314687913],[121.54687025196279,25.175769310123446],[121.5472648435138,25.176054550739906],[121.54812672298533,25.175897679286653],[121.54840637534174,25.174865828276072],[121.5479215600151,25.174386021230205],[121.54527799865959,25.1756281112767]]]}},{"type":"Feature","properties":{"zone_no":"K","name":"中山樓","area_m2":3518,"remark":"FY114擴大"},"geometry":{"type":"Polygon","coordinates":[[[121.55187572135739,25.153321746435168],[121.55219519231592,25.15364840476479],[121.55275810939018,25.154090198876926],[121.55313076368807,25.155007146004785],[121.55326104025676,25.15513023357474],[121.553347940327,25.15506626203727],[121.55320174778463,25.15486050210574],[121.55286109307049,25.15398912691717],[121.55237232489742,25.153630771705703],[121.55200090257684,25.15321249339101],[121.55187572135739,25.153321746435168]]]}},{"type":"Feature","properties":{"zone_no":"J","name":"中山樓","area_m2":1016,"remark":null},"geometry":{"type":"Polygon","coordinates":[[[121.55000120072214,25.153283598167285],[121.54996246302854,25.153351234818416],[121.54996249995989,25.153412579456482],[121.55006811331981,25.15352906278799],[121.55013984728978,25.153555645395056],[121.55030052194084,25.153479936089568],[121.55031470356795,25.153448430091423],[121.55031501850658,25.15341714263581],[121.55028859919376,25.153314038040772],[121.55026515047408,25.153247607389474],[121.55023842913232,25.153214483893077],[121.55017206004929,25.153198642691446],[121.5500752718793,25.15322311581261],[121.55000120072214,25.153283598167285]]]}},{"type":"Feature","properties":{"zone_no":"H","name":"陽明山","area_m2":722,"remark":null},"geometry":{"type":"Polygon","coordinates":[[[121.5413637384853,25.160446686786493],[121.54166310531407,25.1606905918628],[121.54183458509573,25.160587497476392],[121.54160145049401,25.16039745487291],[121.5413637384853,25.160446686786493]]]}},{"type":"Feature","properties":{"zone_no":"G","name":"磺溪嶺","area_m2":274,"remark":"FY114縮小"},"geometry":{"type":"Polygon","coordinates":[[[121.53124292979422,25.140493539750157],[121.5313385181643,25.140624048245964],[121.53150963088247,25.140474888387022],[121.53147912828598,25.14043020106556],[121.53124292979422,25.140493539750157]]]}},{"type":"Feature","properties":{"zone_no":"E","name":"磺溪嶺","area_m2":305,"remark":null},"geometry":{"type":"Polygon","coordinates":[[[121.53063145714,25.14251860833556],[121.53085751357116,25.142576796190315],[121.53086667942483,25.142423504695728],[121.53063516975314,25.14243447250354],[121.53063145714,25.14251860833556]]]}},{"type":"Feature","properties":{"zone_no":"B","name":"硫磺谷","area_m2":23021,"remark":null},"geometry":{"type":"Polygon","coordinates":[[[121.5233259668806,25.143134374100907],[121.52338433261093,25.14419211006145],[121.52425680410052,25.144537107176827],[121.5252184288725,25.143907024810133],[121.5250119498785,25.143319891803944],[121.52485828752937,25.143340640882187],[121.52455238162571,25.143256969832283],[121.52423835650829,25.143099767013602],[121.52406236070117,25.142911921893923],[121.5233259668806,25.143134374100907]]]}},{"type":"Feature","properties":{"zone_no":"A","name":"地熱谷","area_m2":2868,"remark":null},"geometry":{"type":"Polygon","coordinates":[[[121.51153987159873,25.137858556480992],[121.5115854360667,25.137999578767964],[121.51161036447895,25.138005577554],[121.51187498185337,25.13816792564769],[121.51204319434225,25.138376631109338],[121.51216259241833,25.138392838946693],[121.51218940035726,25.138440441106706],[121.51239938302903,25.138317783140455],[121.51182119053888,25.137726029196138],[121.51171275513816,25.13771528125509],[121.51153987159873,25.137858556480992]]]}},{"type":"Feature","properties":{"zone_no":"Q","name":"馬槽","area_m2":11433,"remark":null},"geometry":{"type":"Polygon","coordinates":[[[121.56089506020182,25.17613978096947],[121.56096478997193,25.176399167842508],[121.5612384966396,25.17658379774271],[121.56155250623128,25.176860187142864],[121.5613329240372,25.17738766203506],[121.56209780829657,25.177884235845784],[121.56240263882009,25.17781093591076],[121.56183903330492,25.17675716580351],[121.56138826580093,25.175989239712525],[121.56089506020182,25.17613978096947]]]}},{"type":"Feature","properties":{"zone_no":"F","name":"磺溪嶺","area_m2":2179,"remark":"FY114縮小"},"geometry":{"type":"Polygon","coordinates":[[[121.53040531172084,25.14146426619119],[121.53064119282355,25.14163211799477],[121.530704655114,25.140768844610772],[121.53051665851146,25.140676538932514],[121.53049267263638,25.14078799376621],[121.53048385086252,25.14087870220866],[121.53043270141538,25.141015812452643],[121.53042682627539,25.14134088526154],[121.53040531172084,25.14146426619119]]]}},{"type":"Feature","properties":{"zone_no":"C","name":"龍鳳谷","area_m2":19690,"remark":null},"geometry":{"type":"Polygon","coordinates":[[[121.52991435740633,25.144215605825636],[121.52953611742475,25.144064096955024],[121.52910253054735,25.14403582685867],[121.52870065507821,25.1438355048128],[121.52847188193482,25.14404734968566],[121.52812487889818,25.143652043015887],[121.52826082591862,25.143458161316065],[121.52821533667654,25.143394865978568],[121.52769445171893,25.143901538856685],[121.52731733745183,25.143482539797823],[121.52693060415798,25.14392967152267],[121.52692803029773,25.14403546221078],[121.52735886605235,25.144486996446393],[121.52772510798572,25.144378846286497],[121.52781402730491,25.144065737736067],[121.52804581328438,25.14426344559607],[121.52869439904585,25.14432419256874],[121.52891467873516,25.14447516624485],[121.52935257392733,25.144674140178825],[121.52959759854042,25.144707290781056],[121.52982090858012,25.144767169174347],[121.52994833227756,25.144598080146793],[121.53015543252043,25.144590595233822],[121.53004910842334,25.14426434417128],[121.53030644656964,25.14419321274311],[121.53027803402128,25.14403553281788],[121.52991435740633,25.144215605825636]]]}},{"type":"Feature","properties":{"zone_no":"S","name":"馬槽","area_m2":3024,"remark":null},"geometry":{"type":"Polygon","coordinates":[[[121.56014022775801,25.175112719743794],[121.56049147496519,25.175369930775947],[121.5608292202418,25.17572875588331],[121.56102082748477,25.175650362758315],[121.5607565249347,25.17518749326425],[121.56028669773856,25.174898104988632],[121.56014022775801,25.175112719743794]]]}},{"type":"Feature","properties":{"zone_no":"T","name":"七股","area_m2":1334,"remark":null},"geometry":{"type":"Polygon","coordinates":[[[121.56730366058636,25.1825729977025],[121.56749030925609,25.182622206166165],[121.56754925062835,25.182281448621318],[121.56733206802052,25.182065792965712],[121.56715882918748,25.182169916520465],[121.56729629997105,25.182354641591076],[121.56730366058636,25.1825729977025]]]}}]}