{"type":"FeatureCollection","features":[{"type":"Feature","geometry":{"type":"Point","coordinates":[121.6996733,25.1472512]},"properties":{"id":"1","region":"北部","city":"基隆市","name":"一太e衛浴觀光工廠","zipcode":"20446","address":"基隆市安樂區大武崙工業區武訓街51號","phone":"02-24342111#503","website":"http://www.itai.com.tw","geocode_source":"google","geocode_precision":"exact"}},{"type":"Feature","geometry":{"type":"Point","coordinates":[121.401140475,25.075704299999998]},"properties":{"id":"2","region":"北部","city":"新北市","name":"吳福洋襪子故事館","zipcode":"24452","address":"新北市林口區工二工業區工九路3號","phone":"02-26035008","website":"http://www.wufuyang.com","geocode_source":"offline_l15","geocode_precision":"interpolated"}},{"type":"Feature","geometry":{"type":"Point","coordinates":[121.4182003,24.962503]},"properties":{"id":"3","region":"北部","city":"新北市","name":"聖瑪莉丹麥麵包莊園","zipcode":"23680","address":"新北市土城區中山路21號","phone":"02-22689600","website":"http://www.sunmerry.com.tw/garden/","geocode_source":"offline_l2","geocode_precision":"exact"}},{"type":"Feature","geometry":{"type":"Point","coordinates":[121.4667366,24.9779911]},"properties":{"id":"4","region":"北部","city":"新北市","name":"手信坊創意和?子文化館","zipcode":"23650","address":"新北市土城區國際路55號","phone":"02-82620506","website":"http://www.3ssf.com.tw/factory/index.html","geocode_source":"offline_l2","geocode_precision":"exact"}},{"type":"Feature","geometry":{"type":"Point","coordinates":[121.3982429,25.0799726]},"properties":{"id":"5","region":"北部","city":"新北市","name":"王子創意文具國","zipcode":"24452","address":"新北市林口區粉寮路一段86號","phone":"02-25783927\r\n02-26033288","website":"http://www.princecst.com.tw","geocode_source":"offline_l2","geocode_precision":"exact"}},{"type":"Feature","geometry":{"type":"Point","coordinates":[121.4237057,24.9558272]},"properties":{"id":"6","region":"北部","city":"新北市","name":"王鼎時間科藝體驗館","zipcode":"23676","address":"新北市土城區大暖路136號","phone":"02-22682999","website":"https://www.atopwatch.com/pages/factory","geocode_source":"offline_l2","geocode_precision":"exact"}},{"type":"Feature","geometry":{"type":"Point","coordinates":[121.4228216,25.1621619]},"properties":{"id":"7","region":"北部","city":"新北市","name":"卡滋爆米花觀光工廠樂園","zipcode":"249005","address":"新北市八里區觀海大道171號","phone":"02-86303886","website":"http://www.popsmile.com.tw","geocode_source":"offline_l2","geocode_precision":"exact"}},{"type":"Feature","geometry":{"type":"Point","coordinates":[121.4561144338857,24.997339474433435]},"properties":{"id":"8","region":"北部","city":"新北市","name":"玉美人孕婦裝觀光工廠","zipcode":"220620","address":"新北市板橋區四川路2段16巷10號5樓","phone":"02-89669762\r\n#13、#20","website":"http://www.ymr.com.tw","geocode_source":"offline_l1","geocode_precision":"cached"}},{"type":"Feature","geometry":{"type":"Point","coordinates":[121.65109418798194,25.071759013780127]},"properties":{"id":"9","region":"北部","city":"新北市","name":"香帥蛋糕芋製所","zipcode":"221031","address":"新北市汐止區汐萬路一段211巷26號","phone":"02-26486558 ","website":"https://www.scake.com.tw/information/9","geocode_source":"offline_l1","geocode_precision":"cached"}},{"type":"Feature","geometry":{"type":"Point","coordinates":[121.46935469321501,25.05018170333958]},"properties":{"id":"10","region":"北部","city":"新北市","name":"啤酒頭釀造觀光酒廠","zipcode":"241019","address":"新北市三重區中興北街50號","phone":"02-85110085","website":"http://headbrewers.com.tw/","geocode_source":"offline_l1","geocode_precision":"cached"}},{"type":"Feature","geometry":{"type":"Point","coordinates":[121.3477337,24.9509314]},"properties":{"id":"11","region":"北部","city":"新北市","name":"許新旺陶瓷紀念博物館","zipcode":"23942","address":"新北市鶯歌區尖山埔路81號","phone":"02-26789571\r\n#220、219、225","website":"http://www.shus.com.tw","geocode_source":"offline_l2","geocode_precision":"exact"}},{"type":"Feature","geometry":{"type":"Point","coordinates":[121.54974275728128,24.974679595360854]},"properties":{"id":"12","region":"北部","city":"新北市","name":"連淨綠色科技概念館","zipcode":"23145","address":"新北市新店區寶興路45巷9弄2號","phone":"0800-585598","website":"http://www.aconpure.com/en/index.php/tourism-factory2","geocode_source":"offline_l1","geocode_precision":"cached"}},{"type":"Feature","geometry":{"type":"Point","coordinates":[121.4352183,25.0691027]},"properties":{"id":"13","region":"北部","city":"新北市","name":"維格餅家 鳳梨酥夢工場","zipcode":"24869","address":"新北市五股區成泰路一段87號","phone":"02-22919131","website":"http://www.taiwan-vigor.com.tw","geocode_source":"offline_l2","geocode_precision":"exact"}},{"type":"Feature","geometry":{"type":"Point","coordinates":[121.45341038339414,25.068459550051294]},"properties":{"id":"14","region":"北部","city":"新北市","name":"豐得好食觀光工廠","zipcode":"248016","address":"新北市五股區五權路48號1樓","phone":"02-22980002","website":"http://www.fengde.com.tw/index_tw.php","geocode_source":"offline_l1","geocode_precision":"cached"}},{"type":"Feature","geometry":{"type":"Point","coordinates":[121.1669066,24.9282265]},"properties":{"id":"15","region":"北部","city":"桃園市","name":"郭元益糕餅博物館","zipcode":"32661","address":"桃園市楊梅區幼獅工業區青年路9巷3號","phone":"03-4962201#1","website":"http://www.kuos.com/museum/","geocode_source":"google","geocode_precision":"exact"}},{"type":"Feature","geometry":{"type":"Point","coordinates":[121.2425007,24.8799787]},"properties":{"id":"16","region":"北部","city":"桃園市","name":"手信霧隱城","zipcode":"325011","address":"桃園市龍潭區民豐一街99號","phone":"03-4700598","website":"https://www.3ssf.com.tw/","geocode_source":"offline_l2","geocode_precision":"exact"}},{"type":"Feature","geometry":{"type":"Point","coordinates":[121.2904106,24.9419524]},"properties":{"id":"17","region":"北部","city":"桃園市","name":"宏亞食品-巧克力共和國(休館改裝)","zipcode":"33451","address":"桃園市八德區瑞興里4鄰巧克力街177號","phone":"03-3656555#777","website":"http://www.republicofchocolate.com.tw/index.aspx","geocode_source":"offline_l2","geocode_precision":"exact"}},{"type":"Feature","geometry":{"type":"Point","coordinates":[121.19557815547181,24.841591928980247]},"properties":{"id":"18","region":"北部","city":"桃園市","name":"雄獅文具想像力製造所","zipcode":"325021","address":"桃園市龍潭區中原路二段188號","phone":"03-4116888","website":"http://www.simbalionartstudio.com/","geocode_source":"offline_l1","geocode_precision":"cached"}},{"type":"Feature","geometry":{"type":"Point","coordinates":[121.0323363,24.9862199]},"properties":{"id":"19","region":"北部","city":"桃園市","name":"太平洋自行車博物館","zipcode":"32744","address":"桃園市新屋區永安里永福路686號","phone":"03-4861231\r\n#312、218","website":"http://www.pacificcyclesmuseum.com/","geocode_source":"offline_l2","geocode_precision":"exact"}},{"type":"Feature","geometry":{"type":"Point","coordinates":[121.323903,24.9754496]},"properties":{"id":"20","region":"北部","city":"桃園市","name":"祥儀機器人夢工廠","zipcode":"33068","address":"桃園市桃園區桃鶯路461號","phone":"03-3621252#9","website":"http://robot.shayangye.com/","geocode_source":"offline_l2","geocode_precision":"exact"}},{"type":"Feature","geometry":{"type":"Point","coordinates":[121.19746741650567,24.9017626177507]},"properties":{"id":"21","region":"北部","city":"桃園市","name":"CAFE!N 觀光工廠","zipcode":"32459","address":"桃園市平鎮區工業五路8號","phone":"03-4697387","website":"http://www.yeuanyeou.com/page57.html","geocode_source":"offline_l15","geocode_precision":"interpolated"}},{"type":"Feature","geometry":{"type":"Point","coordinates":[121.1172249018369,25.04794997902748]},"properties":{"id":"22","region":"北部","city":"桃園市","name":"GFun機能服飾紡織生活館","zipcode":"32849","address":"桃園市觀音區樹林里工業六路3號","phone":"0800-038038","website":"http://www.gfun.com.tw/","geocode_source":"offline_l1","geocode_precision":"cached"}},{"type":"Feature","geometry":{"type":"Point","coordinates":[121.3283804,24.8306473]},"properties":{"id":"23","region":"北部","city":"桃園市","name":"大溪老茶廠","zipcode":"33558","address":"桃園市大溪區復興路二段732巷80號","phone":"03-3825089","website":"http://www.daxitea.com","geocode_source":"offline_l2","geocode_precision":"exact"}},{"type":"Feature","geometry":{"type":"Point","coordinates":[121.185253,25.0067853]},"properties":{"id":"24","region":"北部","city":"桃園市","name":"江記豆腐乳文化館","zipcode":"32053","address":"桃園市中壢區月眉路2段248巷85號","phone":"03-4986018#113","website":"http://www.xpl.com.tw","geocode_source":"offline_l2","geocode_precision":"exact"}},{"type":"Feature","geometry":{"type":"Point","coordinates":[121.146705,24.9537446]},"properties":{"id":"25","region":"北部","city":"桃園市","name":"老K舒眠文化館","zipcode":"32741","address":"桃園市新屋區梅高路３段97號","phone":"03-4205050","website":"http://www.kingbedhaha.com.tw","geocode_source":"offline_l1","geocode_precision":"cached"}},{"type":"Feature","geometry":{"type":"Point","coordinates":[121.1342476,24.9117668]},"properties":{"id":"26","region":"北部","city":"桃園市","name":"自然接觸保養品亮點體驗園","zipcode":"32662","address":"桃園市楊梅區楊湖路一段351號","phone":"03-4789999","website":"http://www.ntnt.com.tw","geocode_source":"offline_l2","geocode_precision":"exact"}},{"type":"Feature","geometry":{"type":"Point","coordinates":[121.32004770719544,24.981647393419674]},"properties":{"id":"27","region":"北部","city":"桃園市","name":"利百代彩筆文創館","zipcode":"330427","address":"桃園市桃園區大樹里大誠路2號","phone":"03-3613020","website":"http://www.libertycc.com.tw/","geocode_source":"offline_l1","geocode_precision":"cached"}},{"type":"Feature","geometry":{"type":"Point","coordinates":[121.2950367,24.8852627]},"properties":{"id":"28","region":"北部","city":"桃園市","name":"東和音樂體驗館","zipcode":"33554","address":"桃園市大溪區信義路226號","phone":"03-3882215#210","website":"http://www.music4fun.com.tw","geocode_source":"offline_l2","geocode_precision":"exact"}},{"type":"Feature","geometry":{"type":"Point","coordinates":[121.2532922,25.0318536]},"properties":{"id":"29","region":"北部","city":"桃園市","name":"金格｜卡司．蒂菈樂園","zipcode":"33853","address":"桃園市蘆竹區宏竹村大竹北路90-66號","phone":"03-2551999","website":"http://www.castella-land.com.tw/","geocode_source":"google","geocode_precision":"exact"}},{"type":"Feature","geometry":{"type":"Point","coordinates":[121.32461153296703,24.983027147687217]},"properties":{"id":"30","region":"北部","city":"桃園市","name":"南僑桃園觀光體驗工廠","zipcode":"333613","address":"桃園市龜山區興邦路35號","phone":"03-2630264","website":"http://www.namchow.com.tw","geocode_source":"offline_l1","geocode_precision":"cached"}},{"type":"Feature","geometry":{"type":"Point","coordinates":[121.1873845,25.0679727]},"properties":{"id":"31","region":"北部","city":"桃園市","name":"國巨洋傘文創園區","zipcode":"337012","address":"桃園市大園區國際路一段105巷18號","phone":"03-3853987#8","website":"https://www.yamaiji-umbrella.com/","geocode_source":"offline_l2","geocode_precision":"exact"}},{"type":"Feature","geometry":{"type":"Point","coordinates":[121.15711040462163,24.963720142066173]},"properties":{"id":"32","region":"北部","city":"桃園市","name":"勝昌中草藥探索館","zipcode":"320010","address":"桃園市中壢區民族路六段 436號","phone":"0800-588995","website":"https://www.scherb.com.tw","geocode_source":"offline_l1","geocode_precision":"cached"}},{"type":"Feature","geometry":{"type":"Point","coordinates":[121.15007013995488,24.907105355260466]},"properties":{"id":"33","region":"北部","city":"桃園市","name":"雅聞魅力博覽館","zipcode":"32665","address":"桃園市楊梅區中山北路1段21巷1號","phone":"03-4883800\r\n0910-605668","website":"http://www.arwin.com.tw","geocode_source":"offline_l1","geocode_precision":"cached"}},{"type":"Feature","geometry":{"type":"Point","coordinates":[121.27893441774197,25.060315316362235]},"properties":{"id":"34","region":"北部","city":"桃園市","name":"義美生產‧生態‧生活廠區","zipcode":"33855","address":"桃園市蘆竹區南工路一段11號","phone":"03-3117525","website":"http://www.imeifoods.com.tw","geocode_source":"offline_l1","geocode_precision":"cached"}},{"type":"Feature","geometry":{"type":"Point","coordinates":[121.2250507,24.934095]},"properties":{"id":"35","region":"北部","city":"桃園市","name":"葡萄王健康活力能量館","zipcode":"32471","address":"桃園市平鎮區金陵路二段402號","phone":"03-2712121","website":"http://www.grapeking.com.tw","geocode_source":"offline_l2","geocode_precision":"exact"}},{"type":"Feature","geometry":{"type":"Point","coordinates":[121.3747865629339,25.057052724445953]},"properties":{"id":"36","region":"北部","city":"桃園市","name":"臺灣菸酒(股)公司桃園觀光酒廠","zipcode":"33382","address":"桃園市龜山區文化一路55號 ","phone":"03-3283001\r\n#340、380、407","website":"https://event.ttl.com.tw/lk/","geocode_source":"offline_l1","geocode_precision":"cached"}},{"type":"Feature","geometry":{"type":"Point","coordinates":[121.01864443580747,24.838621026610596]},"properties":{"id":"37","region":"北部","city":"新竹縣","name":"吉比鮮釀識酒館","zipcode":"302081","address":"新竹縣竹北市惟馨街79號","phone":"03-5533288\r\n#143、134","website":"https://gordonbiersch.com.tw","geocode_source":"offline_l1","geocode_precision":"cached"}},{"type":"Feature","geometry":{"type":"Point","coordinates":[120.9323079,24.7940919]},"properties":{"id":"38","region":"北部","city":"新竹市","name":"春池綠能玻璃觀光工廠","zipcode":"300075","address":"工廠：新竹市香山區牛埔南路372號","phone":"03-5389165\r\n0978-001320","website":"http://springpoolglass.com/factory/","geocode_source":"google","geocode_precision":"exact"}},{"type":"Feature","geometry":{"type":"Point","coordinates":[121.01848858258315,24.869754316184988]},"properties":{"id":"39","region":"北部","city":"新竹縣","name":"濟生Beauty兩岸觀光生醫美學健康館","zipcode":"30352","address":"新竹縣湖口鄉勝利村實踐路3號","phone":"0800-213568","website":"https://www.csbeauty.com.tw/","geocode_source":"offline_l1","geocode_precision":"cached"}},{"type":"Feature","geometry":{"type":"Point","coordinates":[120.8858053,24.6737761]},"properties":{"id":"40","region":"中部","city":"苗栗縣","name":"立康健康養生觀光工廠","zipcode":"35145","address":"苗栗縣頭份市蘆竹里工業路55號","phone":"037-629888","website":"http://www.likang.com.tw","geocode_source":"offline_l2","geocode_precision":"exact"}},{"type":"Feature","geometry":{"type":"Point","coordinates":[120.8699908,24.6735375]},"properties":{"id":"41","region":"中部","city":"苗栗縣","name":"四方鮮乳酪故事館","zipcode":"35047","address":"苗栗縣竹南鎮大厝里9鄰59之13號","phone":"037-472609","website":"http://www.fourways.com.tw","geocode_source":"google","geocode_precision":"approximate"}},{"type":"Feature","geometry":{"type":"Point","coordinates":[120.87678873063413,24.711989997784546]},"properties":{"id":"42","region":"中部","city":"苗栗縣","name":"竹南啤酒觀光工廠","zipcode":"35048","address":"苗栗縣竹南鎮崎頂里15鄰和興路345號","phone":"037-583001#700","website":"https://event.ttl.com.tw/jn/","geocode_source":"offline_l1","geocode_precision":"cached"}},{"type":"Feature","geometry":{"type":"Point","coordinates":[120.8516188,24.6238087]},"properties":{"id":"43","region":"中部","city":"苗栗縣","name":"冠軍綠概念館","zipcode":"36141","address":"苗栗縣造橋鄉豐湖村一鄰乳姑山2號","phone":"037-583775","website":"http://www.champion.com.tw","geocode_source":"offline_l2","geocode_precision":"exact"}},{"type":"Feature","geometry":{"type":"Point","coordinates":[120.88433558660476,24.598763246659455]},"properties":{"id":"44","region":"中部","city":"苗栗縣","name":"雅聞七里香玫瑰森林","zipcode":"36243","address":"苗栗縣頭屋鄉明德村明德路226號","phone":"037-256588","website":"http://www.arwin.com.tw","geocode_source":"offline_l15","geocode_precision":"interpolated"}},{"type":"Feature","geometry":{"type":"Point","coordinates":[120.74596264355665,24.37966954286642]},"properties":{"id":"45","region":"中部","city":"苗栗縣","name":"裕隆、真、造車工廠","zipcode":"36744","address":"苗栗縣三義鄉西湖村伯公坑39之1號","phone":"037871801＃2888","website":"http://tour.yulon-motor.com.tw","geocode_source":"offline_l1","geocode_precision":"cached"}},{"type":"Feature","geometry":{"type":"Point","coordinates":[120.7148767,24.5537351]},"properties":{"id":"46","region":"中部","city":"苗栗縣","name":"臺鹽通霄觀光園區","zipcode":"35743","address":"苗栗縣通霄鎮內島里122號","phone":"037-792121#825","website":"http://tesf.tybio.com.tw/","geocode_source":"google","geocode_precision":"approximate"}},{"type":"Feature","geometry":{"type":"Point","coordinates":[120.7056002,24.2202075]},"properties":{"id":"47","region":"中部","city":"台中市","name":"寶熊漁樂碼頭","zipcode":"427018","address":"台中市潭子區中山路三段11號","phone":"04-35013338","website":"http://www.okumamuseum.com.tw","geocode_source":"offline_l2","geocode_precision":"exact"}},{"type":"Feature","geometry":{"type":"Point","coordinates":[120.7010035,24.2342439]},"properties":{"id":"48","region":"中部","city":"台中市","name":"台灣味噌釀造文化館","zipcode":"42057","address":"台中市豐原區三村里西勢路701號","phone":"04-25320279","website":"http://www.weijung.com","geocode_source":"offline_l2","geocode_precision":"exact"}},{"type":"Feature","geometry":{"type":"Point","coordinates":[120.6498611,24.2119668]},"properties":{"id":"49","region":"中部","city":"台中市","name":"伊莎貝爾烘焙觀光工廠","zipcode":"428412","address":"台中市大雅區中清路三段735號","phone":"04-25687890#188","website":"https://www.isabellexperience.com.tw/","geocode_source":"offline_l2","geocode_precision":"exact"}},{"type":"Feature","geometry":{"type":"Point","coordinates":[120.7150744,24.1007475]},"properties":{"id":"50","region":"中部","city":"台中市","name":"丸文觀光工廠","zipcode":"412038","address":"台中市大里區仁化里工業11路156號","phone":"04-24953600","website":"https://www.wan-wen.com.tw/","geocode_source":"offline_l2","geocode_precision":"exact"}},{"type":"Feature","geometry":{"type":"Point","coordinates":[120.60219334067679,24.346396957232443]},"properties":{"id":"51","region":"中部","city":"台中市","name":"阿聰師芋頭文化館","zipcode":"43952","address":"台中市大安區福興里興安路168號","phone":"04-26713077","website":"http://www.o-nongs.com.tw","geocode_source":"offline_l1","geocode_precision":"cached"}},{"type":"Feature","geometry":{"type":"Point","coordinates":[120.62469327642692,24.111176916012635]},"properties":{"id":"52","region":"中部","city":"台中市","name":"烏日啤酒觀光工廠","zipcode":"41449","address":"台中市烏日區光華街1號","phone":"04-23381216","website":"https://event.ttl.com.tw/wz","geocode_source":"offline_l1","geocode_precision":"cached"}},{"type":"Feature","geometry":{"type":"Point","coordinates":[120.6945337,24.3123786]},"properties":{"id":"53","region":"中部","city":"台中市","name":"張連昌薩克斯風博物館","zipcode":"421011","address":"台中市后里區公安路330之1號","phone":"04-25562363\r\n04-25578989","website":"http://www.sax.org.tw","geocode_source":"offline_l2","geocode_precision":"exact"}},{"type":"Feature","geometry":{"type":"Point","coordinates":[120.65117872081517,24.405269875952303]},"properties":{"id":"54","region":"中部","city":"台中市","name":"微笑秘密口腔保健館","zipcode":"43769","address":"台中市大甲區日南里幼獅路32號","phone":"04-26814585#3105","website":"http://www.chinteng.tw","geocode_source":"offline_l1","geocode_precision":"cached"}},{"type":"Feature","geometry":{"type":"Point","coordinates":[120.60458470757662,24.171705173716067]},"properties":{"id":"55","region":"中部","city":"台中市","name":"鞋寶觀光工廠","zipcode":"407263","address":"台中市西屯區工業區8路11號","phone":"04-23505773","website":"http://shoeswonderland.bestmotion.com","geocode_source":"offline_l1","geocode_precision":"cached"}},{"type":"Feature","geometry":{"type":"Point","coordinates":[120.621517,24.1610752]},"properties":{"id":"56","region":"中部","city":"台中市","name":"臺灣菸酒(股)公司臺中觀光酒廠","zipcode":"40768","address":"台中市西屯區協和里工業28路2號","phone":"04-23501318\r\n#448、888","website":"http://event.ttl-eshop.com.tw/tc","geocode_source":"google","geocode_precision":"exact"}},{"type":"Feature","geometry":{"type":"Point","coordinates":[120.56144428094464,24.087821582994543]},"properties":{"id":"57","region":"中部","city":"彰化縣","name":"台塑生醫健康悠活館","zipcode":"50081","address":"彰化縣彰化市中山路三段359號","phone":"04-7236101","website":"http://www.fbyoho.com.tw","geocode_source":"offline_l1","geocode_precision":"cached"}},{"type":"Feature","geometry":{"type":"Point","coordinates":[120.4587825,23.8702547]},"properties":{"id":"58","region":"中部","city":"彰化縣","name":"台灣穀堡稻米觀光工廠","zipcode":"52342","address":"彰化縣埤頭鄉彰水路二段526號","phone":"04-8926088","website":"http://www.ricecastle.com.tw","geocode_source":"offline_l2","geocode_precision":"exact"}},{"type":"Feature","geometry":{"type":"Point","coordinates":[120.4663127,24.1259244]},"properties":{"id":"59","region":"中部","city":"彰化縣","name":"台灣優格餅乾學院","zipcode":"507004","address":"彰化縣線西鄉草豐路501巷5號","phone":"04-7589501\r\n0966-187501","website":"http://www.cookieschool.com.tw/","geocode_source":"google","geocode_precision":"exact"}},{"type":"Feature","geometry":{"type":"Point","coordinates":[120.5694413,23.8467472]},"properties":{"id":"60","region":"中部","city":"彰化縣","name":"華新MASK創意生活館","zipcode":"52046","address":"彰化縣田中鎮中州路2段751號","phone":"04-8761226","website":"http://www.motexmask.com","geocode_source":"offline_l2","geocode_precision":"exact"}},{"type":"Feature","geometry":{"type":"Point","coordinates":[120.3949646,24.0763668]},"properties":{"id":"61","region":"中部","city":"彰化縣","name":"緞帶王觀光工廠","zipcode":"505029","address":"彰化縣鹿港鎮鹿工路15號","phone":"04-7813366","website":"http://www.ribbon888.com","geocode_source":"offline_l2","geocode_precision":"exact"}},{"type":"Feature","geometry":{"type":"Point","coordinates":[120.5035913,24.0034123]},"properties":{"id":"62","region":"中部","city":"彰化縣","name":"水銡利廚衛生活村","zipcode":"504006","address":"彰化縣秀水鄉下崙村育民巷2號","phone":"0800-888160#34","website":"http://mizuworld.com.tw/","geocode_source":"google","geocode_precision":"exact"}},{"type":"Feature","geometry":{"type":"Point","coordinates":[120.603206,23.9025507]},"properties":{"id":"63","region":"中部","city":"彰化縣","name":"台灣手套博物館","zipcode":"511006","address":"彰化縣社頭鄉織襪一路8號","phone":"04-8736168","website":"https://www.good-hand.com.tw/","geocode_source":"google","geocode_precision":"exact"}},{"type":"Feature","geometry":{"type":"Point","coordinates":[120.3955924,24.0688429]},"properties":{"id":"64","region":"中部","city":"彰化縣","name":"台灣玻璃館","zipcode":"505004","address":"彰化縣鹿港鎮鹿工南四路30號","phone":"04-7811299\r\n#266、#229","website":"http://www.timingjump.com.tw","geocode_source":"offline_l2","geocode_precision":"exact"}},{"type":"Feature","geometry":{"type":"Point","coordinates":[120.4004395,24.0777653]},"properties":{"id":"65","region":"中部","city":"彰化縣","name":"白蘭氏健康博物館","zipcode":"50544","address":"彰化縣鹿港鎮彰濱工業區鹿工路18號","phone":"04-7810077","website":"http://www.brands.com.tw/museum/index.html","geocode_source":"google","geocode_precision":"exact"}},{"type":"Feature","geometry":{"type":"Point","coordinates":[120.4115617,24.081378]},"properties":{"id":"66","region":"中部","city":"彰化縣","name":"卷木森活館","zipcode":"50544","address":"彰化縣鹿港鎮工業東三路6號","phone":"04-7812018","website":"http://jw-garden.com.tw","geocode_source":"offline_l2","geocode_precision":"exact"}},{"type":"Feature","geometry":{"type":"Point","coordinates":[120.5090713,23.890798]},"properties":{"id":"67","region":"中部","city":"彰化縣","name":"愛玩色創意館","zipcode":"52143","address":"彰化縣北斗鎮三號路296號","phone":"04-8886016","website":"http://colortaiwan.com.tw","geocode_source":"offline_l2","geocode_precision":"exact"}},{"type":"Feature","geometry":{"type":"Point","coordinates":[120.6021765,23.9031022]},"properties":{"id":"68","region":"中部","city":"彰化縣","name":"樂活襪之鄉博物館","zipcode":"511006","address":"彰化縣社頭鄉社石路559號","phone":"04-8720522","website":"http://www.loho.com.tw","geocode_source":"google","geocode_precision":"exact"}},{"type":"Feature","geometry":{"type":"Point","coordinates":[120.472178,24.127224]},"properties":{"id":"69","region":"中部","city":"彰化縣","name":"興麥蛋捲烘焙王國","zipcode":"507003","address":"彰化縣線西鄉和線路741巷5號","phone":"04-7588389","website":"http://www.ximai.com.tw","geocode_source":"offline_l2","geocode_precision":"exact"}},{"type":"Feature","geometry":{"type":"Point","coordinates":[120.5197204,23.8817799]},"properties":{"id":"70","region":"中部","city":"彰化縣","name":"織夢樂園","zipcode":"521055","address":"彰化縣北斗鎮復興路568號","phone":"04-8884540","website":"https://dreamweaving.com.tw/","geocode_source":"offline_l2","geocode_precision":"exact"}},{"type":"Feature","geometry":{"type":"Point","coordinates":[120.587753,23.8746031]},"properties":{"id":"71","region":"中部","city":"彰化縣","name":"襪仔王觀光工廠","zipcode":"52047","address":"彰化縣田中鎮頂潭里員集路3段440巷16弄1號","phone":"04-8749909#9","website":"http://www.soxlink.com.tw/soxking/","geocode_source":"offline_l2","geocode_precision":"exact"}},{"type":"Feature","geometry":{"type":"Point","coordinates":[120.9297947,23.9438814]},"properties":{"id":"72","region":"中部","city":"南投縣","name":"Cona's妮娜巧克力夢想城堡","zipcode":"545023","address":"南投縣埔里鎮桃米路32號","phone":"049-2919528","website":"http://www.conas.com.tw","geocode_source":"offline_l2","geocode_precision":"exact"}},{"type":"Feature","geometry":{"type":"Point","coordinates":[120.82051421329699,23.829568908871014]},"properties":{"id":"73","region":"中部","city":"南投縣","name":"Jijibanana集元果觀光工廠","zipcode":"55242","address":"南投縣集集鎮富山里5鄰大坪巷38號","phone":"049-2764562","website":"http://www.jijibanana.net","geocode_source":"offline_l1","geocode_precision":"cached"}},{"type":"Feature","geometry":{"type":"Point","coordinates":[120.8786026,23.793493]},"properties":{"id":"74","region":"中部","city":"南投縣","name":"水里蛇窯陶藝文化園區","zipcode":"55346","address":"南投縣水里鄉頂崁村水信路一段512巷21號","phone":"049-2770967","website":"http://www.snakekiln.com.tw","geocode_source":"google","geocode_precision":"approximate"}},{"type":"Feature","geometry":{"type":"Point","coordinates":[120.66932179686556,23.921109532426172]},"properties":{"id":"75","region":"中部","city":"南投縣","name":"台灣麻糬主題?","zipcode":"540405","address":"南投縣南投市自強三路3號","phone":"049-2261123","website":"http://www.taiwanmochi.com.tw/","geocode_source":"offline_l15","geocode_precision":"interpolated"}},{"type":"Feature","geometry":{"type":"Point","coordinates":[120.70262510145714,23.767707728932113]},"properties":{"id":"76","region":"中部","city":"南投縣","name":"光遠燈籠觀光工廠","zipcode":"55774","address":"南投縣竹山鎮延平二路11號","phone":"049-2642394","website":"http://www.ever-shine.com.tw","geocode_source":"offline_l1","geocode_precision":"cached"}},{"type":"Feature","geometry":{"type":"Point","coordinates":[120.95433114873748,23.941759299238193]},"properties":{"id":"77","region":"中部","city":"南投縣","name":"果寶歡酵觀光工廠","zipcode":"545009","address":"南投縣埔里鎮珠格里下湳巷15號","phone":"049-2991207","website":"http://www.twfruit.com.tw","geocode_source":"offline_l1","geocode_precision":"cached"}},{"type":"Feature","geometry":{"type":"Point","coordinates":[120.7043709472825,23.768842181316586]},"properties":{"id":"78","region":"中部","city":"南投縣","name":"采棉居寢飾文化?","zipcode":"55774","address":"南投縣竹山鎮延平一路12號","phone":"049-2642166","website":"http://www.cheauwei.com.tw","geocode_source":"offline_l15","geocode_precision":"interpolated"}},{"type":"Feature","geometry":{"type":"Point","coordinates":[120.675266,23.924005]},"properties":{"id":"79","region":"中部","city":"南投縣","name":"香里活力豬品牌文化館","zipcode":"54065","address":"南投縣南投市南崗工業區仁和路3號","phone":"049-2259999\r\n#204、205","website":"http://www.shanglee.com.tw","geocode_source":"google","geocode_precision":"exact"}},{"type":"Feature","geometry":{"type":"Point","coordinates":[120.70341412640686,23.767790694463216]},"properties":{"id":"80","region":"中部","city":"南投縣","name":"遊山茶訪","zipcode":"55774","address":"南投縣竹山鎮延平路19號","phone":"049-2643919#28","website":"http://www.yoshantea.com","geocode_source":"offline_l15","geocode_precision":"interpolated"}},{"type":"Feature","geometry":{"type":"Point","coordinates":[120.9386423,23.9755914]},"properties":{"id":"81","region":"中部","city":"南投縣","name":"廣興紙寮","zipcode":"545006","address":"南投縣埔里鎮鐵山里鐵山路310號","phone":"049-2913037","website":"http://www.taiwanpaper.com.tw","geocode_source":"offline_l2","geocode_precision":"exact"}},{"type":"Feature","geometry":{"type":"Point","coordinates":[120.65725869613973,23.91691310511837]},"properties":{"id":"82","region":"中部","city":"南投縣","name":"樹德半山夢工廠","zipcode":"540028","address":"南投縣南投市工業南六路6號","phone":"049-2009666","website":"https://www.babbuza.com/","geocode_source":"offline_l1","geocode_precision":"cached"}},{"type":"Feature","geometry":{"type":"Point","coordinates":[120.7060065,23.9189005]},"properties":{"id":"83","region":"中部","city":"南投縣","name":"臺灣菸酒(股)公司南投觀光酒廠","zipcode":"54052","address":"南投市軍功里東山路82號","phone":"049-2234171\r\n#555、556","website":"https://event.ttl.com.tw/lt","geocode_source":"google","geocode_precision":"exact"}},{"type":"Feature","geometry":{"type":"Point","coordinates":[120.9618274755737,23.967509157868953]},"properties":{"id":"84","region":"中部","city":"南投縣","name":"臺灣菸酒(股)公司埔里觀光酒廠","zipcode":"54551","address":"南投縣埔里鎮中山路三段178號","phone":"049-2984006#456","website":"http://event.ttl-eshop.com.tw/pl/","geocode_source":"offline_l15","geocode_precision":"interpolated"}},{"type":"Feature","geometry":{"type":"Point","coordinates":[120.4668353,23.6384245]},"properties":{"id":"85","region":"中部","city":"雲林縣","name":"良作工場農業文創館","zipcode":"63147","address":"雲林縣大埤鄉豐田路57號","phone":"05-5529586","website":"http://www.nextland.com.tw","geocode_source":"google","geocode_precision":"exact"}},{"type":"Feature","geometry":{"type":"Point","coordinates":[120.5975648,23.7225114]},"properties":{"id":"86","region":"中部","city":"雲林縣","name":"塔吉特千層蛋糕大使館","zipcode":"640153","address":"雲林縣斗六市榴中里工業路118號","phone":"05-5574516","website":"http://www.jelly.com.tw/embssy.php","geocode_source":"offline_l2","geocode_precision":"exact"}},{"type":"Feature","geometry":{"type":"Point","coordinates":[120.4501653,23.7347204]},"properties":{"id":"87","region":"中部","city":"雲林縣","name":"興隆毛巾觀光工廠","zipcode":"632108","address":"雲林縣虎尾鎮埒內里84-1號","phone":"05-6226008","website":"http://www.sltowel.com.tw","geocode_source":"google","geocode_precision":"approximate"}},{"type":"Feature","geometry":{"type":"Point","coordinates":[120.4638047,23.8024189]},"properties":{"id":"88","region":"中部","city":"雲林縣","name":"丸莊醬油觀光工廠","zipcode":"64847","address":"雲林縣西螺鎮延平路25號","phone":"05-5863666","website":"http://www.wuanchuang.com.tw","geocode_source":"offline_l2","geocode_precision":"exact"}},{"type":"Feature","geometry":{"type":"Point","coordinates":[120.59873710682564,23.71955819526417]},"properties":{"id":"89","region":"中部","city":"雲林縣","name":"大同醬油黑金釀造館","zipcode":"64069","address":"雲林縣斗六市斗工二路39號","phone":"05-5576899","website":"http://www.wretch.cc/blog/tatung1911\r\nhttp://www.tatungcan.com.tw","geocode_source":"offline_l1","geocode_precision":"cached"}},{"type":"Feature","geometry":{"type":"Point","coordinates":[120.17190697693626,23.607852659673174]},"properties":{"id":"90","region":"中部","city":"雲林縣","name":"台灣鯛生態創意園區","zipcode":"65345","address":"雲林縣口湖鄉崙東村民生路1-88號","phone":"05-7993996","website":"http://www.kf-fish.com/tw/subweb2/index.html","geocode_source":"offline_l1","geocode_precision":"cached"}},{"type":"Feature","geometry":{"type":"Point","coordinates":[120.5702154,23.7301291]},"properties":{"id":"91","region":"中部","city":"雲林縣","name":"雅聞峇里海岸觀光工廠","zipcode":"640155","address":"雲林縣斗六市榴中里中興路333號","phone":"05-5511585","website":"http://www.arwin.com.tw","geocode_source":"offline_l2","geocode_precision":"exact"}},{"type":"Feature","geometry":{"type":"Point","coordinates":[120.3953201,23.6722621]},"properties":{"id":"92","region":"中部","city":"雲林縣","name":"源順芝麻觀光油廠","zipcode":"633101","address":"雲林縣土庫鎮成功路1-62號","phone":"05-6622574","website":"http://www.god-bene.com.tw/","geocode_source":"offline_l2","geocode_precision":"exact"}},{"type":"Feature","geometry":{"type":"Point","coordinates":[120.4300797,23.7885777]},"properties":{"id":"93","region":"中部","city":"雲林縣","name":"瑞春醬油觀光工廠","zipcode":"648005","address":"雲林縣西螺鎮福田里社口68-31號","phone":"05-5882288","website":"https://www.rueichun.com.tw/pages/history","geocode_source":"offline_l2","geocode_precision":"exact"}},{"type":"Feature","geometry":{"type":"Point","coordinates":[120.56003275657109,23.640619318601342]},"properties":{"id":"94","region":"中部","city":"雲林縣","name":"福祿壽觀光酒廠","zipcode":"646005","address":"雲林縣古坑鄉中山路11號","phone":"05-5823106","website":"http://museum.fortunebrewery.com.tw","geocode_source":"offline_l1","geocode_precision":"cached"}},{"type":"Feature","geometry":{"type":"Point","coordinates":[120.4483435,23.512173]},"properties":{"id":"95","region":"南部","city":"嘉義市","name":"月桃故事館","zipcode":"600051","address":"嘉義市東區保忠一街359號","phone":"05-2766399","website":"http://sgsh.mmweb.tw","geocode_source":"offline_l2","geocode_precision":"exact"}},{"type":"Feature","geometry":{"type":"Point","coordinates":[120.4488846,23.5227009]},"properties":{"id":"96","region":"南部","city":"嘉義縣","name":"卡普秀醫美研發中心","zipcode":"62156","address":"嘉義縣民雄鄉民雄工業區成功五街3號","phone":"0800-520668","website":"http://www.facebook.com/TS.capsule","geocode_source":"google","geocode_precision":"exact"}},{"type":"Feature","geometry":{"type":"Point","coordinates":[120.5032618,23.5825091]},"properties":{"id":"97","region":"南部","city":"嘉義縣","name":"卡羅爾銅管樂器觀光工廠","zipcode":"622011","address":"嘉義縣大林鎮大埔美園區20路3號","phone":"05-2953688","website":"http://www.carolbrasstourismfactory.com","geocode_source":"offline_l2","geocode_precision":"exact"}},{"type":"Feature","geometry":{"type":"Point","coordinates":[120.46867369564268,23.553895282816907]},"properties":{"id":"98","region":"南部","city":"嘉義縣","name":"民雄金桔觀光工廠","zipcode":"62145","address":"嘉義縣民雄鄉三興村陳厝寮7鄰38號","phone":"05-2720351","website":"http://www.kingezi.com.tw","geocode_source":"offline_l1","geocode_precision":"cached"}},{"type":"Feature","geometry":{"type":"Point","coordinates":[120.50726883451091,23.584473270898815]},"properties":{"id":"99","region":"南部","city":"嘉義縣","name":"佐登妮絲城堡","zipcode":"622011","address":"嘉義縣大林鎮大埔美園區三路15號","phone":"04-22917296","website":"https://chateau.jourdeness.com/","geocode_source":"offline_l1","geocode_precision":"cached"}},{"type":"Feature","geometry":{"type":"Point","coordinates":[120.220318,23.469461]},"properties":{"id":"100","region":"南部","city":"嘉義縣","name":"余順豐花生觀光工廠","zipcode":"61453","address":"嘉義縣東石鄉蔦松村湖底路20之28號","phone":"05-3660605","website":"http://www.peanutempire.com.tw/","geocode_source":"google","geocode_precision":"approximate"}},{"type":"Feature","geometry":{"type":"Point","coordinates":[120.2752604132592,23.442047064866312]},"properties":{"id":"101","region":"南部","city":"嘉義縣","name":"冷研碳索館","zipcode":"611001","address":"嘉義縣鹿草鄉馬稠後園區一路38號","phone":"05-3620966","website":"https://www.co2tour.com/","geocode_source":"offline_l15","geocode_precision":"interpolated"}},{"type":"Feature","geometry":{"type":"Point","coordinates":[120.596785,23.441793]},"properties":{"id":"102","region":"南部","city":"嘉義縣","name":"欣欣水泥森活園","zipcode":"602037","address":"嘉義縣番路鄉觸口村車埕12號","phone":"05-2591588","website":"http://www.hsinhsincement.com","geocode_source":"google","geocode_precision":"approximate"}},{"type":"Feature","geometry":{"type":"Point","coordinates":[120.5507198,23.5868987]},"properties":{"id":"103","region":"南部","city":"嘉義縣","name":"梅問屋梅子元氣館","zipcode":"60342","address":"嘉義縣梅山鄉中山路527號","phone":"0800-606060","website":"http://www.plummyume.com.tw","geocode_source":"google","geocode_precision":"exact"}},{"type":"Feature","geometry":{"type":"Point","coordinates":[120.4391314,23.5022579]},"properties":{"id":"104","region":"南部","city":"嘉義市","name":"愛木村休閒觀光工廠","zipcode":"600054","address":"嘉義市西區文化路909-3號","phone":"05-2322441","website":"https://iwoodvillage.com/","geocode_source":"google","geocode_precision":"exact"}},{"type":"Feature","geometry":{"type":"Point","coordinates":[120.4493447,23.5240853]},"properties":{"id":"105","region":"南部","city":"嘉義縣","name":"臺灣菸酒(股)公司嘉義觀光酒廠","zipcode":"621016","address":"嘉義縣民雄鄉福樂村中山路4號","phone":"05-2215721#572","website":"http://event.ttl-eshop.com.tw/cy/","geocode_source":"offline_l1","geocode_precision":"cached"}},{"type":"Feature","geometry":{"type":"Point","coordinates":[120.216930967,22.94866627195591]},"properties":{"id":"106","region":"南部","city":"台南市","name":"奇美食品幸福工廠","zipcode":"717015","address":"台南市仁德區機場路1008號","phone":"06-2698588","website":"http://www.happychimei.com.tw","geocode_source":"offline_l1","geocode_precision":"cached"}},{"type":"Feature","geometry":{"type":"Point","coordinates":[120.27817674161318,22.935361512794145]},"properties":{"id":"107","region":"南部","city":"台南市","name":"萬國通路創意觀光工廠","zipcode":"711015","address":"台南市歸仁區中正南路二段1號","phone":"06-7007600","website":"https://tw.eminent.com/","geocode_source":"offline_l1","geocode_precision":"cached"}},{"type":"Feature","geometry":{"type":"Point","coordinates":[120.18221365743496,22.979083143103445]},"properties":{"id":"108","region":"南部","city":"台南市","name":"黑橋牌香腸博物館","zipcode":"702012","address":"台南市南區新忠路2號","phone":"06-2616990#12","website":"http://www.blackbridge.com.tw/mus1.html","geocode_source":"offline_l15","geocode_precision":"interpolated"}},{"type":"Feature","geometry":{"type":"Point","coordinates":[120.25724386000897,22.988604012105572]},"properties":{"id":"109","region":"南部","city":"台南市","name":"TJCOS台鉅美妝觀光工廠","zipcode":"71757","address":"台南市仁德區中正路三段589號","phone":"0800-567168","website":"http://tjcos.com.tw","geocode_source":"offline_l1","geocode_precision":"cached"}},{"type":"Feature","geometry":{"type":"Point","coordinates":[120.32350776784551,23.2128448038246]},"properties":{"id":"110","region":"南部","city":"台南市","name":"天一中藥生活化園區","zipcode":"720008","address":"台南市官田區二鎮里工業路31號","phone":"06-6985800","website":"http://www.itenergy.com.tw","geocode_source":"offline_l1","geocode_precision":"cached"}},{"type":"Feature","geometry":{"type":"Point","coordinates":[120.3579632,23.3632139]},"properties":{"id":"111","region":"南部","city":"台南市","name":"卡多良食故事館","zipcode":"73143","address":"台南市後壁區後壁里42-26號","phone":"06-6874762","website":"http://www.cadozea.com.tw/cadozea/","geocode_source":"google","geocode_precision":"approximate"}},{"type":"Feature","geometry":{"type":"Point","coordinates":[120.3083593,23.0262694]},"properties":{"id":"112","region":"南部","city":"台南市","name":"瓜瓜園地瓜生態故事館","zipcode":"71241","address":"台南市新化區中正路65-1號","phone":"06-5902966","website":"http://www.kky.com.tw","geocode_source":"google","geocode_precision":"exact"}},{"type":"Feature","geometry":{"type":"Point","coordinates":[120.27390852297859,23.046309797547895]},"properties":{"id":"113","region":"南部","city":"台南市","name":"立康中草藥產業文化館","zipcode":"71041","address":"台南市永康區環工路29號","phone":"06-2335356","website":"http://www.herbalmed.com.tw","geocode_source":"offline_l1","geocode_precision":"cached"}},{"type":"Feature","geometry":{"type":"Point","coordinates":[120.1454053,23.1463211]},"properties":{"id":"114","region":"南部","city":"台南市","name":"和明織品文化館","zipcode":"724032","address":"台南市七股區大埕里大埕189號","phone":"06-7875288","website":"http://www.hermin.com/hmtm/","geocode_source":"offline_l2","geocode_precision":"exact"}},{"type":"Feature","geometry":{"type":"Point","coordinates":[120.1885582,23.1647]},"properties":{"id":"115","region":"南部","city":"台南市","name":"彼緹娃藝術蛋糕觀光工廠","zipcode":"722009","address":"台南市佳里區民安里同安寮1之1號","phone":"06-7236328","website":"http://www.beautiful-baby.com.tw/","geocode_source":"offline_l1","geocode_precision":"cached"}},{"type":"Feature","geometry":{"type":"Point","coordinates":[120.409835,23.3253379]},"properties":{"id":"116","region":"南部","city":"台南市","name":"東和蜂文化觀光工廠","zipcode":"733003","address":"台南市東山區東正里東勢1-18號","phone":"06-6800773","website":"http://www.thbc.com.tw","geocode_source":"google","geocode_precision":"approximate"}},{"type":"Feature","geometry":{"type":"Point","coordinates":[120.43324960523275,23.383020319961254]},"properties":{"id":"117","region":"南部","city":"台南市","name":"美雅家具觀光工廠","zipcode":"73251","address":"台南市白河區馬稠後里甘宅101-1號","phone":"06-6817456","website":"http://www.meiyafurniture.com.tw/","geocode_source":"offline_l1","geocode_precision":"cached"}},{"type":"Feature","geometry":{"type":"Point","coordinates":[120.2540927,22.987402]},"properties":{"id":"118","region":"南部","city":"台南市","name":"虹泰水凝膠世界","zipcode":"71757","address":"台南市仁德區中正路3段523巷116號","phone":"06-2724880","website":"http://www.hometech.tw","geocode_source":"offline_l2","geocode_precision":"exact"}},{"type":"Feature","geometry":{"type":"Point","coordinates":[120.1310735639206,23.199615007606813]},"properties":{"id":"119","region":"南部","city":"台南市","name":"康那香不織布創意王國","zipcode":"72548","address":"台南市將軍區將軍里三吉66之1號","phone":"06-7941573","website":"http://www.knh.com.tw/","geocode_source":"offline_l1","geocode_precision":"cached"}},{"type":"Feature","geometry":{"type":"Point","coordinates":[120.31731286434915,23.127878778637847]},"properties":{"id":"120","region":"南部","city":"台南市","name":"善化啤酒廠","zipcode":"74171","address":"台南市善化區成功路2號","phone":"06-5838511#441","website":"https://event.ttl.com.tw/sh","geocode_source":"offline_l1","geocode_precision":"cached"}},{"type":"Feature","geometry":{"type":"Point","coordinates":[120.28437500560734,23.09312229782194]},"properties":{"id":"121","region":"南部","city":"台南市","name":"港香蘭綠色健康知識館","zipcode":"74147","address":"台南市新市區南科一路1號","phone":"06-5052505#2312","website":"http://www.biotanico.com.tw","geocode_source":"offline_l15","geocode_precision":"interpolated"}},{"type":"Feature","geometry":{"type":"Point","coordinates":[120.2111714,23.0733846]},"properties":{"id":"122","region":"南部","city":"台南市","name":"華美光學eye玩視界","zipcode":"74555","address":"台南市安定區中沙里沙崙30號","phone":"06-5937597#6802","website":"http://www.eyecol.com","geocode_source":"offline_l2","geocode_precision":"exact"}},{"type":"Feature","geometry":{"type":"Point","coordinates":[120.3796756,23.3959708]},"properties":{"id":"123","region":"南部","city":"台南市","name":"雅聞湖濱療癒森林","zipcode":"731021","address":"台南市後壁區上茄苳里12之66號","phone":"06-6882888","website":"https://app.arwin.com.tw/Shop/StoreDetail/1436/39105","geocode_source":"google","geocode_precision":"exact"}},{"type":"Feature","geometry":{"type":"Point","coordinates":[120.1765672,22.9681786]},"properties":{"id":"124","region":"南部","city":"台南市","name":"新百祿燕窩觀光工廠","zipcode":"70254","address":"台南市南區新和路38號","phone":"06-2650924","website":"http://www.facebook.com/sinbailu","geocode_source":"offline_l2","geocode_precision":"exact"}},{"type":"Feature","geometry":{"type":"Point","coordinates":[120.153179,23.0423429]},"properties":{"id":"125","region":"南部","city":"台南市","name":"腳的眼鏡足部科學體驗中心\r\n(紅崴觀光工廠)","zipcode":"70955","address":"台南市安南區鹽田里工業一路23號","phone":"06-2380713\r\n#267、316","website":"http://www.goodarch2u.com/tourism/index.php","geocode_source":"offline_l2","geocode_precision":"exact"}},{"type":"Feature","geometry":{"type":"Point","coordinates":[120.34179005254141,23.225713119503435]},"properties":{"id":"126","region":"南部","city":"台南市","name":"蘭都觀光工廠","zipcode":"73443","address":"台南市六甲區和平街185-7號","phone":"06-6995208","website":"https://www.orchid-city.com/pages/","geocode_source":"offline_l1","geocode_precision":"cached"}},{"type":"Feature","geometry":{"type":"Point","coordinates":[120.32202518811786,23.196734655238693]},"properties":{"id":"127","region":"南部","city":"台南市","name":"臺灣菸酒(股)公司隆田觀光酒廠","zipcode":"72047","address":"台南市官田區中華路一段335號","phone":"06-5791311\r\n#394、443","website":"http://event.ttl-eshop.com.tw/lt/","geocode_source":"offline_l1","geocode_precision":"cached"}},{"type":"Feature","geometry":{"type":"Point","coordinates":[120.2670676,22.8175711]},"properties":{"id":"128","region":"南部","city":"高雄市","name":"台灣滷味博物館","zipcode":"82059","address":"高雄市岡山區本工一路25號","phone":"07-6229800","website":"http://www.de-food.com.tw","geocode_source":"offline_l2","geocode_precision":"exact"}},{"type":"Feature","geometry":{"type":"Point","coordinates":[120.31375329362227,22.579412919277743]},"properties":{"id":"129","region":"南部","city":"高雄市","name":"宏裕行花枝丸館","zipcode":"80672","address":"高雄市前鎮區新生路240號","phone":"07-8111319#1107","website":"https://www.hongyu-food.com.tw/edcontent.php?lang=tw&tb=1","geocode_source":"offline_l15","geocode_precision":"interpolated"}},{"type":"Feature","geometry":{"type":"Point","coordinates":[120.31751131609833,22.672137011091255]},"properties":{"id":"130","region":"南部","city":"高雄市","name":"紅頂穀創穀物文創樂園","zipcode":"813387","address":"高雄市左營區民族一路709號","phone":"07-3460333#111","website":"http://www.redbarn709.com","geocode_source":"offline_l1","geocode_precision":"cached"}},{"type":"Feature","geometry":{"type":"Point","coordinates":[120.31348046933758,22.65385367632058]},"properties":{"id":"131","region":"南部","city":"高雄市","name":"彪琥台灣鞋故事館","zipcode":"80794","address":"高雄市三民區民族一路335巷43-1號","phone":"07-3892246\r\n#108、109","website":"http://www.puhu.com.tw","geocode_source":"offline_l1","geocode_precision":"cached"}},{"type":"Feature","geometry":{"type":"Point","coordinates":[120.3834744,22.7706025]},"properties":{"id":"132","region":"南部","city":"高雄市","name":"裕賀牛觀光工廠","zipcode":"82444","address":"高雄市燕巢區大仁路68號","phone":"07-6151606","website":"http://www.beefschool.com.tw","geocode_source":"offline_l2","geocode_precision":"exact"}},{"type":"Feature","geometry":{"type":"Point","coordinates":[120.2314939,22.9031998]},"properties":{"id":"133","region":"南部","city":"高雄市","name":"FLOMO富樂夢橡皮擦觀光工廠","zipcode":"82942","address":"高雄市湖內區中山路二段42號","phone":"07-6996173","website":"https://www.flomogroup.com/","geocode_source":"offline_l2","geocode_precision":"exact"}},{"type":"Feature","geometry":{"type":"Point","coordinates":[120.31281831200587,22.582912645917247]},"properties":{"id":"134","region":"南部","city":"高雄市","name":"珍芳烏魚子見學工廠","zipcode":"80673","address":"高雄市前鎮區新衙路296巷81弄13號","phone":"07-8227488","website":"http://www.a-ten588.com.tw","geocode_source":"offline_l15","geocode_precision":"interpolated"}},{"type":"Feature","geometry":{"type":"Point","coordinates":[120.53770375208478,22.71362661291566]},"properties":{"id":"135","region":"南部","city":"屏東縣","name":"天明製藥農科觀光藥廠","zipcode":"90846","address":"屏東縣長治鄉德和村神農路3號","phone":"08-7629666","website":"http://www.tcmm.com.tw","geocode_source":"offline_l1","geocode_precision":"cached"}},{"type":"Feature","geometry":{"type":"Point","coordinates":[120.53971422628018,22.71282880027212]},"properties":{"id":"136","region":"南部","city":"屏東縣","name":"萬寶祿酵素品牌文化館","zipcode":"90846","address":"屏東縣長治鄉德和村神農路17號","phone":"08-7624988","website":"http://www.onepower.com.tw","geocode_source":"offline_l15","geocode_precision":"interpolated"}},{"type":"Feature","geometry":{"type":"Point","coordinates":[120.4955332,22.4317119]},"properties":{"id":"137","region":"南部","city":"屏東縣","name":"鮮饌道海洋食品文化館","zipcode":"92747","address":"屏東縣林邊鄉成功路122號","phone":"08-8752229","website":"http://www.jyfood.com.tw","geocode_source":"google","geocode_precision":"exact"}},{"type":"Feature","geometry":{"type":"Point","coordinates":[120.54781998577991,22.644506330494693]},"properties":{"id":"138","region":"南部","city":"屏東縣","name":"臺灣菸酒(股)公司屏東觀光酒廠","zipcode":"91252","address":"屏東縣內埔鄉建國路34號","phone":"08-7781640\r\n#448、430","website":"http://event.ttl-eshop.com.tw/pt/","geocode_source":"offline_l15","geocode_precision":"interpolated"}},{"type":"Feature","geometry":{"type":"Point","coordinates":[121.6939912,24.7146353]},"properties":{"id":"139","region":"東部","city":"宜蘭縣","name":"噶瑪蘭酒廠","zipcode":"264033","address":"宜蘭縣員山鄉員山路二段326號","phone":"03-9229000#1104","website":"http://www.kavalanshisky.com","geocode_source":"offline_l2","geocode_precision":"exact"}},{"type":"Feature","geometry":{"type":"Point","coordinates":[121.77561250428309,24.693973499197124]},"properties":{"id":"140","region":"東部","city":"宜蘭縣","name":"台灣足鞋健康知識館","zipcode":"26843","address":"宜蘭縣五結鄉中興村中里路18號","phone":"03-9500551*501","website":"http://www.drfoot.com.tw","geocode_source":"offline_l15","geocode_precision":"interpolated"}},{"type":"Feature","geometry":{"type":"Point","coordinates":[121.73177915222502,24.78105855431836]},"properties":{"id":"141","region":"東部","city":"宜蘭縣","name":"亞典蛋糕密碼館","zipcode":"26053","address":"宜蘭縣宜蘭市梅洲二路122號","phone":"03-9286777","website":"http://www.rden.com.tw","geocode_source":"offline_l15","geocode_precision":"interpolated"}},{"type":"Feature","geometry":{"type":"Point","coordinates":[121.8305546,24.6162072]},"properties":{"id":"142","region":"東部","city":"宜蘭縣","name":"一米特米食點心觀光工廠","zipcode":"270009","address":"宜蘭縣蘇澳鎮祥和路199號","phone":"03-9907779#500","website":"http://www.onemit.com.tw/","geocode_source":"google","geocode_precision":"exact"}},{"type":"Feature","geometry":{"type":"Point","coordinates":[121.81791879506581,24.61490354241689]},"properties":{"id":"143","region":"東部","city":"宜蘭縣","name":"安永心食館","zipcode":"27048","address":"宜蘭縣蘇澳鎮中山路二段415號","phone":"03-9953399","website":"https://www.anyomuseum.com/","geocode_source":"offline_l1","geocode_precision":"cached"}},{"type":"Feature","geometry":{"type":"Point","coordinates":[121.8368109,24.6342589]},"properties":{"id":"144","region":"東部","city":"宜蘭縣","name":"奇麗灣珍奶文化館","zipcode":"27049","address":"宜蘭縣蘇澳鎮頂寮里頂強路23號","phone":"03-9909966","website":"https://www.kilibay.net","geocode_source":"offline_l2","geocode_precision":"exact"}},{"type":"Feature","geometry":{"type":"Point","coordinates":[121.8288864,24.614601]},"properties":{"id":"145","region":"東部","city":"宜蘭縣","name":"宜蘭餅發明館","zipcode":"27009","address":"宜蘭縣蘇澳鎮海山西路369號","phone":"03-9905999","website":"http://www.diy-icake.com.tw","geocode_source":"offline_l2","geocode_precision":"exact"}},{"type":"Feature","geometry":{"type":"Point","coordinates":[121.830905,24.6634165]},"properties":{"id":"146","region":"東部","city":"宜蘭縣","name":"虎牌米粉產業文化館","zipcode":"268015","address":"宜蘭縣五結鄉成興村利興三路５號","phone":"03-9907718","website":"http://www.tigerfood.com.tw/old/index.html","geocode_source":"google","geocode_precision":"exact"}},{"type":"Feature","geometry":{"type":"Point","coordinates":[121.7853627,24.6823465]},"properties":{"id":"147","region":"東部","city":"宜蘭縣","name":"博士鴨觀光工廠","zipcode":"26845","address":"宜蘭縣五結鄉福興村新五路1-1號","phone":"03-9606051、2","website":"http://www.dr-duck.com.tw/","geocode_source":"google","geocode_precision":"exact"}},{"type":"Feature","geometry":{"type":"Point","coordinates":[121.73533621190653,24.776212141410905]},"properties":{"id":"148","region":"東部","city":"宜蘭縣","name":"菌寶貝博物館","zipcode":"260023","address":"宜蘭縣宜蘭市梅洲一路22號","phone":"03-9281168","website":"http://www.junbaby.com.tw","geocode_source":"offline_l1","geocode_precision":"cached"}},{"type":"Feature","geometry":{"type":"Point","coordinates":[121.83237743636708,24.658130119396755]},"properties":{"id":"149","region":"東部","city":"宜蘭縣","name":"溪和水產觀光工廠","zipcode":"268015","address":"宜蘭縣五結鄉利興二路11號","phone":"03-9907998","website":"http://www.siho.com.tw","geocode_source":"offline_l1","geocode_precision":"cached"}},{"type":"Feature","geometry":{"type":"Point","coordinates":[121.8533264,24.594229]},"properties":{"id":"150","region":"東部","city":"宜蘭縣","name":"蜡藝蜡筆城堡","zipcode":"270009","address":"宜蘭縣蘇澳鎮海山西路500號","phone":"03-9907101","website":"http://www.luckyart.com.tw","geocode_source":"google","geocode_precision":"approximate"}},{"type":"Feature","geometry":{"type":"Point","coordinates":[121.82979747787836,24.660260592304557]},"properties":{"id":"151","region":"東部","city":"宜蘭縣","name":"赫蒂法莊園","zipcode":"268015","address":"宜蘭縣五結鄉五濱路一段40號","phone":"03-9908567","website":"http://www.healtdevavillage.com/","geocode_source":"offline_l15","geocode_precision":"interpolated"}},{"type":"Feature","geometry":{"type":"Point","coordinates":[121.7403438,24.7891206]},"properties":{"id":"152","region":"東部","city":"宜蘭縣","name":"潭酵天地","zipcode":"262009","address":"宜蘭縣礁溪鄉漳福路25號","phone":"0800-889096","website":"https://www.hsuslegend.com.tw","geocode_source":"google","geocode_precision":"exact"}},{"type":"Feature","geometry":{"type":"Point","coordinates":[121.7371742,24.7798738]},"properties":{"id":"153","region":"東部","city":"宜蘭縣","name":"橘之鄉蜜餞觀光工廠","zipcode":"260023","address":"宜蘭縣宜蘭市梅洲二路33號","phone":"03-9285758","website":"http://www.agrioz.com.tw","geocode_source":"offline_l2","geocode_precision":"exact"}},{"type":"Feature","geometry":{"type":"Point","coordinates":[121.74944251547588,24.757169932114408]},"properties":{"id":"154","region":"東部","city":"宜蘭縣","name":"臺灣菸酒(股)公司宜蘭酒廠觀光工廠","zipcode":"260005","address":"宜蘭縣宜蘭市舊城西路3號","phone":"03-9355526#461","website":"http://event.ttl-eshop.com.tw/yl/","geocode_source":"offline_l1","geocode_precision":"cached"}},{"type":"Feature","geometry":{"type":"Point","coordinates":[121.748189,24.310721]},"properties":{"id":"155","region":"東部","city":"花蓮縣","name":"台泥DAKA-開放生態循環工廠","zipcode":"972005","address":"花蓮縣秀林鄉和平村和平路二六三號","phone":"03-8221161","website":"https://www.tccdaka.com/tw/index.html","geocode_source":"google","geocode_precision":"approximate"}},{"type":"Feature","geometry":{"type":"Point","coordinates":[121.63198211424088,24.013942563289632]},"properties":{"id":"156","region":"東部","city":"花蓮縣","name":"香又香便當調查局","zipcode":"97064","address":"花蓮縣花蓮市美工路15號","phone":"03-8228111","website":"http://www.xiangyouxiang.com.tw/info.htm","geocode_source":"offline_l1","geocode_precision":"cached"}},{"type":"Feature","geometry":{"type":"Point","coordinates":[121.635805,24.0184761]},"properties":{"id":"157","region":"東部","city":"花蓮縣","name":"臺灣菸酒(股)公司花蓮觀光酒廠","zipcode":"97064","address":"花蓮市美工路6號","phone":"03-8222130","website":"http://event.ttl-eshop.com.tw/hl/","geocode_source":"google","geocode_precision":"exact"}},{"type":"Feature","geometry":{"type":"Point","coordinates":[121.2030494,23.1121597]},"properties":{"id":"158","region":"東部","city":"台東縣","name":"池上鄉農會觀光工廠金色豐收館","zipcode":"95844","address":"台東縣池上鄉新興村7鄰85-6號","phone":"089-865936","website":"http://csfa.org.tw/","geocode_source":"offline_l2","geocode_precision":"exact"}}]}