{"type":"FeatureCollection","features":[{"type":"Feature","geometry":{"type":"Point","coordinates":[-122.8931821,45.5377248]},"properties":{"osm_type":"node","osm_id":"13746830928","source_id":"osm:node/13746830928","name":"Trans-Pacific Express (TPE) Cable System CLS","operator":"Verizon Business","owner":"","cable_type":"crowd_telecom","status":"unknown","cable_names":[],"cable_count":0,"source":"OpenStreetMap","source_url":"https://gall.openstreetmap.de/api/interpreter","osm_url":"https://www.openstreetmap.org/node/13746830928","license":"ODbL 1.0","attribution":"© OpenStreetMap contributors","fetched_at":"2026-08-18T15:08:41.735626+00:00","query_hash":"3129ece2af88c320e6611b4f1007771fc999bb2a7d147e9ed754f25a5cd4e3d7","coverage_note":"incomplete_crowdsourced","raw_tags":{"access":"private","addr:city":"Hillsboro","addr:housenumber":"2550","addr:postcode":"97124","addr:state":"OR","addr:street":"Northeast Aloclek Drive","description":"Trans-Pacific Express (TPE) Cable System (SLTE)","name":"Trans-Pacific Express (TPE) Cable System CLS","operator":"Verizon Business","telecom":"cable_landing_station","utility":"telecom"},"coord_qc_status":"node_coordinates"}},{"type":"Feature","geometry":{"type":"Point","coordinates":[-122.8827744,45.5448332]},"properties":{"osm_type":"node","osm_id":"13746844869","source_id":"osm:node/13746844869","name":"NorthStar CLS","operator":"Verizon Business","owner":"","cable_type":"crowd_telecom","status":"unknown","cable_names":[],"cable_count":0,"source":"OpenStreetMap","source_url":"https://gall.openstreetmap.de/api/interpreter","osm_url":"https://www.openstreetmap.org/node/13746844869","license":"ODbL 1.0","attribution":"© OpenStreetMap contributors","fetched_at":"2026-08-18T15:08:41.735626+00:00","query_hash":"3129ece2af88c320e6611b4f1007771fc999bb2a7d147e9ed754f25a5cd4e3d7","coverage_note":"incomplete_crowdsourced","raw_tags":{"access":"private","addr:city":"Hillsboro","addr:housenumber":"9450","addr:postcode":"97124","addr:state":"OR","addr:street":"Northeast Tanasbourne Drive","description":"NorthStar (SLTE)","name":"NorthStar CLS","operator":"Verizon Business","telecom":"cable_landing_station","utility":"telecom"},"coord_qc_status":"node_coordinates"}},{"type":"Feature","geometry":{"type":"Point","coordinates":[-122.8827818,45.5447344]},"properties":{"osm_type":"node","osm_id":"13746844870","source_id":"osm:node/13746844870","name":"Southern Cross Cable Network (SCCN) CLS","operator":"Verizon Business","owner":"","cable_type":"crowd_telecom","status":"unknown","cable_names":[],"cable_count":0,"source":"OpenStreetMap","source_url":"https://gall.openstreetmap.de/api/interpreter","osm_url":"https://www.openstreetmap.org/node/13746844870","license":"ODbL 1.0","attribution":"© OpenStreetMap contributors","fetched_at":"2026-08-18T15:08:41.735626+00:00","query_hash":"3129ece2af88c320e6611b4f1007771fc999bb2a7d147e9ed754f25a5cd4e3d7","coverage_note":"incomplete_crowdsourced","raw_tags":{"access":"private","addr:city":"Hillsboro","addr:housenumber":"9450","addr:postcode":"97124","addr:state":"OR","addr:street":"Northeast Tanasbourne Drive","description":"Southern Cross Cable Network (SCCN) (SLTE)","name":"Southern Cross Cable Network (SCCN) CLS","operator":"Verizon Business","telecom":"cable_landing_station","utility":"telecom"},"coord_qc_status":"node_coordinates"}},{"type":"Feature","geometry":{"type":"Point","coordinates":[-122.8939562,45.5466615]},"properties":{"osm_type":"node","osm_id":"13746855113","source_id":"osm:node/13746855113","name":"Tata TGN-Pacific CLS","operator":"Tata Communications","owner":"","cable_type":"crowd_telecom","status":"unknown","cable_names":[],"cable_count":0,"source":"OpenStreetMap","source_url":"https://gall.openstreetmap.de/api/interpreter","osm_url":"https://www.openstreetmap.org/node/13746855113","license":"ODbL 1.0","attribution":"© OpenStreetMap contributors","fetched_at":"2026-08-18T15:08:41.735626+00:00","query_hash":"3129ece2af88c320e6611b4f1007771fc999bb2a7d147e9ed754f25a5cd4e3d7","coverage_note":"incomplete_crowdsourced","raw_tags":{"access":"private","addr:city":"Hillsboro","addr:housenumber":"8343","addr:postcode":"97124","addr:state":"OR","addr:street":"Northeast Evergreen Parkway","description":"Tata TGN-Pacific (SLTE)","name":"Tata TGN-Pacific CLS","operator":"Tata Communications","telecom":"cable_landing_station","utility":"telecom"},"coord_qc_status":"node_coordinates"}},{"type":"Feature","geometry":{"type":"Point","coordinates":[-122.9173837,45.5590213]},"properties":{"osm_type":"node","osm_id":"13746864039","source_id":"osm:node/13746864039","name":"Bifrost CLS","operator":"Flexential","owner":"","cable_type":"crowd_telecom","status":"unknown","cable_names":[],"cable_count":0,"source":"OpenStreetMap","source_url":"https://gall.openstreetmap.de/api/interpreter","osm_url":"https://www.openstreetmap.org/node/13746864039","license":"ODbL 1.0","attribution":"© OpenStreetMap contributors","fetched_at":"2026-08-18T15:08:41.735626+00:00","query_hash":"3129ece2af88c320e6611b4f1007771fc999bb2a7d147e9ed754f25a5cd4e3d7","coverage_note":"incomplete_crowdsourced","raw_tags":{"access":"private","addr:city":"Hillsboro","addr:housenumber":"5737","addr:postcode":"97124","addr:state":"OR","addr:street":"Northeast Huffman Street","description":"Bifrost (SLTE)","name":"Bifrost CLS","operator":"Flexential","telecom":"cable_landing_station","utility":"telecom"},"coord_qc_status":"node_coordinates"}},{"type":"Feature","geometry":{"type":"Point","coordinates":[-122.9173851,45.5588559]},"properties":{"osm_type":"node","osm_id":"13746864040","source_id":"osm:node/13746864040","name":"Hawaiki CLS","operator":"Flexential","owner":"","cable_type":"crowd_telecom","status":"unknown","cable_names":[],"cable_count":0,"source":"OpenStreetMap","source_url":"https://gall.openstreetmap.de/api/interpreter","osm_url":"https://www.openstreetmap.org/node/13746864040","license":"ODbL 1.0","attribution":"© OpenStreetMap contributors","fetched_at":"2026-08-18T15:08:41.735626+00:00","query_hash":"3129ece2af88c320e6611b4f1007771fc999bb2a7d147e9ed754f25a5cd4e3d7","coverage_note":"incomplete_crowdsourced","raw_tags":{"access":"private","addr:city":"Hillsboro","addr:housenumber":"5737","addr:postcode":"97124","addr:state":"OR","addr:street":"Northeast Huffman Street","description":"Hawaiki (SLTE)","name":"Hawaiki CLS","operator":"Flexential","telecom":"cable_landing_station","utility":"telecom"},"coord_qc_status":"node_coordinates"}},{"type":"Feature","geometry":{"type":"Point","coordinates":[-122.9173883,45.5586594]},"properties":{"osm_type":"node","osm_id":"13746864041","source_id":"osm:node/13746864041","name":"JUPITER CLS","operator":"Flexential","owner":"","cable_type":"crowd_telecom","status":"unknown","cable_names":[],"cable_count":0,"source":"OpenStreetMap","source_url":"https://gall.openstreetmap.de/api/interpreter","osm_url":"https://www.openstreetmap.org/node/13746864041","license":"ODbL 1.0","attribution":"© OpenStreetMap contributors","fetched_at":"2026-08-18T15:08:41.735626+00:00","query_hash":"3129ece2af88c320e6611b4f1007771fc999bb2a7d147e9ed754f25a5cd4e3d7","coverage_note":"incomplete_crowdsourced","raw_tags":{"access":"private","addr:city":"Hillsboro","addr:housenumber":"5737","addr:postcode":"97124","addr:state":"OR","addr:street":"Northeast Huffman Street","description":"JUPITER (SLTE)","name":"JUPITER CLS","operator":"Flexential","telecom":"cable_landing_station","utility":"telecom"},"coord_qc_status":"node_coordinates"}},{"type":"Feature","geometry":{"type":"Point","coordinates":[-122.9173909,45.558476]},"properties":{"osm_type":"node","osm_id":"13746864042","source_id":"osm:node/13746864042","name":"New Cross Pacific (NCP) Cable System CLS","operator":"Flexential","owner":"","cable_type":"crowd_telecom","status":"unknown","cable_names":[],"cable_count":0,"source":"OpenStreetMap","source_url":"https://gall.openstreetmap.de/api/interpreter","osm_url":"https://www.openstreetmap.org/node/13746864042","license":"ODbL 1.0","attribution":"© OpenStreetMap contributors","fetched_at":"2026-08-18T15:08:41.735626+00:00","query_hash":"3129ece2af88c320e6611b4f1007771fc999bb2a7d147e9ed754f25a5cd4e3d7","coverage_note":"incomplete_crowdsourced","raw_tags":{"access":"private","addr:city":"Hillsboro","addr:housenumber":"5737","addr:postcode":"97124","addr:state":"OR","addr:street":"Northeast Huffman Street","description":"New Cross Pacific (NCP) Cable System (SLTE)","name":"New Cross Pacific (NCP) Cable System CLS","operator":"Flexential","telecom":"cable_landing_station","utility":"telecom"},"coord_qc_status":"node_coordinates"}},{"type":"Feature","geometry":{"type":"Point","coordinates":[-118.3945781,33.8670526]},"properties":{"osm_type":"node","osm_id":"13749756185","source_id":"osm:node/13749756185","name":"Hermosa Beach CLS (HMB IX)","operator":"RTI Infrastructure, Inc","owner":"","cable_type":"crowd_telecom","status":"unknown","cable_names":[],"cable_count":0,"source":"OpenStreetMap","source_url":"https://gall.openstreetmap.de/api/interpreter","osm_url":"https://www.openstreetmap.org/node/13749756185","license":"ODbL 1.0","attribution":"© OpenStreetMap contributors","fetched_at":"2026-08-18T15:08:41.735626+00:00","query_hash":"3129ece2af88c320e6611b4f1007771fc999bb2a7d147e9ed754f25a5cd4e3d7","coverage_note":"incomplete_crowdsourced","raw_tags":{"addr:city":"Hermosa Beach","addr:housenumber":"1601","addr:postcode":"90254","addr:state":"CA","addr:street":"Pacific Coast Highway","description":"JUPITER; SEA-US; Southern Cross NEXT","name":"Hermosa Beach CLS (HMB IX)","operator":"RTI Infrastructure, Inc","telecom":"cable_landing_station"},"coord_qc_status":"node_coordinates"}},{"type":"Feature","geometry":{"type":"Point","coordinates":[124.9832064,1.4235986]},"properties":{"osm_type":"node","osm_id":"13750107945","source_id":"osm:node/13750107945","name":"Kauditan CLS","operator":"Telkom Indonesia","owner":"","cable_type":"crowd_telecom","status":"unknown","cable_names":[],"cable_count":0,"source":"OpenStreetMap","source_url":"https://gall.openstreetmap.de/api/interpreter","osm_url":"https://www.openstreetmap.org/node/13750107945","license":"ODbL 1.0","attribution":"© OpenStreetMap contributors","fetched_at":"2026-08-18T15:08:41.735626+00:00","query_hash":"3129ece2af88c320e6611b4f1007771fc999bb2a7d147e9ed754f25a5cd4e3d7","coverage_note":"incomplete_crowdsourced","raw_tags":{"addr:city":"Minahasa Utara","addr:district":"Airmadidi","addr:province":"Sulawesi Utara","addr:street":"Jalan Raya Manado-Bitung","addr:subdistrict":"Airmadidi","addr:village":"Airmadidi Atas","description":"SEA-US","name":"Kauditan CLS","operator":"Telkom Indonesia","telecom":"cable_landing_station","utility":"telecom"},"coord_qc_status":"node_coordinates"}},{"type":"Feature","geometry":{"type":"Point","coordinates":[18.4445435,-33.7257825]},"properties":{"osm_type":"node","osm_id":"13750484781","source_id":"osm:node/13750484781","name":"Melkbosstrand CLS","operator":"Telkom South Africa","owner":"","cable_type":"crowd_telecom","status":"unknown","cable_names":[],"cable_count":0,"source":"OpenStreetMap","source_url":"https://gall.openstreetmap.de/api/interpreter","osm_url":"https://www.openstreetmap.org/node/13750484781","license":"ODbL 1.0","attribution":"© OpenStreetMap contributors","fetched_at":"2026-08-18T15:08:41.735626+00:00","query_hash":"3129ece2af88c320e6611b4f1007771fc999bb2a7d147e9ed754f25a5cd4e3d7","coverage_note":"incomplete_crowdsourced","raw_tags":{"addr:city":"Cape Town","addr:housenumber":"3","addr:postcode":"7437","addr:province":"Western Cape","addr:street":"15th Avenue","addr:suburb":"Melkbosstrand","description":"SAT-3/WASC; SAFE; Equiano","name":"Melkbosstrand CLS","operator":"Telkom South Africa","telecom":"cable_landing_station"},"coord_qc_status":"node_coordinates"}},{"type":"Feature","geometry":{"type":"Point","coordinates":[-70.960728,42.4595428]},"properties":{"osm_type":"way","osm_id":"29747314","source_id":"osm:way/29747314","name":"Lynn CLS","operator":"EXA Infrastructure","owner":"","cable_type":"crowd_telecom","status":"unknown","cable_names":[],"cable_count":0,"source":"OpenStreetMap","source_url":"https://gall.openstreetmap.de/api/interpreter","osm_url":"https://www.openstreetmap.org/way/29747314","license":"ODbL 1.0","attribution":"© OpenStreetMap contributors","fetched_at":"2026-08-18T15:08:41.735626+00:00","query_hash":"3129ece2af88c320e6611b4f1007771fc999bb2a7d147e9ed754f25a5cd4e3d7","coverage_note":"incomplete_crowdsourced","raw_tags":{"addr:city":"Lynn","addr:housenumber":"91","addr:postcode":"01905","addr:state":"MA","addr:street":"Commercial Street","building":"service","description":"EXA North and South; EXA Express; Amitié","name":"Lynn CLS","operator":"EXA Infrastructure","telecom":"cable_landing_station"},"coord_qc_status":"overpass_center"}},{"type":"Feature","geometry":{"type":"Point","coordinates":[-4.1752101,51.5793621]},"properties":{"osm_type":"way","osm_id":"117581892","source_id":"osm:way/117581892","name":"Reynoldston Cable Landing Station","operator":"Cable & Wireless","owner":"","cable_type":"crowd_telecom","status":"unknown","cable_names":[],"cable_count":0,"source":"OpenStreetMap","source_url":"https://gall.openstreetmap.de/api/interpreter","osm_url":"https://www.openstreetmap.org/way/117581892","license":"ODbL 1.0","attribution":"© OpenStreetMap contributors","fetched_at":"2026-08-18T15:08:41.735626+00:00","query_hash":"3129ece2af88c320e6611b4f1007771fc999bb2a7d147e9ed754f25a5cd4e3d7","coverage_note":"incomplete_crowdsourced","raw_tags":{"building":"cable_landing_station","name":"Reynoldston Cable Landing Station","operator":"Cable & Wireless","source":"bing","telecom":"cable_landing_station"},"coord_qc_status":"overpass_center"}},{"type":"Feature","geometry":{"type":"Point","coordinates":[-3.0131938,51.2860399]},"properties":{"osm_type":"way","osm_id":"117662106","source_id":"osm:way/117662106","name":"Brean Cable Landing Station","operator":"Cable & Wireless","owner":"","cable_type":"crowd_telecom","status":"unknown","cable_names":[],"cable_count":0,"source":"OpenStreetMap","source_url":"https://gall.openstreetmap.de/api/interpreter","osm_url":"https://www.openstreetmap.org/way/117662106","license":"ODbL 1.0","attribution":"© OpenStreetMap contributors","fetched_at":"2026-08-18T15:08:41.735626+00:00","query_hash":"3129ece2af88c320e6611b4f1007771fc999bb2a7d147e9ed754f25a5cd4e3d7","coverage_note":"incomplete_crowdsourced","raw_tags":{"building":"cable_landing_station","name":"Brean Cable Landing Station","operator":"Cable & Wireless","source":"bing","telecom":"cable_landing_station"},"coord_qc_status":"overpass_center"}},{"type":"Feature","geometry":{"type":"Point","coordinates":[-120.8315078,35.312605]},"properties":{"osm_type":"way","osm_id":"159114892","source_id":"osm:way/159114892","name":"Morro Bay CLS","operator":"Verizon Business","owner":"","cable_type":"crowd_telecom","status":"unknown","cable_names":[],"cable_count":0,"source":"OpenStreetMap","source_url":"https://gall.openstreetmap.de/api/interpreter","osm_url":"https://www.openstreetmap.org/way/159114892","license":"ODbL 1.0","attribution":"© OpenStreetMap contributors","fetched_at":"2026-08-18T15:08:41.735626+00:00","query_hash":"3129ece2af88c320e6611b4f1007771fc999bb2a7d147e9ed754f25a5cd4e3d7","coverage_note":"incomplete_crowdsourced","raw_tags":{"addr:city":"Los Osos","addr:full":"1101 Los Olivos Avenue","addr:housenumber":"1101","addr:postcode":"93402","addr:state":"CA","addr:street":"Los Olivos Avenue","building":"service","description":"California-Hawaii S1 (CHI); Southern Cross Cable Network (SCCN); Asia-America Gateway (AAG) Cable System","name":"Morro Bay CLS","operator":"Verizon Business","telecom":"cable_landing_station","utility":"telecom"},"coord_qc_status":"overpass_center"}},{"type":"Feature","geometry":{"type":"Point","coordinates":[-120.6227885,35.112026]},"properties":{"osm_type":"way","osm_id":"160165610","source_id":"osm:way/160165610","name":"Grover Beach CLS","operator":"Pacific Crossing Ltd","owner":"","cable_type":"crowd_telecom","status":"unknown","cable_names":[],"cable_count":0,"source":"OpenStreetMap","source_url":"https://gall.openstreetmap.de/api/interpreter","osm_url":"https://www.openstreetmap.org/way/160165610","license":"ODbL 1.0","attribution":"© OpenStreetMap contributors","fetched_at":"2026-08-18T15:08:41.735626+00:00","query_hash":"3129ece2af88c320e6611b4f1007771fc999bb2a7d147e9ed754f25a5cd4e3d7","coverage_note":"incomplete_crowdsourced","raw_tags":{"addr:city":"Grover Beach","addr:full":"948 Huber Street","addr:housenumber":"948","addr:postcode":"93433","addr:state":"CA","addr:street":"Huber Street","building":"service","description":"Bifrost; JUNO; Pacific Crossing-1 (PC-1); Pan-American Crossing (PAC)","name":"Grover Beach CLS","operator":"Pacific Crossing Ltd","telecom":"cable_landing_station","utility":"telecom"},"coord_qc_status":"overpass_center"}},{"type":"Feature","geometry":{"type":"Point","coordinates":[-56.6946758,-36.5172072]},"properties":{"osm_type":"way","osm_id":"164568373","source_id":"osm:way/164568373","name":"Nodo de recepción de cables submarinos de fibra óptica de Las Toninas","operator":"Telefónica de Argentina","owner":"","cable_type":"crowd_telecom","status":"unknown","cable_names":[],"cable_count":0,"source":"OpenStreetMap","source_url":"https://gall.openstreetmap.de/api/interpreter","osm_url":"https://www.openstreetmap.org/way/164568373","license":"ODbL 1.0","attribution":"© OpenStreetMap contributors","fetched_at":"2026-08-18T15:08:41.735626+00:00","query_hash":"3129ece2af88c320e6611b4f1007771fc999bb2a7d147e9ed754f25a5cd4e3d7","coverage_note":"incomplete_crowdsourced","raw_tags":{"addr:city":"Las Toninas","addr:housenumber":"3100","addr:street":"Avenida 7","building":"service","cable1":"UNISUR","cable1:RFS":"March 1995","cable1:length":"1716 km","cable1:owners":"Embratel, Telefónica de Argentina, Antel Uruguay, Entel Chile, BT, Telecom Argentina","cable1:speed":"1 Gbps","cable2":"ATLANTIS-2","cable2:RFS":"February 2000","cable2:length":"8500 km","cable2:owners":"Embratel, Deutsche Telekom, Telecom Italia Sparkle, Telecom Argentina, Telefonica, Portugal Telecom, France Telecom, Telefónica Larga Distancia de Puerto Rico, AT&T, Belgacom, KT, SingTel, Sprint, Tata Communications, Verizon Business, TPSA, BT","cable2:speed":"40 Gbps","cable3":"South American Crossing (SAC)/Latin American Nautilus (LAN)","cable3:RFS":"September 2000","cable3:length":"20000 km","cable3:owners":"Level 3, Telecom Italia","cable3:speed":"3.84 Tbps","cable3:url":"http://www.level3.com","cable4":"South America-1 (SAm-1)","cable4:RFS":"March 2001","cable4:length":"25000 km","cable4:owners":"Telefónica","cable4:speed":"1.92 Tbps","cable4:url":"http://www.globalsolutions.telefonica.com","cable5":"Bicentenario","cable5:RFS":"2011","cable5:length":"250 km","cable5:owners":"Antel Uruguay, Telecom Argentina","cable5:speed":"3.84 Tbps","cable6":"South Atlantic Cable System (SACS) - South America","cable6:owners":"Telebras","cable6:url":"http://www.telebras.com.br","description":"Landing site","designation":"SAm-1","name":"Nodo de recepción de cables submarinos de fibra óptica de Las Toninas","operator":"Telefónica de Argentina","telecom":"cable_landing_station"},"coord_qc_status":"overpass_center"}},{"type":"Feature","geometry":{"type":"Point","coordinates":[1.6918148,52.7181939]},"properties":{"osm_type":"way","osm_id":"184071840","source_id":"osm:way/184071840","name":"Winterton Cable Landing Station","operator":"Vodafone","owner":"","cable_type":"crowd_telecom","status":"unknown","cable_names":[],"cable_count":0,"source":"OpenStreetMap","source_url":"https://gall.openstreetmap.de/api/interpreter","osm_url":"https://www.openstreetmap.org/way/184071840","license":"ODbL 1.0","attribution":"© OpenStreetMap contributors","fetched_at":"2026-08-18T15:08:41.735626+00:00","query_hash":"3129ece2af88c320e6611b4f1007771fc999bb2a7d147e9ed754f25a5cd4e3d7","coverage_note":"incomplete_crowdsourced","raw_tags":{"building":"cable_landing_station","name":"Winterton Cable Landing Station","operator":"Vodafone","source":"Bing","telecom":"cable_landing_station"},"coord_qc_status":"overpass_center"}},{"type":"Feature","geometry":{"type":"Point","coordinates":[-20.3457577,63.6105516]},"properties":{"osm_type":"way","osm_id":"189754333","source_id":"osm:way/189754333","name":"Landeyjar CLS","operator":"Farice ehf","owner":"","cable_type":"crowd_telecom","status":"unknown","cable_names":[],"cable_count":0,"source":"OpenStreetMap","source_url":"https://gall.openstreetmap.de/api/interpreter","osm_url":"https://www.openstreetmap.org/way/189754333","license":"ODbL 1.0","attribution":"© OpenStreetMap contributors","fetched_at":"2026-08-18T15:08:41.735626+00:00","query_hash":"3129ece2af88c320e6611b4f1007771fc999bb2a7d147e9ed754f25a5cd4e3d7","coverage_note":"incomplete_crowdsourced","raw_tags":{"addr:city":"Hvolsvöllur","addr:housenumber":"2","addr:place":"Landeyjar","addr:postcode":"861","addr:street":"Hallgeirsey","building":"service","description":"Danice","loc_name":"Landeyjum","name":"Landeyjar CLS","name:is":"Kapallendingarstöð Landeyjar","operator":"Farice ehf","ref:HNITNUM":"10106041","source:addr":"Staðfangaskrá","telecom":"cable_landing_station","website":"https://www.farice.is/"},"coord_qc_status":"overpass_center"}},{"type":"Feature","geometry":{"type":"Point","coordinates":[-120.7191849,35.2769521]},"properties":{"osm_type":"way","osm_id":"196008167","source_id":"osm:way/196008167","name":"","operator":"AT&T","owner":"","cable_type":"crowd_telecom","status":"unknown","cable_names":[],"cable_count":0,"source":"OpenStreetMap","source_url":"https://gall.openstreetmap.de/api/interpreter","osm_url":"https://www.openstreetmap.org/way/196008167","license":"ODbL 1.0","attribution":"© OpenStreetMap contributors","fetched_at":"2026-08-18T15:08:41.735626+00:00","query_hash":"3129ece2af88c320e6611b4f1007771fc999bb2a7d147e9ed754f25a5cd4e3d7","coverage_note":"incomplete_crowdsourced","raw_tags":{"addr:city":"San Luis Obispo","addr:housenumber":"9401","addr:postcode":"93405","addr:state":"CA","addr:street":"Los Osos Valley Road","building":"service","operator":"AT&T","operator:short_name":"AT&T","telecom":"cable_landing_station"},"coord_qc_status":"overpass_center"}},{"type":"Feature","geometry":{"type":"Point","coordinates":[151.2106584,-33.7173619]},"properties":{"osm_type":"way","osm_id":"258258730","source_id":"osm:way/258258730","name":"Oxford Falls Cable Station","operator":"","owner":"","cable_type":"crowd_telecom","status":"unknown","cable_names":[],"cable_count":0,"source":"OpenStreetMap","source_url":"https://gall.openstreetmap.de/api/interpreter","osm_url":"https://www.openstreetmap.org/way/258258730","license":"ODbL 1.0","attribution":"© OpenStreetMap contributors","fetched_at":"2026-08-18T15:08:41.735626+00:00","query_hash":"3129ece2af88c320e6611b4f1007771fc999bb2a7d147e9ed754f25a5cd4e3d7","coverage_note":"incomplete_crowdsourced","raw_tags":{"building":"service","building:levels":"2","height":"6","name":"Oxford Falls Cable Station","telecom":"cable_landing_station"},"coord_qc_status":"overpass_center"}},{"type":"Feature","geometry":{"type":"Point","coordinates":[-3.0302309,53.7765668]},"properties":{"osm_type":"way","osm_id":"303243253","source_id":"osm:way/303243253","name":"Lanis 1 Cable Landing Station","operator":"Cable & Wireless","owner":"","cable_type":"crowd_telecom","status":"unknown","cable_names":[],"cable_count":0,"source":"OpenStreetMap","source_url":"https://gall.openstreetmap.de/api/interpreter","osm_url":"https://www.openstreetmap.org/way/303243253","license":"ODbL 1.0","attribution":"© OpenStreetMap contributors","fetched_at":"2026-08-18T15:08:41.735626+00:00","query_hash":"3129ece2af88c320e6611b4f1007771fc999bb2a7d147e9ed754f25a5cd4e3d7","coverage_note":"incomplete_crowdsourced","raw_tags":{"addr:postcode":"FY4 2RP","building":"cable_landing_station","name":"Lanis 1 Cable Landing Station","operator":"Cable & Wireless","ref:GB:uprn":"10008477773","source:addr:postcode":"ONSUD;OS Open UPRN","telecom":"cable_landing_station"},"coord_qc_status":"overpass_center"}},{"type":"Feature","geometry":{"type":"Point","coordinates":[-63.5614877,44.5618027]},"properties":{"osm_type":"way","osm_id":"310084118","source_id":"osm:way/310084118","name":"Herring Cove CLS","operator":"EXA Infrastructure","owner":"","cable_type":"crowd_telecom","status":"unknown","cable_names":[],"cable_count":0,"source":"OpenStreetMap","source_url":"https://gall.openstreetmap.de/api/interpreter","osm_url":"https://www.openstreetmap.org/way/310084118","license":"ODbL 1.0","attribution":"© OpenStreetMap contributors","fetched_at":"2026-08-18T15:08:41.735626+00:00","query_hash":"3129ece2af88c320e6611b4f1007771fc999bb2a7d147e9ed754f25a5cd4e3d7","coverage_note":"incomplete_crowdsourced","raw_tags":{"addr:city":"Herring Cove","addr:housenumber":"132","addr:postcode":"B3V 1J4","addr:province":"Nova Scotia","addr:street":"Ketch Harbour Road","building":"service","description":"EXA North and South; EXA Express","name":"Herring Cove CLS","old_operator":"GTT Communications;Hibernia Networks","operator":"EXA Infrastructure","telecom":"cable_landing_station"},"coord_qc_status":"overpass_center"}},{"type":"Feature","geometry":{"type":"Point","coordinates":[-5.67464,50.0639024]},"properties":{"osm_type":"way","osm_id":"313738624","source_id":"osm:way/313738624","name":"Skewjack Cable Landing Station","operator":"","owner":"","cable_type":"crowd_telecom","status":"unknown","cable_names":[],"cable_count":0,"source":"OpenStreetMap","source_url":"https://gall.openstreetmap.de/api/interpreter","osm_url":"https://www.openstreetmap.org/way/313738624","license":"ODbL 1.0","attribution":"© OpenStreetMap contributors","fetched_at":"2026-08-18T15:08:41.735626+00:00","query_hash":"3129ece2af88c320e6611b4f1007771fc999bb2a7d147e9ed754f25a5cd4e3d7","coverage_note":"incomplete_crowdsourced","raw_tags":{"building":"cable_landing_station","name":"Skewjack Cable Landing Station","telecom":"cable_landing_station"},"coord_qc_status":"overpass_center"}},{"type":"Feature","geometry":{"type":"Point","coordinates":[-5.6718673,50.0668213]},"properties":{"osm_type":"way","osm_id":"313739698","source_id":"osm:way/313739698","name":"Lands End Cable Landing Station","operator":"BT","owner":"","cable_type":"crowd_telecom","status":"unknown","cable_names":[],"cable_count":0,"source":"OpenStreetMap","source_url":"https://gall.openstreetmap.de/api/interpreter","osm_url":"https://www.openstreetmap.org/way/313739698","license":"ODbL 1.0","attribution":"© OpenStreetMap contributors","fetched_at":"2026-08-18T15:08:41.735626+00:00","query_hash":"3129ece2af88c320e6611b4f1007771fc999bb2a7d147e9ed754f25a5cd4e3d7","coverage_note":"incomplete_crowdsourced","raw_tags":{"building":"cable_landing_station","name":"Lands End Cable Landing Station","operator":"BT","roof:shape":"flat","telecom":"cable_landing_station"},"coord_qc_status":"overpass_center"}},{"type":"Feature","geometry":{"type":"Point","coordinates":[174.7479419,-36.792918]},"properties":{"osm_type":"way","osm_id":"324441707","source_id":"osm:way/324441707","name":"Southern Cross Takapuna Cable Landing Station","operator":"Southern Cross Cable","owner":"","cable_type":"crowd_telecom","status":"unknown","cable_names":[],"cable_count":0,"source":"OpenStreetMap","source_url":"https://gall.openstreetmap.de/api/interpreter","osm_url":"https://www.openstreetmap.org/way/324441707","license":"ODbL 1.0","attribution":"© OpenStreetMap contributors","fetched_at":"2026-08-18T15:08:41.735626+00:00","query_hash":"3129ece2af88c320e6611b4f1007771fc999bb2a7d147e9ed754f25a5cd4e3d7","coverage_note":"incomplete_crowdsourced","raw_tags":{"building":"yes","name":"Southern Cross Takapuna Cable Landing Station","operator":"Southern Cross Cable","telecom":"cable_landing_station"},"coord_qc_status":"overpass_center"}},{"type":"Feature","geometry":{"type":"Point","coordinates":[174.6264501,-36.7968958]},"properties":{"osm_type":"way","osm_id":"329573902","source_id":"osm:way/329573902","name":"Whenuapai Cable Landing Station","operator":"Spark NZ","owner":"","cable_type":"crowd_telecom","status":"unknown","cable_names":[],"cable_count":0,"source":"OpenStreetMap","source_url":"https://gall.openstreetmap.de/api/interpreter","osm_url":"https://www.openstreetmap.org/way/329573902","license":"ODbL 1.0","attribution":"© OpenStreetMap contributors","fetched_at":"2026-08-18T15:08:41.735626+00:00","query_hash":"3129ece2af88c320e6611b4f1007771fc999bb2a7d147e9ed754f25a5cd4e3d7","coverage_note":"incomplete_crowdsourced","raw_tags":{"building":"yes","name":"Whenuapai Cable Landing Station","operator":"Spark NZ","telecom":"cable_landing_station"},"coord_qc_status":"overpass_center"}},{"type":"Feature","geometry":{"type":"Point","coordinates":[-2.988063,53.6265451]},"properties":{"osm_type":"way","osm_id":"370012556","source_id":"osm:way/370012556","name":"Southport CLS","operator":"EXA Infrastructure","owner":"","cable_type":"crowd_telecom","status":"unknown","cable_names":[],"cable_count":0,"source":"OpenStreetMap","source_url":"https://gall.openstreetmap.de/api/interpreter","osm_url":"https://www.openstreetmap.org/way/370012556","license":"ODbL 1.0","attribution":"© OpenStreetMap contributors","fetched_at":"2026-08-18T15:08:41.735626+00:00","query_hash":"3129ece2af88c320e6611b4f1007771fc999bb2a7d147e9ed754f25a5cd4e3d7","coverage_note":"incomplete_crowdsourced","raw_tags":{"addr:city":"Southport","addr:housenumber":"4","addr:postcode":"PR8 4HQ","addr:street":"Wight Moss Way","building":"service","description":"EXA North and South","name":"Southport CLS","old_operator":"GTT Communications;Hibernia Networks","operator":"EXA Infrastructure","telecom":"cable_landing_station"},"coord_qc_status":"overpass_center"}},{"type":"Feature","geometry":{"type":"Point","coordinates":[-5.6632114,50.0559198]},"properties":{"osm_type":"way","osm_id":"444197674","source_id":"osm:way/444197674","name":"Cable & Wireless Cable Landing Station","operator":"Cable & Wireless","owner":"","cable_type":"crowd_telecom","status":"unknown","cable_names":[],"cable_count":0,"source":"OpenStreetMap","source_url":"https://gall.openstreetmap.de/api/interpreter","osm_url":"https://www.openstreetmap.org/way/444197674","license":"ODbL 1.0","attribution":"© OpenStreetMap contributors","fetched_at":"2026-08-18T15:08:41.735626+00:00","query_hash":"3129ece2af88c320e6611b4f1007771fc999bb2a7d147e9ed754f25a5cd4e3d7","coverage_note":"incomplete_crowdsourced","raw_tags":{"addr:country":"GB","addr:place":"Little Trethewey","addr:postcode":"TR19 6LR","building":"cable_landing_station","name":"Cable & Wireless Cable Landing Station","operator":"Cable & Wireless","source":"Bing;https://youtu.be/K_nnUbX7uuQ?t=391","telecom":"cable_landing_station","website":"https://www.cwc.com"},"coord_qc_status":"overpass_center"}},{"type":"Feature","geometry":{"type":"Point","coordinates":[-5.6750341,50.0806326]},"properties":{"osm_type":"way","osm_id":"458603045","source_id":"osm:way/458603045","name":"Whitesands Cable Landing Station","operator":"Level3 Communications","owner":"","cable_type":"crowd_telecom","status":"unknown","cable_names":[],"cable_count":0,"source":"OpenStreetMap","source_url":"https://gall.openstreetmap.de/api/interpreter","osm_url":"https://www.openstreetmap.org/way/458603045","license":"ODbL 1.0","attribution":"© OpenStreetMap contributors","fetched_at":"2026-08-18T15:08:41.735626+00:00","query_hash":"3129ece2af88c320e6611b4f1007771fc999bb2a7d147e9ed754f25a5cd4e3d7","coverage_note":"incomplete_crowdsourced","raw_tags":{"building":"cable_landing_station","name":"Whitesands Cable Landing Station","operator":"Level3 Communications","telecom":"cable_landing_station"},"coord_qc_status":"overpass_center"}},{"type":"Feature","geometry":{"type":"Point","coordinates":[-5.6847891,50.0747561]},"properties":{"osm_type":"way","osm_id":"458603047","source_id":"osm:way/458603047","name":"","operator":"Verizon","owner":"","cable_type":"crowd_telecom","status":"unknown","cable_names":[],"cable_count":0,"source":"OpenStreetMap","source_url":"https://gall.openstreetmap.de/api/interpreter","osm_url":"https://www.openstreetmap.org/way/458603047","license":"ODbL 1.0","attribution":"© OpenStreetMap contributors","fetched_at":"2026-08-18T15:08:41.735626+00:00","query_hash":"3129ece2af88c320e6611b4f1007771fc999bb2a7d147e9ed754f25a5cd4e3d7","coverage_note":"incomplete_crowdsourced","raw_tags":{"building":"cable_landing_station","operator":"Verizon","source":"https://www.youtube.com/watch?v=K_nnUbX7uuQ","telecom":"cable_landing_station"},"coord_qc_status":"overpass_center"}},{"type":"Feature","geometry":{"type":"Point","coordinates":[-5.6771037,50.0697925]},"properties":{"osm_type":"way","osm_id":"458603048","source_id":"osm:way/458603048","name":"","operator":"Virgin Media","owner":"","cable_type":"crowd_telecom","status":"unknown","cable_names":[],"cable_count":0,"source":"OpenStreetMap","source_url":"https://gall.openstreetmap.de/api/interpreter","osm_url":"https://www.openstreetmap.org/way/458603048","license":"ODbL 1.0","attribution":"© OpenStreetMap contributors","fetched_at":"2026-08-18T15:08:41.735626+00:00","query_hash":"3129ece2af88c320e6611b4f1007771fc999bb2a7d147e9ed754f25a5cd4e3d7","coverage_note":"incomplete_crowdsourced","raw_tags":{"building":"farm_auxiliary","comment":"Usage speculative","operator":"Virgin Media","telecom":"cable_landing_station"},"coord_qc_status":"overpass_center"}},{"type":"Feature","geometry":{"type":"Point","coordinates":[-5.675187,50.0811692]},"properties":{"osm_type":"way","osm_id":"458603189","source_id":"osm:way/458603189","name":"ESAT 1 Cable Landing Station","operator":"BT Ireland","owner":"","cable_type":"crowd_telecom","status":"unknown","cable_names":[],"cable_count":0,"source":"OpenStreetMap","source_url":"https://gall.openstreetmap.de/api/interpreter","osm_url":"https://www.openstreetmap.org/way/458603189","license":"ODbL 1.0","attribution":"© OpenStreetMap contributors","fetched_at":"2026-08-18T15:08:41.735626+00:00","query_hash":"3129ece2af88c320e6611b4f1007771fc999bb2a7d147e9ed754f25a5cd4e3d7","coverage_note":"incomplete_crowdsourced","raw_tags":{"building":"cable_landing_station","name":"ESAT 1 Cable Landing Station","operator":"BT Ireland","source":"https://www.youtube.com/watch?v=K_nnUbX7uuQ","telecom":"cable_landing_station"},"coord_qc_status":"overpass_center"}},{"type":"Feature","geometry":{"type":"Point","coordinates":[-4.5411409,50.8208817]},"properties":{"osm_type":"way","osm_id":"458775803","source_id":"osm:way/458775803","name":"Level3 Cable Landing Station","operator":"Lumen Technologies","owner":"","cable_type":"crowd_telecom","status":"unknown","cable_names":[],"cable_count":0,"source":"OpenStreetMap","source_url":"https://gall.openstreetmap.de/api/interpreter","osm_url":"https://www.openstreetmap.org/way/458775803","license":"ODbL 1.0","attribution":"© OpenStreetMap contributors","fetched_at":"2026-08-18T15:08:41.735626+00:00","query_hash":"3129ece2af88c320e6611b4f1007771fc999bb2a7d147e9ed754f25a5cd4e3d7","coverage_note":"incomplete_crowdsourced","raw_tags":{"building":"cable_landing_station","name":"Level3 Cable Landing Station","operator":"Lumen Technologies","operator:wikidata":"Q5063092","telecom":"cable_landing_station"},"coord_qc_status":"overpass_center"}},{"type":"Feature","geometry":{"type":"Point","coordinates":[-4.5306872,50.8198683]},"properties":{"osm_type":"way","osm_id":"458775806","source_id":"osm:way/458775806","name":"TAT14 Cable Landing Station","operator":"BT","owner":"","cable_type":"crowd_telecom","status":"unknown","cable_names":[],"cable_count":0,"source":"OpenStreetMap","source_url":"https://gall.openstreetmap.de/api/interpreter","osm_url":"https://www.openstreetmap.org/way/458775806","license":"ODbL 1.0","attribution":"© OpenStreetMap contributors","fetched_at":"2026-08-18T15:08:41.735626+00:00","query_hash":"3129ece2af88c320e6611b4f1007771fc999bb2a7d147e9ed754f25a5cd4e3d7","coverage_note":"incomplete_crowdsourced","raw_tags":{"building":"cable_landing_station","name":"TAT14 Cable Landing Station","note":"The main tat-14 cable has been removed","operator":"BT","telecom":"cable_landing_station"},"coord_qc_status":"overpass_center"}},{"type":"Feature","geometry":{"type":"Point","coordinates":[-4.5325627,50.8208195]},"properties":{"osm_type":"way","osm_id":"458775807","source_id":"osm:way/458775807","name":"","operator":"Vodafone","owner":"","cable_type":"crowd_telecom","status":"unknown","cable_names":[],"cable_count":0,"source":"OpenStreetMap","source_url":"https://gall.openstreetmap.de/api/interpreter","osm_url":"https://www.openstreetmap.org/way/458775807","license":"ODbL 1.0","attribution":"© OpenStreetMap contributors","fetched_at":"2026-08-18T15:08:41.735626+00:00","query_hash":"3129ece2af88c320e6611b4f1007771fc999bb2a7d147e9ed754f25a5cd4e3d7","coverage_note":"incomplete_crowdsourced","raw_tags":{"building":"cable_landing_station","operator":"Vodafone","telecom":"cable_landing_station"},"coord_qc_status":"overpass_center"}},{"type":"Feature","geometry":{"type":"Point","coordinates":[-4.5278305,50.8211577]},"properties":{"osm_type":"way","osm_id":"458775808","source_id":"osm:way/458775808","name":"","operator":"Verizon","owner":"","cable_type":"crowd_telecom","status":"unknown","cable_names":[],"cable_count":0,"source":"OpenStreetMap","source_url":"https://gall.openstreetmap.de/api/interpreter","osm_url":"https://www.openstreetmap.org/way/458775808","license":"ODbL 1.0","attribution":"© OpenStreetMap contributors","fetched_at":"2026-08-18T15:08:41.735626+00:00","query_hash":"3129ece2af88c320e6611b4f1007771fc999bb2a7d147e9ed754f25a5cd4e3d7","coverage_note":"incomplete_crowdsourced","raw_tags":{"building":"cable_landing_station","operator":"Verizon","telecom":"cable_landing_station"},"coord_qc_status":"overpass_center"}},{"type":"Feature","geometry":{"type":"Point","coordinates":[151.185207,-33.918588]},"properties":{"osm_type":"way","osm_id":"474805150","source_id":"osm:way/474805150","name":"Southern Cross Cable Network Landing Station","operator":"","owner":"","cable_type":"crowd_telecom","status":"unknown","cable_names":[],"cable_count":0,"source":"OpenStreetMap","source_url":"https://gall.openstreetmap.de/api/interpreter","osm_url":"https://www.openstreetmap.org/way/474805150","license":"ODbL 1.0","attribution":"© OpenStreetMap contributors","fetched_at":"2026-08-18T15:08:41.735626+00:00","query_hash":"3129ece2af88c320e6611b4f1007771fc999bb2a7d147e9ed754f25a5cd4e3d7","coverage_note":"incomplete_crowdsourced","raw_tags":{"addr:housenumber":"562","addr:postcode":"2015","addr:street":"Gardeners Road","addr:suburb":"Alexandria","addr:unit":"6","building":"yes","building:levels":"2","name":"Southern Cross Cable Network Landing Station","source_ref":"https://www.southerncrosscables.com/asset/cms/Brochures/SX_POP_Backhaul_Brochure_Nov_2014.pdf","telecom":"cable_landing_station"},"coord_qc_status":"overpass_center"}},{"type":"Feature","geometry":{"type":"Point","coordinates":[-123.7052442,38.9810364]},"properties":{"osm_type":"way","osm_id":"486820193","source_id":"osm:way/486820193","name":"Manchester CLS","operator":"RTI Infrastructure, Inc","owner":"Stornetta Ranch LLC","cable_type":"crowd_telecom","status":"unknown","cable_names":[],"cable_count":0,"source":"OpenStreetMap","source_url":"https://gall.openstreetmap.de/api/interpreter","osm_url":"https://www.openstreetmap.org/way/486820193","license":"ODbL 1.0","attribution":"© OpenStreetMap contributors","fetched_at":"2026-08-18T15:08:41.735626+00:00","query_hash":"3129ece2af88c320e6611b4f1007771fc999bb2a7d147e9ed754f25a5cd4e3d7","coverage_note":"incomplete_crowdsourced","raw_tags":{"access":"private","addr:city":"Manchester","addr:housenumber":"45001","addr:postcode":"95459","addr:state":"CA","addr:street":"Kinney Road","building":"service","name":"Manchester CLS","operator":"RTI Infrastructure, Inc","owner":"Stornetta Ranch LLC","telecom":"cable_landing_station"},"coord_qc_status":"overpass_center"}},{"type":"Feature","geometry":{"type":"Point","coordinates":[-9.209708,54.1932299]},"properties":{"osm_type":"way","osm_id":"616335910","source_id":"osm:way/616335910","name":"","operator":"America Europe Connect Limited","owner":"","cable_type":"crowd_telecom","status":"unknown","cable_names":[],"cable_count":0,"source":"OpenStreetMap","source_url":"https://gall.openstreetmap.de/api/interpreter","osm_url":"https://www.openstreetmap.org/way/616335910","license":"ODbL 1.0","attribution":"© OpenStreetMap contributors","fetched_at":"2026-08-18T15:08:41.735626+00:00","query_hash":"3129ece2af88c320e6611b4f1007771fc999bb2a7d147e9ed754f25a5cd4e3d7","coverage_note":"incomplete_crowdsourced","raw_tags":{"barrier":"fence","description":"Landing station for international fibre-optic cable(s).","landuse":"industrial","operator":"America Europe Connect Limited","telecom":"cable_landing_station","telecom:medium":"fibre","utility":"telecom"},"coord_qc_status":"overpass_center"}},{"type":"Feature","geometry":{"type":"Point","coordinates":[-123.9676741,45.2145347]},"properties":{"osm_type":"way","osm_id":"698281598","source_id":"osm:way/698281598","name":"Pacific City CLS (TL)","operator":"Tillamook Lightwave","owner":"","cable_type":"crowd_telecom","status":"unknown","cable_names":[],"cable_count":0,"source":"OpenStreetMap","source_url":"https://gall.openstreetmap.de/api/interpreter","osm_url":"https://www.openstreetmap.org/way/698281598","license":"ODbL 1.0","attribution":"© OpenStreetMap contributors","fetched_at":"2026-08-18T15:08:41.735626+00:00","query_hash":"3129ece2af88c320e6611b4f1007771fc999bb2a7d147e9ed754f25a5cd4e3d7","coverage_note":"incomplete_crowdsourced","raw_tags":{"access":"private","addr:city":"Pacific City","addr:housenumber":"33395","addr:postcode":"97112","addr:state":"OR","addr:street":"Cape Kiwanda Drive","alt_name":"Pacific City Cable Landing Station","building":"service","description":"Hawaiki (PFE)","name":"Pacific City CLS (TL)","operator":"Tillamook Lightwave","operator:short":"TL","telecom":"cable_landing_station","utility":"telecom"},"coord_qc_status":"overpass_center"}},{"type":"Feature","geometry":{"type":"Point","coordinates":[-123.9379309,45.6414778]},"properties":{"osm_type":"way","osm_id":"699531374","source_id":"osm:way/699531374","name":"Nedonna Beach CLS","operator":"Alaska Communications (ACS)","owner":"","cable_type":"crowd_telecom","status":"unknown","cable_names":[],"cable_count":0,"source":"OpenStreetMap","source_url":"https://gall.openstreetmap.de/api/interpreter","osm_url":"https://www.openstreetmap.org/way/699531374","license":"ODbL 1.0","attribution":"© OpenStreetMap contributors","fetched_at":"2026-08-18T15:08:41.735626+00:00","query_hash":"3129ece2af88c320e6611b4f1007771fc999bb2a7d147e9ed754f25a5cd4e3d7","coverage_note":"incomplete_crowdsourced","raw_tags":{"access":"private","addr:city":"Rockaway Beach","addr:housenumber":"25589","addr:postcode":"97141","addr:state":"OR","addr:street":"Highway 101","building":"service","description":"NorthStar (PFE); Southern Cross Cable Network (SCCN) (PFE); Tata TGN-Pacific (PFE); Trans-Pacific Express (TPE) Cable System (PFE)","name":"Nedonna Beach CLS","operator":"Alaska Communications (ACS)","telecom":"cable_landing_station","utility":"telecom"},"coord_qc_status":"overpass_center"}},{"type":"Feature","geometry":{"type":"Point","coordinates":[-158.1284029,21.3496562]},"properties":{"osm_type":"way","osm_id":"801826769","source_id":"osm:way/801826769","name":"Hawaiki Cable Landing Station","operator":"","owner":"","cable_type":"crowd_telecom","status":"unknown","cable_names":[],"cable_count":0,"source":"OpenStreetMap","source_url":"https://gall.openstreetmap.de/api/interpreter","osm_url":"https://www.openstreetmap.org/way/801826769","license":"ODbL 1.0","attribution":"© OpenStreetMap contributors","fetched_at":"2026-08-18T15:08:41.735626+00:00","query_hash":"3129ece2af88c320e6611b4f1007771fc999bb2a7d147e9ed754f25a5cd4e3d7","coverage_note":"incomplete_crowdsourced","raw_tags":{"addr:city":"Kapolei","addr:postcode":"96707","addr:state":"HI","addr:street":"Farrington Highway","building":"service","name":"Hawaiki Cable Landing Station","telecom":"cable_landing_station","website":"https://www.hawaiki.co.nz/"},"coord_qc_status":"overpass_center"}},{"type":"Feature","geometry":{"type":"Point","coordinates":[18.4496701,-33.6932797]},"properties":{"osm_type":"way","osm_id":"836844163","source_id":"osm:way/836844163","name":"Duynefontein CLS","operator":"MTN Global Connect","owner":"","cable_type":"crowd_telecom","status":"unknown","cable_names":[],"cable_count":0,"source":"OpenStreetMap","source_url":"https://gall.openstreetmap.de/api/interpreter","osm_url":"https://www.openstreetmap.org/way/836844163","license":"ODbL 1.0","attribution":"© OpenStreetMap contributors","fetched_at":"2026-08-18T15:08:41.735626+00:00","query_hash":"3129ece2af88c320e6611b4f1007771fc999bb2a7d147e9ed754f25a5cd4e3d7","coverage_note":"incomplete_crowdsourced","raw_tags":{"addr:city":"Cape Town","addr:postcode":"7441","addr:province":"Western Cape","addr:street":"Napoleon Avenue","addr:suburb":"Duynefontein","building":"service","description":"2Africa","name":"Duynefontein CLS","operator":"MTN Global Connect","telecom":"cable_landing_station","utility":"telecom"},"coord_qc_status":"overpass_center"}},{"type":"Feature","geometry":{"type":"Point","coordinates":[-124.3838913,43.2476757]},"properties":{"osm_type":"way","osm_id":"849866087","source_id":"osm:way/849866087","name":"Bandon CLS (Lumen)","operator":"Lumen Technologies","owner":"","cable_type":"crowd_telecom","status":"unknown","cable_names":[],"cable_count":0,"source":"OpenStreetMap","source_url":"https://gall.openstreetmap.de/api/interpreter","osm_url":"https://www.openstreetmap.org/way/849866087","license":"ODbL 1.0","attribution":"© OpenStreetMap contributors","fetched_at":"2026-08-18T15:08:41.735626+00:00","query_hash":"3129ece2af88c320e6611b4f1007771fc999bb2a7d147e9ed754f25a5cd4e3d7","coverage_note":"incomplete_crowdsourced","raw_tags":{"access":"private","addr:city":"Bandon","addr:housenumber":"88661","addr:postcode":"97411","addr:state":"OR","addr:street":"Wickizer Lane","building":"service","description":"FASTER (PFE/SLTE)","name":"Bandon CLS (Lumen)","operator":"Lumen Technologies","operator:short_name":"Lumen","operator:wikidata":"Q5063092","telecom":"cable_landing_station","utility":"telecom"},"coord_qc_status":"overpass_center"}},{"type":"Feature","geometry":{"type":"Point","coordinates":[174.5761647,-36.0736329]},"properties":{"osm_type":"way","osm_id":"907515176","source_id":"osm:way/907515176","name":"Hawaiki Cable - Mangawhai Heads Cable Landing Station","operator":"BW Digial","owner":"","cable_type":"crowd_telecom","status":"unknown","cable_names":[],"cable_count":0,"source":"OpenStreetMap","source_url":"https://gall.openstreetmap.de/api/interpreter","osm_url":"https://www.openstreetmap.org/way/907515176","license":"ODbL 1.0","attribution":"© OpenStreetMap contributors","fetched_at":"2026-08-18T15:08:41.735626+00:00","query_hash":"3129ece2af88c320e6611b4f1007771fc999bb2a7d147e9ed754f25a5cd4e3d7","coverage_note":"incomplete_crowdsourced","raw_tags":{"building":"yes","name":"Hawaiki Cable - Mangawhai Heads Cable Landing Station","operator":"BW Digial","telecom":"cable_landing_station"},"coord_qc_status":"overpass_center"}},{"type":"Feature","geometry":{"type":"Point","coordinates":[174.843442,-37.8130137]},"properties":{"osm_type":"way","osm_id":"907518526","source_id":"osm:way/907518526","name":"Raglan Cable Landing Station","operator":"Vodafone New Zealand","owner":"","cable_type":"crowd_telecom","status":"unknown","cable_names":[],"cable_count":0,"source":"OpenStreetMap","source_url":"https://gall.openstreetmap.de/api/interpreter","osm_url":"https://www.openstreetmap.org/way/907518526","license":"ODbL 1.0","attribution":"© OpenStreetMap contributors","fetched_at":"2026-08-18T15:08:41.735626+00:00","query_hash":"3129ece2af88c320e6611b4f1007771fc999bb2a7d147e9ed754f25a5cd4e3d7","coverage_note":"incomplete_crowdsourced","raw_tags":{"building":"yes","name":"Raglan Cable Landing Station","operator":"Vodafone New Zealand","telecom":"cable_landing_station"},"coord_qc_status":"overpass_center"}},{"type":"Feature","geometry":{"type":"Point","coordinates":[-124.1133785,43.9943976]},"properties":{"osm_type":"way","osm_id":"1116370472","source_id":"osm:way/1116370472","name":"Florence CLS","operator":"Alaska Communications (ACS)","owner":"","cable_type":"crowd_telecom","status":"unknown","cable_names":[],"cable_count":0,"source":"OpenStreetMap","source_url":"https://gall.openstreetmap.de/api/interpreter","osm_url":"https://www.openstreetmap.org/way/1116370472","license":"ODbL 1.0","attribution":"© OpenStreetMap contributors","fetched_at":"2026-08-18T15:08:41.735626+00:00","query_hash":"3129ece2af88c320e6611b4f1007771fc999bb2a7d147e9ed754f25a5cd4e3d7","coverage_note":"incomplete_crowdsourced","raw_tags":{"access":"private","addr:city":"Florence","addr:housenumber":"3155","addr:postcode":"97439","addr:state":"OR","addr:street":"Pacific View Drive","building":"service","description":"ACS Alaska-Oregon Network (AKORN) (PFE/SLTE)","name":"Florence CLS","operator":"Alaska Communications (ACS)","source":"microsoft/BuildingFootprints","telecom":"cable_landing_station","utility":"telecom"},"coord_qc_status":"overpass_center"}},{"type":"Feature","geometry":{"type":"Point","coordinates":[-124.3854815,43.2514827]},"properties":{"osm_type":"way","osm_id":"1125255454","source_id":"osm:way/1125255454","name":"Bandon CLS (AT&T)","operator":"AT&T","owner":"","cable_type":"crowd_telecom","status":"unknown","cable_names":[],"cable_count":0,"source":"OpenStreetMap","source_url":"https://gall.openstreetmap.de/api/interpreter","osm_url":"https://www.openstreetmap.org/way/1125255454","license":"ODbL 1.0","attribution":"© OpenStreetMap contributors","fetched_at":"2026-08-18T15:08:41.735626+00:00","query_hash":"3129ece2af88c320e6611b4f1007771fc999bb2a7d147e9ed754f25a5cd4e3d7","coverage_note":"incomplete_crowdsourced","raw_tags":{"access":"private","addr:city":"Bandon","addr:housenumber":"88665","addr:postcode":"97411","addr:state":"OR","addr:street":"Wickizer Lane","building":"service","description":"China-US Cable Network (CUCN) (PFE/SLTE); TPC-5 Cable Network (TPC-5) (PFE/SLTE)","disused":"yes","name":"Bandon CLS (AT&T)","note":"disused CUCN and TPC-5 site","operator":"AT&T","operator:short_name":"AT&T","operator:wikidata":"Q181273","telecom":"cable_landing_station","utility":"telecom"},"coord_qc_status":"overpass_center"}},{"type":"Feature","geometry":{"type":"Point","coordinates":[-123.9574896,45.2313393]},"properties":{"osm_type":"way","osm_id":"1155152098","source_id":"osm:way/1155152098","name":"Pacific City CLS (MIG)","operator":"Microsoft Infrastructure Group (Edge Cable)","owner":"","cable_type":"crowd_telecom","status":"unknown","cable_names":[],"cable_count":0,"source":"OpenStreetMap","source_url":"https://gall.openstreetmap.de/api/interpreter","osm_url":"https://www.openstreetmap.org/way/1155152098","license":"ODbL 1.0","attribution":"© OpenStreetMap contributors","fetched_at":"2026-08-18T15:08:41.735626+00:00","query_hash":"3129ece2af88c320e6611b4f1007771fc999bb2a7d147e9ed754f25a5cd4e3d7","coverage_note":"incomplete_crowdsourced","raw_tags":{"access":"private","addr:city":"Pacific City","addr:housenumber":"31305","addr:postcode":"97112","addr:state":"OR","addr:street":"Sandlake Road","building":"service","description":"JUPITER (PFE); New Cross Pacific (NCP) Cable System (PFE)","name":"Pacific City CLS (MIG)","operator":"Microsoft Infrastructure Group (Edge Cable)","operator:short":"MIG","source":"microsoft/BuildingFootprints","telecom":"cable_landing_station","utility":"telecom"},"coord_qc_status":"overpass_center"}},{"type":"Feature","geometry":{"type":"Point","coordinates":[-6.6767552,55.1579463]},"properties":{"osm_type":"way","osm_id":"1264219151","source_id":"osm:way/1264219151","name":"","operator":"Hibernia Atlantic","owner":"","cable_type":"crowd_telecom","status":"unknown","cable_names":[],"cable_count":0,"source":"OpenStreetMap","source_url":"https://gall.openstreetmap.de/api/interpreter","osm_url":"https://www.openstreetmap.org/way/1264219151","license":"ODbL 1.0","attribution":"© OpenStreetMap contributors","fetched_at":"2026-08-18T15:08:41.735626+00:00","query_hash":"3129ece2af88c320e6611b4f1007771fc999bb2a7d147e9ed754f25a5cd4e3d7","coverage_note":"incomplete_crowdsourced","raw_tags":{"barrier":"fence","description":"Landing station for international fibre-optic cable(s).","landuse":"industrial","operator":"Hibernia Atlantic","operator:wikidata":"Q3135155","telecom":"cable_landing_station","telecom:medium":"fibre","utility":"telecom"},"coord_qc_status":"overpass_center"}},{"type":"Feature","geometry":{"type":"Point","coordinates":[-171.7462666,-13.8479083]},"properties":{"osm_type":"way","osm_id":"1384830610","source_id":"osm:way/1384830610","name":"Samoa Submarine Cable Company Compound","operator":"","owner":"","cable_type":"crowd_telecom","status":"unknown","cable_names":[],"cable_count":0,"source":"OpenStreetMap","source_url":"https://gall.openstreetmap.de/api/interpreter","osm_url":"https://www.openstreetmap.org/way/1384830610","license":"ODbL 1.0","attribution":"© OpenStreetMap contributors","fetched_at":"2026-08-18T15:08:41.735626+00:00","query_hash":"3129ece2af88c320e6611b4f1007771fc999bb2a7d147e9ed754f25a5cd4e3d7","coverage_note":"incomplete_crowdsourced","raw_tags":{"landuse":"industrial","name":"Samoa Submarine Cable Company Compound","ref":"Samoa Submarine Cable Company Landing Station [Fibre Optic Exchange]","telecom":"cable_landing_station"},"coord_qc_status":"overpass_center"}},{"type":"Feature","geometry":{"type":"Point","coordinates":[138.5078651,-34.9581998]},"properties":{"osm_type":"way","osm_id":"1443133409","source_id":"osm:way/1443133409","name":"Adelaide Cable Landing Station","operator":"SUBCO Pty Ltd","owner":"","cable_type":"crowd_telecom","status":"unknown","cable_names":[],"cable_count":0,"source":"OpenStreetMap","source_url":"https://gall.openstreetmap.de/api/interpreter","osm_url":"https://www.openstreetmap.org/way/1443133409","license":"ODbL 1.0","attribution":"© OpenStreetMap contributors","fetched_at":"2026-08-18T15:08:41.735626+00:00","query_hash":"3129ece2af88c320e6611b4f1007771fc999bb2a7d147e9ed754f25a5cd4e3d7","coverage_note":"incomplete_crowdsourced","raw_tags":{"addr:postcode":"5024","addr:state":"SA","addr:street":"Barcoo Road","addr:suburb":"West Beach","building":"yes","name":"Adelaide Cable Landing Station","operator":"SUBCO Pty Ltd","ref":"Adelaide CLS","telecom":"cable_landing_station","telecom:medium":"fibre"},"coord_qc_status":"overpass_center"}},{"type":"Feature","geometry":{"type":"Point","coordinates":[-123.9647739,45.1471978]},"properties":{"osm_type":"way","osm_id":"1487030042","source_id":"osm:way/1487030042","name":"Winema CLS","operator":"Astound","owner":"","cable_type":"crowd_telecom","status":"unknown","cable_names":[],"cable_count":0,"source":"OpenStreetMap","source_url":"https://gall.openstreetmap.de/api/interpreter","osm_url":"https://www.openstreetmap.org/way/1487030042","license":"ODbL 1.0","attribution":"© OpenStreetMap contributors","fetched_at":"2026-08-18T15:08:41.735626+00:00","query_hash":"3129ece2af88c320e6611b4f1007771fc999bb2a7d147e9ed754f25a5cd4e3d7","coverage_note":"incomplete_crowdsourced","raw_tags":{"access":"private","addr:city":"Cloverdale","addr:housenumber":"5611","addr:postcode":"97112","addr:state":"OR","addr:street":"Winema Road","building":"service","description":"Bifrost (PFE)","name":"Winema CLS","operator":"Astound","telecom":"cable_landing_station","utility":"telecom"},"coord_qc_status":"overpass_center"}},{"type":"Feature","geometry":{"type":"Point","coordinates":[-122.2965554,47.8921215]},"properties":{"osm_type":"way","osm_id":"1501953140","source_id":"osm:way/1501953140","name":"Harbour Pointe Cable Landing Station","operator":"Pacific Crossing Ltd","owner":"","cable_type":"crowd_telecom","status":"unknown","cable_names":[],"cable_count":0,"source":"OpenStreetMap","source_url":"https://gall.openstreetmap.de/api/interpreter","osm_url":"https://www.openstreetmap.org/way/1501953140","license":"ODbL 1.0","attribution":"© OpenStreetMap contributors","fetched_at":"2026-08-18T15:08:41.735626+00:00","query_hash":"3129ece2af88c320e6611b4f1007771fc999bb2a7d147e9ed754f25a5cd4e3d7","coverage_note":"incomplete_crowdsourced","raw_tags":{"addr:city":"Mukilteo","addr:housenumber":"11781","addr:postcode":"98275","addr:state":"WA","addr:street":"Harbour Reach Drive","brand":"NTT Ltd","building":"service","description":"Pacific Crossing-1 (PC-1) (PFE/SLTE)","name":"Harbour Pointe Cable Landing Station","operator":"Pacific Crossing Ltd","telecom":"cable_landing_station","website":"https://www.pc1.com/"},"coord_qc_status":"overpass_center"}},{"type":"Feature","geometry":{"type":"Point","coordinates":[-155.8130968,20.0049033]},"properties":{"osm_type":"way","osm_id":"1502076977","source_id":"osm:way/1502076977","name":"Kawaihae CLS","operator":"Hawaiian Telcom, Inc","owner":"","cable_type":"crowd_telecom","status":"unknown","cable_names":[],"cable_count":0,"source":"OpenStreetMap","source_url":"https://gall.openstreetmap.de/api/interpreter","osm_url":"https://www.openstreetmap.org/way/1502076977","license":"ODbL 1.0","attribution":"© OpenStreetMap contributors","fetched_at":"2026-08-18T15:08:41.735626+00:00","query_hash":"3129ece2af88c320e6611b4f1007771fc999bb2a7d147e9ed754f25a5cd4e3d7","coverage_note":"incomplete_crowdsourced","raw_tags":{"addr:city":"Waimea","addr:postcode":"96743","addr:state":"HI","addr:street":"Queen Kaahumanu Highway","building":"service","description":"Hawaii Inter-Island Cable System; Hawaii Island Fibre Network (HIFN); Honotua; Paniolo Cable Network (HICS)","name":"Kawaihae CLS","operator":"Hawaiian Telcom, Inc","telecom":"cable_landing_station"},"coord_qc_status":"overpass_center"}},{"type":"Feature","geometry":{"type":"Point","coordinates":[-155.8132737,20.015001]},"properties":{"osm_type":"way","osm_id":"1502076978","source_id":"osm:way/1502076978","name":"Spencer Beach CLS","operator":"Hawaiian Telcom, Inc","owner":"","cable_type":"crowd_telecom","status":"unknown","cable_names":[],"cable_count":0,"source":"OpenStreetMap","source_url":"https://gall.openstreetmap.de/api/interpreter","osm_url":"https://www.openstreetmap.org/way/1502076978","license":"ODbL 1.0","attribution":"© OpenStreetMap contributors","fetched_at":"2026-08-18T15:08:41.735626+00:00","query_hash":"3129ece2af88c320e6611b4f1007771fc999bb2a7d147e9ed754f25a5cd4e3d7","coverage_note":"incomplete_crowdsourced","raw_tags":{"addr:city":"Waimea","addr:housenumber":"62-3440","addr:postcode":"96743","addr:state":"HI","addr:street":"Queen Kaahumanu Highway","building":"service","description":"Southern Cross Cable Network (SCCN)","name":"Spencer Beach CLS","operator":"Hawaiian Telcom, Inc","telecom":"cable_landing_station"},"coord_qc_status":"overpass_center"}},{"type":"Feature","geometry":{"type":"Point","coordinates":[125.5445026,7.0550077]},"properties":{"osm_type":"way","osm_id":"1502179804","source_id":"osm:way/1502179804","name":"Davao CLS","operator":"Globe Telecom","owner":"","cable_type":"crowd_telecom","status":"unknown","cable_names":[],"cable_count":0,"source":"OpenStreetMap","source_url":"https://gall.openstreetmap.de/api/interpreter","osm_url":"https://www.openstreetmap.org/way/1502179804","license":"ODbL 1.0","attribution":"© OpenStreetMap contributors","fetched_at":"2026-08-18T15:08:41.735626+00:00","query_hash":"3129ece2af88c320e6611b4f1007771fc999bb2a7d147e9ed754f25a5cd4e3d7","coverage_note":"incomplete_crowdsourced","raw_tags":{"addr:city":"Davao City","addr:district":"Talomo","addr:province":"Davao del Sur","addr:street":"Davao-Bukidnon Road","addr:suburb":"Talomo","description":"SEA-US; PDSCN","name":"Davao CLS","operator":"Globe Telecom","telecom":"cable_landing_station","utility":"telecom"},"coord_qc_status":"overpass_center"}}]}