{"type": "FeatureCollection", "properties": {"description": "國道服務區點位", "date": "20260524", "source": "高速公路局開放資料 (id=85)"}, "features": [{"type": "Feature", "geometry": {"type": "Point", "coordinates": [121.251681, 25.003975]}, "properties": {"Name": "中壢", "Freeway": "國1", "Location": "國道1號55k", "Direction": "南北向同一側", "Address": "桃園市中壢區內定里20鄰內定二街998之3號", "Operator": "南仁湖育樂股份有限公司", "OperationPeriod": "2019.06.01~2030.05.31", "Theme": "以「健康樂活運動休閒」為區站主題，並以「趣遊台灣」為主軸，運用棒球球場為平面配置的藍圖，中央區域規劃Fun生活文創市集及休憩座位區，休憩座位區結合戶外草坪綠地景觀。"}}, {"type": "Feature", "geometry": {"type": "Point", "coordinates": [121.012073, 24.860986]}, "properties": {"Name": "湖口", "Freeway": "國1", "Location": "國道1號86k", "Direction": "北上", "Address": "新竹縣湖口鄉鳳山村12鄰榮光路158號", "Operator": "南仁湖育樂股份有限公司", "OperationPeriod": "2019.06.01~2030.05.31", "Theme": "以「懷舊老街與LINE文創」為區站主題，Line貼圖主題布置，與原有林蔭大道結合互動，在地風景林蔭大道與ㄌㄞˋ在湖口的空間營造，打造多樣性的生態池。"}}, {"type": "Feature", "geometry": {"type": "Point", "coordinates": [121.009377, 24.857193]}, "properties": {"Name": "湖口", "Freeway": "國1", "Location": "國道1號86k", "Direction": "南下", "Address": "新竹縣湖口鄉鳳山村8鄰國強街1巷8號", "Operator": "南仁湖育樂股份有限公司", "OperationPeriod": "2019.06.01~2030.05.31", "Theme": "以「懷舊老街與LINE文創」為區站主題，Line貼圖主題布置，與原有林蔭大道結合互動，在地風景林蔭大道與ㄌㄞˋ在湖口的空間營造，打造多樣性的生態池。"}}, {"type": "Feature", "geometry": {"type": "Point", "coordinates": [120.71655, 24.328761]}, "properties": {"Name": "泰安", "Freeway": "國1", "Location": "國道1號158k+600", "Direction": "北上", "Address": "台中市后里區月眉里九甲七路400號", "Operator": "統一超商股份有限公司", "OperationPeriod": "2019.03.01~2030.02.28", "Theme": "以「山暖花開遊樂園」為佈設主題，運用「花卉、森林」元素，融入空間設計意象，讓整個服務區瀰漫山暖花開般地歡樂與幸福感。戶外公共藝術「安安的奇幻樂園」為國道史上第一個民眾可以「視覺觀賞→觸摸→甚至玩樂」的公共藝術！"}}, {"type": "Feature", "geometry": {"type": "Point", "coordinates": [120.711583, 24.330575]}, "properties": {"Name": "泰安", "Freeway": "國1", "Location": "國道1號158k+600", "Direction": "南下", "Address": "台中市后里區月眉里安眉路113號", "Operator": "統一超商股份有限公司", "OperationPeriod": "2019.03.01~2030.02.28", "Theme": "以「花串音樂館」為佈設主題，運用「「花串、音樂、祈福」元素，融入空間設計意象，讓整個服務區瀰漫山暖花開般地歡樂與幸福感。戶外2座大型公共藝術「花園中的音樂木馬」、「餐桌下的秘密基地」，結合了后里區最著名的人文與觀光印象，打造一個夢幻的主題樂園。"}}, {"type": "Feature", "geometry": {"type": "Point", "coordinates": [120.479301, 23.788585]}, "properties": {"Name": "西螺", "Freeway": "國1", "Location": "國道1號229k+624", "Direction": "北上", "Address": "雲林縣西螺鎮振興里2號", "Operator": "新東陽股份有限公司", "OperationPeriod": "2022.03.02~2031.03.01", "Theme": "區站主題『雲禾香林』命名，北站以「文化」為意象：「金光迓熱鬧」廟宇香林冉輕煙、遶境藝陣掌乾坤、北溪龍安剪紙村、媽祖駕到、布袋戲文創館。"}}, {"type": "Feature", "geometry": {"type": "Point", "coordinates": [120.477561, 23.788731]}, "properties": {"Name": "西螺", "Freeway": "國1", "Location": "國道1號229k+624", "Direction": "南下", "Address": "雲林縣西螺鎮振興里1號", "Operator": "新東陽股份有限公司", "OperationPeriod": "2022.03.02~2031.03.01", "Theme": "區站主題『雲禾香林』命名，南站以「物產」為意象：「呷禾豆相報」綠田稻浪米飄香、黑豆青仁醬味甘、山農漁海西瓜甜、西螺便當、中沙大橋友誼永存紀念碑、醬油甕缸。"}}, {"type": "Feature", "geometry": {"type": "Point", "coordinates": [120.312303, 23.339371]}, "properties": {"Name": "新營", "Freeway": "國1", "Location": "國道1號284k", "Direction": "北上", "Address": "台南市後壁區竹新里新厝72號", "Operator": "全家便利超商股份有限公司", "OperationPeriod": "2023.03.02~2032.03.01", "Theme": "北上主題為「魚塭、候鳥」，入口地貌景觀以由地面突起之擋土牆體呈現候鳥拍翅翱翔於天際之姿態，植栽選植春夏季優雅的白、黃花喬木原生種，呈現一致色調的清新氛圍，映襯著建築與地景，就宛如候鳥拍動著羽翼飛翔於天空的優雅景色。讓用路人能以活潑輕盈、愉快舒適的心情踏上返程。"}}, {"type": "Feature", "geometry": {"type": "Point", "coordinates": [120.312183, 23.339347]}, "properties": {"Name": "新營", "Freeway": "國1", "Location": "國道1號284k", "Direction": "南下", "Address": "台南市後壁區竹新里新厝69號", "Operator": "全家便利超商股份有限公司", "OperationPeriod": "2023.03.02~2032.03.01", "Theme": "南下主題為「稻田」，藉由配植四季多變的原生種和變葉落葉喬木，使基地在每個季節皆有花朵盛開，配合入口景觀區矩形地坪堆疊的造型來呼應基地周邊環境的金黃色稻田風貌，走在其中彷彿置身於稻浪之中，帶給用路人豐富有趣的感受及體驗。"}}, {"type": "Feature", "geometry": {"type": "Point", "coordinates": [120.266114, 22.906519]}, "properties": {"Name": "仁德", "Freeway": "國1", "Location": "國道1號335k", "Direction": "北上", "Address": "台南市仁德區中洲路1巷200號", "Operator": "統一超商股份有限公司", "OperationPeriod": "2019.06.01~2028.05.31", "Theme": "南站以「傳承印象古都」、北站以「再創科技魅力」為主題。"}}, {"type": "Feature", "geometry": {"type": "Point", "coordinates": [120.265106, 22.905878]}, "properties": {"Name": "仁德", "Freeway": "國1", "Location": "國道1號335k", "Direction": "南下", "Address": "台南市仁德區中洲路1巷220號", "Operator": "統一超商股份有限公司", "OperationPeriod": "2019.06.01~2028.05.31", "Theme": "南站以「傳承印象古都」、北站以「再創科技魅力」為主題。"}}, {"type": "Feature", "geometry": {"type": "Point", "coordinates": [121.192444, 24.801086]}, "properties": {"Name": "關西", "Freeway": "國3", "Location": "國道3號77k", "Direction": "南北向同一側", "Address": "新竹縣關西鎮東安里上三屯14號", "Operator": "新東陽股份有限公司", "OperationPeriod": "2025.06.01~2028.05.31", "Theme": "以「關西萬花桐、遶?好in景」主題，結合在地特色、區站美景及客家美食，邀請用路人來遊玩，享受樂活、慢遊。"}}, {"type": "Feature", "geometry": {"type": "Point", "coordinates": [120.760588, 24.565114]}, "properties": {"Name": "西湖", "Freeway": "國3", "Location": "國道3號134ｋ+860", "Direction": "北上", "Address": "苗栗縣西湖鄉湖東村8鄰埔頂29號", "Operator": "新東陽股份有限公司", "OperationPeriod": "2024.03.01~2033.03.01", "Theme": "淘氣石虎迎賓﹣營造成充滿童趣，隨時有笑聲的歡樂廣場，讓小朋友來到服務區有個安全的活動空間，廣場的周圍將設置自動吹泡泡機，在一定的時刻，廣場四周的泡泡吹起，將帶動起一陣歡樂的美好時光體驗。"}}, {"type": "Feature", "geometry": {"type": "Point", "coordinates": [120.759301, 24.565638]}, "properties": {"Name": "西湖", "Freeway": "國3", "Location": "國道3號134ｋ+860", "Direction": "南下", "Address": "苗栗縣西湖鄉湖東村8鄰埔頂29號", "Operator": "新東陽股份有限公司", "OperationPeriod": "2024.03.01~2033.03.01", "Theme": "嬌羞石虎迎賓﹣取苗栗的山城意象、森林中魔法村落的家，加上在地的淺山生物石虎與螢火蟲，用可愛的擬人卡通化風格，營造了國道西湖魔法村迎賓立面牆，用有趣的嬌羞石虎，來表達期望大家對石虎應有的的愛護，愛它認識它但是不要打擾他們。"}}, {"type": "Feature", "geometry": {"type": "Point", "coordinates": [120.601283, 24.281388]}, "properties": {"Name": "清水", "Freeway": "國3", "Location": "國道3號172k+600", "Direction": "南北向同一側", "Address": "台中市清水區吳厝二街89號", "Operator": "統一超商股份有限公司", "OperationPeriod": "2024.03.01~2033.02.28", "Theme": "以「清水風帆馳乘飛翔」為主題，清水服務區建築外觀以船舶意象為設計，有如一艘揚帆出航的清水服務區，連結「清水」地區自然與人文景觀特色，作為服務區的營運內容及空間素材，打造一個結合在地特色。室內設計主題概念：延續「船舶」概念，打造搭載著在地風情的探索船；3樓外觀以「招潮蟹」為設計意象，呼應高美濕地的設計風格。"}}, {"type": "Feature", "geometry": {"type": "Point", "coordinates": [120.711272, 23.899914]}, "properties": {"Name": "南投", "Freeway": "國3", "Location": "國道3號231k+598", "Direction": "南北向同一側", "Address": "南投縣南投市南鄉路250巷142弄6號", "Operator": "新東陽股份有限公司", "OperationPeriod": "2023.05.01~2032.04.30", "Theme": "以「山林嬉．鴞遙遊．繪南投」為區站主題，將南投地區的人文工藝、自然風光、特產美食與境內原住民族的豐富文化完美融合，打造國道最具特色的區站。"}}, {"type": "Feature", "geometry": {"type": "Point", "coordinates": [120.544578, 23.608467]}, "properties": {"Name": "古坑", "Freeway": "國3", "Location": "國道3號276k", "Direction": "南北向同一側", "Address": "雲林縣古坑鄉崁腳村五鄰新興100號", "Operator": "南仁湖育樂股份有限公司", "OperationPeriod": "2022.09.01~2031.08.31", "Theme": "以『花饗古坑 希望旅程』作為規劃主題，將繽紛花卉的色彩及線條融入空間規劃設計，並延伸花語的精神，提供更多美麗、貼心、溫柔地空間與服務期能打造以花卉、女性為主題的多元服務空間。"}}, {"type": "Feature", "geometry": {"type": "Point", "coordinates": [120.398314, 23.286611]}, "properties": {"Name": "東山", "Freeway": "國3", "Location": "國道3號319k", "Direction": "南北向同一側", "Address": "台南市東山區科里里枋子林74之6號", "Operator": "統一超商股份有限公司", "OperationPeriod": "2022.05.01~2031.04.30", "Theme": "以「榕景再現‧親水東山」為主題，運用百年大榕樹的精神，開啟人與自然的對話，以「在地豐饒農特產」及「原生綠意森林」元素，打造東山樂園魔法森林意象，與大自然和諧共生的環境。"}}, {"type": "Feature", "geometry": {"type": "Point", "coordinates": [120.352727, 22.929139]}, "properties": {"Name": "關廟", "Freeway": "國3", "Location": "國道3號363k", "Direction": "北上", "Address": "台南市龍崎區楠坑里6鄰楠坑12之1號", "Operator": "統一超商股份有限公司", "OperationPeriod": "2022.05.01~2031.04.30", "Theme": "以「有鳳來儀 齊聚關廟」為主題，融入原生的自然環境與在地關懷情感，北站以當地曬麵載體打造巨型鳳梨展現在地人文與產業特色；南站首創國道服務區第一座棒球主題館。"}}, {"type": "Feature", "geometry": {"type": "Point", "coordinates": [120.350481, 22.930007]}, "properties": {"Name": "關廟", "Freeway": "國3", "Location": "國道3號363k", "Direction": "南下", "Address": "台南市龍崎區楠坑里6鄰楠坑12之1號", "Operator": "統一超商股份有限公司", "OperationPeriod": "2022.05.01~2031.04.30", "Theme": "以「有鳳來儀 齊聚關廟」為主題，融入原生的自然環境與在地關懷情感，北站以當地曬麵載體打造巨型鳳梨展現在地人文與產業特色；南站首創國道服務區第一座棒球主題館。"}}, {"type": "Feature", "geometry": {"type": "Point", "coordinates": [121.645336, 25.008808]}, "properties": {"Name": "石碇", "Freeway": "國5", "Location": "國道5號4k", "Direction": "南北向同一側", "Address": "新北市石碇區豐林里文山路一段6號", "Operator": "全家便利超商股份有限公司", "OperationPeriod": "2023.09.01~2026.08.31", "Theme": "以「山城美鎮‧石碇風光」為主軸，輔以大菁藍染教育傳承，豐富空間與心靈感受，打造兼具歷史傳承與創新服務的服務區。"}}, {"type": "Feature", "geometry": {"type": "Point", "coordinates": [121.815535, 24.621322]}, "properties": {"Name": "蘇澳", "Freeway": "國5", "Location": "國道5號54K", "Direction": "南北向同一側", "Address": "宜蘭縣蘇澳鎮蘇新路81號", "Operator": "全家便利超商股份有限公司", "OperationPeriod": "2018.12.30~2026.01.31", "Theme": "「揚帆蘇澳，薈萃蘭陽」提攜地方發展的機能，匯集蘭陽豐富的在地資源，為用路人打造蘭陽行旅的最佳中繼站。"}}]}