{"type": "FeatureCollection", "properties": {"description": "國道服務區面（OSM highway=services + 高速公路局屬性 join）", "date": "20260524", "source": "OSM Overpass highway=services + 高速公路局開放資料 (id=85)", "crs": "EPSG:4326"}, "features": [{"type": "Feature", "geometry": {"type": "Polygon", "coordinates": [[[120.3985317, 23.2886112], [120.398017, 23.2884333], [120.3976719, 23.2882442], [120.3974115, 23.2880217], [120.3970846, 23.2874822], [120.3959644, 23.2855244], [120.3964548, 23.284857], [120.3970366, 23.2844893], [120.3971148, 23.2844399], [120.3982774, 23.284362], [120.399228, 23.2845456], [120.3998214, 23.2850294], [120.4001545, 23.2855411], [120.4004027, 23.2860139], [120.4006631, 23.2868593], [120.4006994, 23.287421], [120.4006101, 23.2877432], [120.4005359, 23.2880106], [120.4000939, 23.2883332], [120.3992583, 23.2886057], [120.398786, 23.2886557], [120.3985317, 23.2886112]]]}, "properties": {"Name": "東山服務區", "Freeway": "國3", "Direction": "南北向同一側", "Operator": "統一超商股份有限公司", "Theme": "以「榕景再現‧親水東山」為主題，運用百年大榕樹的精神，開啟人與自然的對話，以「在地豐饒農特產」及「原生綠意森林」元素，打造東山樂園魔法森林意象，與大自然和諧共生的環境。", "area_ha": 16.414, "osm_id": 187766588, "osm_type": "way"}}, {"type": "Feature", "geometry": {"type": "Polygon", "coordinates": [[[120.310548, 23.3402918], [120.3105423, 23.3401782], [120.3105286, 23.3396626], [120.3104902, 23.3391301], [120.3102847, 23.3385021], [120.3099282, 23.3381336], [120.3103136, 23.3376648], [120.3104795, 23.3378531], [120.3108692, 23.3381207], [120.3109307, 23.3381579], [120.3110026, 23.3381841], [120.311073, 23.3381881], [120.3121037, 23.3381998], [120.3121085, 23.3381488], [120.3121616, 23.3381037], [120.3122515, 23.3380303], [120.3125341, 23.338306], [120.3127669, 23.3383031], [120.3131566, 23.3386333], [120.3135814, 23.3386565], [120.3135584, 23.3389828], [120.3137393, 23.3391383], [120.3137191, 23.3405249], [120.3137242, 23.3406115], [120.3137435, 23.3406831], [120.3137786, 23.3407534], [120.3138245, 23.3408225], [120.3141152, 23.3412146], [120.3143289, 23.3415169], [120.3137671, 23.341761], [120.3131443, 23.3414097], [120.311699, 23.3413741], [120.3110457, 23.3408166], [120.310548, 23.3402918]]]}, "properties": {"Name": "新營服務區", "Freeway": "國1", "Direction": "南北向同一側", "Operator": "全家便利超商股份有限公司", "Theme": "北上主題為「魚塭、候鳥」，入口地貌景觀以由地面突起之擋土牆體呈現候鳥拍翅翱翔於天際之姿態，植栽選植春夏季優雅的白、黃花喬木原生種，呈現一致色調的清新氛圍，映襯著建築與地景，就宛如候鳥拍動著羽翼飛翔於天空的優雅景色。讓用路人能以活潑輕盈、愉快舒適的心情踏上返程。", "area_ha": 11.425, "osm_id": 187766600, "osm_type": "way"}}, {"type": "Feature", "geometry": {"type": "Polygon", "coordinates": [[[120.2649835, 22.9070175], [120.2654007, 22.9071821], [120.2654518, 22.9072371], [120.2655164, 22.907292], [120.2656517, 22.9072178], [120.2660212, 22.9070073], [120.2662741, 22.9069374], [120.2665452, 22.9063178], [120.26665, 22.9060769], [120.266833, 22.9063165], [120.2672142, 22.9059478], [120.2671681, 22.9059007], [120.2669579, 22.9056138], [120.2669138, 22.905511], [120.2670513, 22.9053126], [120.2669735, 22.9051189], [120.2667503, 22.9048966], [120.2666335, 22.9049564], [120.2665427, 22.9049181], [120.2660242, 22.9047278], [120.2659293, 22.9048006], [120.2657221, 22.9046921], [120.2652981, 22.9048648], [120.2647983, 22.9049993], [120.2645358, 22.905191], [120.264566, 22.9059024], [120.2646378, 22.9061373], [120.2647651, 22.9064665], [120.2648526, 22.9067805], [120.2649835, 22.9070175]]]}, "properties": {"Name": "仁德服務區", "Freeway": "國1", "Direction": "南北向同一側", "Operator": "統一超商股份有限公司", "Theme": "南站以「傳承印象古都」、北站以「再創科技魅力」為主題。", "area_ha": 5.315, "osm_id": 187766603, "osm_type": "way"}}, {"type": "Feature", "geometry": {"type": "Polygon", "coordinates": [[[121.6449038, 25.0096792], [121.6446594, 25.0086725], [121.644718, 25.008662], [121.6460057, 25.0084337], [121.6461265, 25.0084104], [121.6463712, 25.0083985], [121.6465483, 25.0084157], [121.646649, 25.0085003], [121.6467052, 25.0086359], [121.6466903, 25.0087513], [121.6466042, 25.008876], [121.646527, 25.0089531], [121.6462725, 25.0092071], [121.6451434, 25.0103225], [121.6450121, 25.0106458], [121.6449652, 25.0106265], [121.6449233, 25.0106092], [121.6450665, 25.0102756], [121.6457211, 25.0096199], [121.6456786, 25.0095191], [121.6449038, 25.0096792]]]}, "properties": {"Name": "石碇服務區", "Freeway": "國5", "Direction": "南北向同一側", "Operator": "全家便利超商股份有限公司", "Theme": "以「山城美鎮‧石碇風光」為主軸，輔以大菁藍染教育傳承，豐富空間與心靈感受，打造兼具歷史傳承與創新服務的服務區。", "area_ha": 2.126, "osm_id": 224874684, "osm_type": "way"}}, {"type": "Feature", "geometry": {"type": "Polygon", "coordinates": [[[120.7158499, 24.3305414], [120.7166963, 24.3301281], [120.7168709, 24.3301789], [120.7178062, 24.3297773], [120.7178319, 24.329632], [120.7162697, 24.3272326], [120.715405, 24.3277071], [120.7151494, 24.3278789], [120.7153141, 24.3279711], [120.7156142, 24.3280789], [120.7157541, 24.3282063], [120.7160576, 24.3286157], [120.7161422, 24.3287387], [120.7159273, 24.3288626], [120.7158976, 24.3287993], [120.7158303, 24.3286382], [120.7157776, 24.3285759], [120.7156881, 24.3284782], [120.7154404, 24.3283742], [120.7151812, 24.3283006], [120.7149527, 24.3282781], [120.7147996, 24.3283292], [120.7146868, 24.3283924], [120.7145652, 24.3285307], [120.7145212, 24.3287021], [120.7145468, 24.328955], [120.7147719, 24.3293601], [120.7152071, 24.3299023], [120.7156351, 24.3304841], [120.7158499, 24.3305414]]]}, "properties": {"Name": "泰安服務區(北上)", "Freeway": "國1", "Direction": "北上", "Operator": "統一超商股份有限公司", "Theme": "以「山暖花開遊樂園」為佈設主題，運用「花卉、森林」元素，融入空間設計意象，讓整個服務區瀰漫山暖花開般地歡樂與幸福感。戶外公共藝術「安安的奇幻樂園」為國道史上第一個民眾可以「視覺觀賞→觸摸→甚至玩樂」的公共藝術！", "area_ha": 6.739, "osm_id": 228861823, "osm_type": "way"}}, {"type": "Feature", "geometry": {"type": "Polygon", "coordinates": [[[121.0097215, 24.8588943], [121.0098154, 24.8585536], [121.0099039, 24.8584709], [121.0100166, 24.8583102], [121.0102794, 24.8570642], [121.0104123, 24.8567669], [121.0106396, 24.8560749], [121.0104518, 24.8560554], [121.0100488, 24.8563681], [121.0093273, 24.8564436], [121.0090349, 24.8563487], [121.0088847, 24.8563195], [121.0087881, 24.8563535], [121.0086755, 24.85639], [121.0085708, 24.8564679], [121.0084207, 24.8566455], [121.008198, 24.8575266], [121.0082571, 24.8577115], [121.0083375, 24.8578527], [121.0083643, 24.8579574], [121.0083724, 24.8580316], [121.0083375, 24.8582409], [121.0083, 24.8583845], [121.0085494, 24.858511], [121.0086299, 24.8585475], [121.0097215, 24.8588943]]]}, "properties": {"Name": "湖口服務區(南下)", "Freeway": "國1", "Direction": "南下", "Operator": "南仁湖育樂股份有限公司", "Theme": "以「懷舊老街與LINE文創」為區站主題，Line貼圖主題布置，與原有林蔭大道結合互動，在地風景林蔭大道與ㄌㄞˋ在湖口的空間營造，打造多樣性的生態池。", "area_ha": 4.854, "osm_id": 255928803, "osm_type": "way"}}, {"type": "Feature", "geometry": {"type": "Polygon", "coordinates": [[[121.0123559, 24.8634857], [121.0125111, 24.8634324], [121.0126327, 24.8639987], [121.0133276, 24.8631584], [121.0135927, 24.8627526], [121.0133393, 24.862222], [121.0131968, 24.8619606], [121.0130557, 24.8614351], [121.0125974, 24.8603952], [121.012265, 24.8596237], [121.011892, 24.8602099], [121.01175, 24.860209], [121.0114553, 24.8601377], [121.0112695, 24.8599952], [121.011169, 24.8599753], [121.0110241, 24.8599996], [121.011191, 24.860791], [121.0115981, 24.8617372], [121.0123559, 24.8634857]]]}, "properties": {"Name": "湖口服務區(北上)", "Freeway": "國1", "Direction": "北上", "Operator": "南仁湖育樂股份有限公司", "Theme": "以「懷舊老街與LINE文創」為區站主題，Line貼圖主題布置，與原有林蔭大道結合互動，在地風景林蔭大道與ㄌㄞˋ在湖口的空間營造，打造多樣性的生態池。", "area_ha": 5.786, "osm_id": 255930077, "osm_type": "way"}}, {"type": "Feature", "geometry": {"type": "Polygon", "coordinates": [[[120.7096873, 23.901199], [120.7093705, 23.901774], [120.7094713, 23.9018048], [120.7100907, 23.9019013], [120.7102779, 23.9018004], [120.7111085, 23.9009751], [120.7118815, 23.8999612], [120.7123713, 23.8991447], [120.7126737, 23.8986091], [120.7127592, 23.8984725], [120.7126627, 23.8981115], [120.7122225, 23.898035], [120.7121264, 23.8981658], [120.7115938, 23.8979891], [120.7114229, 23.8979174], [120.7107225, 23.8977966], [120.7105468, 23.8979068], [120.7104171, 23.8980078], [120.7092264, 23.9000094], [120.7092696, 23.9002289], [120.7093753, 23.9005142], [120.7095961, 23.9007293], [120.7097066, 23.9009005], [120.7096873, 23.901199]]]}, "properties": {"Name": "南投服務區", "Freeway": "國3", "Direction": "南北向同一側", "Operator": "新東陽股份有限公司", "Theme": "以「山林嬉．鴞遙遊．繪南投」為區站主題，將南投地區的人文工藝、自然風光、特產美食與境內原住民族的豐富文化完美融合，打造國道最具特色的區站。", "area_ha": 9.223, "osm_id": 260940480, "osm_type": "way"}}, {"type": "Feature", "geometry": {"type": "Polygon", "coordinates": [[[120.7595152, 24.5635073], [120.7597122, 24.5635945], [120.7603384, 24.5636543], [120.7605556, 24.5636925], [120.7607795, 24.563838], [120.7609563, 24.5641427], [120.7612475, 24.564772], [120.7615522, 24.5653615], [120.7616128, 24.5655391], [120.761633, 24.5657151], [120.7615236, 24.5659433], [120.761197, 24.5663291], [120.7610539, 24.5666062], [120.7610556, 24.5667379], [120.7609411, 24.5667578], [120.7606655, 24.5660704], [120.7599607, 24.5646153], [120.7594013, 24.5635565], [120.7595152, 24.5635073]]]}, "properties": {"Name": "西湖服務區(北上)", "Freeway": "國3", "Direction": "北上", "Operator": "新東陽股份有限公司", "Theme": "淘氣石虎迎賓﹣營造成充滿童趣，隨時有笑聲的歡樂廣場，讓小朋友來到服務區有個安全的活動空間，廣場的周圍將設置自動吹泡泡機，在一定的時刻，廣場四周的泡泡吹起，將帶動起一陣歡樂的美好時光體驗。", "area_ha": 3.527, "osm_id": 277756443, "osm_type": "way"}}, {"type": "Feature", "geometry": {"type": "Polygon", "coordinates": [[[120.7604798, 24.5672051], [120.7603607, 24.5672354], [120.7603036, 24.5671726], [120.7600155, 24.567099], [120.7598322, 24.5670405], [120.7597703, 24.5669127], [120.7595167, 24.5664634], [120.7594382, 24.5664115], [120.7592775, 24.5663725], [120.7590477, 24.5663032], [120.758981, 24.5662079], [120.7588632, 24.5658983], [120.7585739, 24.565344], [120.7584727, 24.5651058], [120.7583489, 24.5648568], [120.758343, 24.5646402], [120.7584477, 24.5644064], [120.7585739, 24.5642678], [120.7586846, 24.5641563], [120.7587668, 24.5639874], [120.7587668, 24.5638694], [120.758737, 24.563799], [120.7588418, 24.5637763], [120.7589477, 24.564035], [120.7594084, 24.5649661], [120.7599822, 24.5661852], [120.7604798, 24.5672051]]]}, "properties": {"Name": "西湖服務區(南下)", "Freeway": "國3", "Direction": "南下", "Operator": "新東陽股份有限公司", "Theme": "嬌羞石虎迎賓﹣取苗栗的山城意象、森林中魔法村落的家，加上在地的淺山生物石虎與螢火蟲，用可愛的擬人卡通化風格，營造了國道西湖魔法村迎賓立面牆，用有趣的嬌羞石虎，來表達期望大家對石虎應有的的愛護，愛它認識它但是不要打擾他們。", "area_ha": 2.858, "osm_id": 277756444, "osm_type": "way"}}, {"type": "Feature", "geometry": {"type": "Polygon", "coordinates": [[[120.7107539, 24.3286208], [120.7097913, 24.3297079], [120.7097673, 24.3297867], [120.7097817, 24.3298654], [120.7098225, 24.3299595], [120.7098753, 24.3300032], [120.7101753, 24.3302237], [120.7111901, 24.3320302], [120.7115918, 24.3316175], [120.7123312, 24.3315804], [120.7123888, 24.3315782], [120.7124536, 24.3315519], [120.7125136, 24.3315125], [120.7132842, 24.3307141], [120.7131354, 24.3305938], [120.7127441, 24.3303313], [120.7126817, 24.3302657], [120.7122063, 24.3295789], [120.7120743, 24.3294367], [120.7116902, 24.3291676], [120.7112221, 24.3288767], [120.7108092, 24.3285595], [120.7107539, 24.3286208]]]}, "properties": {"Name": "泰安服務區(南下)", "Freeway": "國1", "Direction": "南下", "Operator": "統一超商股份有限公司", "Theme": "以「花串音樂館」為佈設主題，運用「「花串、音樂、祈福」元素，融入空間設計意象，讓整個服務區瀰漫山暖花開般地歡樂與幸福感。戶外2座大型公共藝術「花園中的音樂木馬」、「餐桌下的秘密基地」，結合了后里區最著名的人文與觀光印象，打造一個夢幻的主題樂園。", "area_ha": 6.942, "osm_id": 315840395, "osm_type": "way"}}, {"type": "Feature", "geometry": {"type": "Polygon", "coordinates": [[[120.4761812, 23.7891862], [120.4780946, 23.7892675], [120.4783298, 23.7891818], [120.4778377, 23.7878353], [120.4774416, 23.7878902], [120.4774176, 23.7879122], [120.4773143, 23.7879561], [120.4762461, 23.7879473], [120.4761812, 23.7891862]]]}, "properties": {"Name": "西螺服務區(南下)", "Freeway": "國1", "Direction": "南下", "Operator": "新東陽股份有限公司", "Theme": "區站主題『雲禾香林』命名，南站以「物產」為意象：「呷禾豆相報」綠田稻浪米飄香、黑豆青仁醬味甘、山農漁海西瓜甜、西螺便當、中沙大橋友誼永存紀念碑、醬油甕缸。", "area_ha": 2.781, "osm_id": 317358711, "osm_type": "way"}}, {"type": "Feature", "geometry": {"type": "Polygon", "coordinates": [[[120.4802971, 23.7880412], [120.4802539, 23.7893834], [120.4802347, 23.7907299], [120.4797834, 23.7907124], [120.4796922, 23.7903543], [120.4796418, 23.7901895], [120.4795289, 23.7901478], [120.4793609, 23.7901676], [120.4792385, 23.7897898], [120.4789648, 23.7892472], [120.4786791, 23.7886277], [120.4786623, 23.7884893], [120.4784487, 23.7880039], [120.4802971, 23.7880412]]]}, "properties": {"Name": "西螺服務區(北上)", "Freeway": "國1", "Direction": "北上", "Operator": "新東陽股份有限公司", "Theme": "區站主題『雲禾香林』命名，北站以「文化」為意象：「金光迓熱鬧」廟宇香林冉輕煙、遶境藝陣掌乾坤、北溪龍安剪紙村、媽祖駕到、布袋戲文創館。", "area_ha": 3.608, "osm_id": 317358712, "osm_type": "way"}}, {"type": "Feature", "geometry": {"type": "Polygon", "coordinates": [[[120.5401733, 23.6087789], [120.5408083, 23.6087075], [120.5411318, 23.608466], [120.5421381, 23.6073792], [120.543226, 23.6066787], [120.5438924, 23.6065691], [120.5443584, 23.6065561], [120.5447806, 23.606667], [120.5451491, 23.6068029], [120.5455288, 23.6070237], [120.5459011, 23.6074073], [120.5462892, 23.6080541], [120.5463902, 23.6083826], [120.5464961, 23.608891], [120.5464926, 23.6093457], [120.5463917, 23.6097404], [120.5462039, 23.6100118], [120.5461771, 23.6100505], [120.5461568, 23.6100763], [120.5461275, 23.6101136], [120.5460486, 23.6101806], [120.5458228, 23.610332], [120.5455094, 23.6104728], [120.5453618, 23.6105077], [120.545183, 23.6106997], [120.5442666, 23.6103382], [120.5435776, 23.6100865], [120.5432345, 23.6099002], [120.5430481, 23.6101059], [120.5429148, 23.6100156], [120.5429658, 23.6099], [120.5427962, 23.6095762], [120.5427851, 23.6093278], [120.5427132, 23.6085319], [120.542726, 23.6083321], [120.5427312, 23.6082519], [120.5423897, 23.6080598], [120.5419884, 23.6081641], [120.5413954, 23.6086092], [120.5407963, 23.6090588], [120.5401973, 23.6092894], [120.5396342, 23.60924], [120.5401733, 23.6087789]]]}, "properties": {"Name": "古坑服務區", "Freeway": "國3", "Direction": "南北向同一側", "Operator": "南仁湖育樂股份有限公司", "Theme": "以『花饗古坑 希望旅程』作為規劃主題，將繽紛花卉的色彩及線條融入空間規劃設計，並延伸花語的精神，提供更多美麗、貼心、溫柔地空間與服務期能打造以花卉、女性為主題的多元服務空間。", "area_ha": 15.709, "osm_id": 318471303, "osm_type": "way"}}, {"type": "Feature", "geometry": {"type": "Polygon", "coordinates": [[[120.6020492, 24.2840927], [120.6021913, 24.2840648], [120.6023724, 24.2839965], [120.6025035, 24.2839305], [120.6026889, 24.2837649], [120.6028144, 24.2835556], [120.6029982, 24.2831648], [120.6030393, 24.2829696], [120.6031229, 24.2821784], [120.6031278, 24.2820841], [120.6030881, 24.2819919], [120.6030252, 24.2819332], [120.6029272, 24.2818909], [120.6028719, 24.281854], [120.602814, 24.2817826], [120.6027764, 24.2817007], [120.6027214, 24.2814391], [120.6026168, 24.2811555], [120.6026316, 24.2810442], [120.6026674, 24.2810012], [120.6022889, 24.2801631], [120.6022754, 24.2801333], [120.6020308, 24.2800858], [120.601425, 24.2792511], [120.6006816, 24.2785806], [120.6000845, 24.2782923], [120.599776, 24.2782166], [120.5992711, 24.2781818], [120.5990168, 24.2782238], [120.5984869, 24.2783103], [120.5980045, 24.2783536], [120.5974193, 24.2782743], [120.5972809, 24.2782454], [120.597095, 24.2788762], [120.5974322, 24.2792848], [120.5980322, 24.2800117], [120.5987005, 24.2808623], [120.5989526, 24.2811896], [120.5991045, 24.2814214], [120.5997888, 24.2825303], [120.6003528, 24.2837168], [120.6007385, 24.284436], [120.6008239, 24.2845615], [120.601251, 24.2845497], [120.6013696, 24.2845064], [120.6020492, 24.2840927]]]}, "properties": {"Name": "清水服務區", "Freeway": "國3", "Direction": "南北向同一側", "Operator": "統一超商股份有限公司", "Theme": "以「清水風帆馳乘飛翔」為主題，清水服務區建築外觀以船舶意象為設計，有如一艘揚帆出航的清水服務區，連結「清水」地區自然與人文景觀特色，作為服務區的營運內容及空間素材，打造一個結合在地特色。室內設計主題概念：延續「船舶」概念，打造搭載著在地風情的探索船；3樓外觀以「招潮蟹」為設計意象，呼應高美濕地的設計風格。", "area_ha": 23.222, "osm_id": 360808887, "osm_type": "way"}}, {"type": "Feature", "geometry": {"type": "Polygon", "coordinates": [[[121.8143624, 24.6205133], [121.8143972, 24.6207675], [121.8145014, 24.6208455], [121.8147603, 24.6211094], [121.8149083, 24.6212749], [121.8152686, 24.6215335], [121.8154355, 24.6216455], [121.8155152, 24.621699], [121.8154675, 24.6216866], [121.81572, 24.6217921], [121.8160273, 24.6219163], [121.8162169, 24.6219611], [121.8164559, 24.621999], [121.8167252, 24.6220197], [121.8168805, 24.6220266], [121.8170413, 24.6219771], [121.8171501, 24.6219025], [121.8172335, 24.6217542], [121.8172563, 24.6216197], [121.8172525, 24.6214783], [121.8171804, 24.6213128], [121.8171083, 24.6211576], [121.8170325, 24.6210611], [121.8168466, 24.6209093], [121.8158452, 24.6202197], [121.8159514, 24.6201024], [121.8158187, 24.6200266], [121.8156366, 24.6199438], [121.8154811, 24.6199128], [121.815318, 24.6199231], [121.8151397, 24.6199852], [121.8149802, 24.6200552], [121.8148042, 24.6201493], [121.8144962, 24.6203509], [121.8143624, 24.6205133]]]}, "properties": {"Name": "蘇澳服務區", "Freeway": "國5", "Direction": "南北向同一側", "Operator": "全家便利超商股份有限公司", "Theme": "「揚帆蘇澳，薈萃蘭陽」提攜地方發展的機能，匯集蘭陽豐富的在地資源，為用路人打造蘭陽行旅的最佳中繼站。", "area_ha": 4.092, "osm_id": 554566902, "osm_type": "way"}}, {"type": "Feature", "geometry": {"type": "Polygon", "coordinates": [[[121.2511217, 25.0052124], [121.2510048, 25.004641], [121.2508064, 25.0042375], [121.250801, 25.0039944], [121.2508117, 25.0036395], [121.2507688, 25.0030707], [121.2507169, 25.0026908], [121.2511831, 25.0026], [121.251231, 25.0026553], [121.2525054, 25.0032282], [121.2532504, 25.0034932], [121.2532725, 25.003656], [121.2531223, 25.0038845], [121.2526878, 25.0044096], [121.2522479, 25.0048423], [121.2519046, 25.0051777], [121.2516954, 25.0052458], [121.2513069, 25.0053053], [121.2511217, 25.0052124]]]}, "properties": {"Name": "中壢服務區", "Freeway": "國1", "Direction": "南北向同一側", "Operator": "南仁湖育樂股份有限公司", "Theme": "以「健康樂活運動休閒」為區站主題，並以「趣遊台灣」為主軸，運用棒球球場為平面配置的藍圖，中央區域規劃Fun生活文創市集及休憩座位區，休憩座位區結合戶外草坪綠地景觀。", "area_ha": 4.782, "osm_id": 564088595, "osm_type": "way"}}, {"type": "Feature", "geometry": {"type": "Polygon", "coordinates": [[[121.1899561, 24.7992806], [121.1898853, 24.7995851], [121.1900045, 24.8003226], [121.1900716, 24.8005425], [121.1902432, 24.8006811], [121.1904513, 24.8005626], [121.1906921, 24.8007793], [121.1925463, 24.8020345], [121.1941209, 24.8027716], [121.1948957, 24.8033123], [121.1950445, 24.8031609], [121.1956575, 24.8030263], [121.196027, 24.8028897], [121.1962041, 24.8026908], [121.1962306, 24.8024096], [121.1961903, 24.8022673], [121.1960559, 24.8023128], [121.1960216, 24.8020855], [121.195679, 24.8014324], [121.1949069, 24.8008152], [121.1931307, 24.7995664], [121.1916549, 24.7987889], [121.1909697, 24.7987793], [121.1908405, 24.7988104], [121.1907905, 24.7988918], [121.1904331, 24.79856], [121.1903288, 24.7985972], [121.1899039, 24.7989355], [121.1899114, 24.7990844], [121.1899561, 24.7992806]]]}, "properties": {"Name": "關西服務區", "Freeway": "國3", "Direction": "南北向同一側", "Operator": "新東陽股份有限公司", "Theme": "以「關西萬花桐、遶?好in景」主題，結合在地特色、區站美景及客家美食，邀請用路人來遊玩，享受樂活、慢遊。", "area_ha": 16.012, "osm_id": 6550454, "osm_type": "relation"}}, {"type": "Feature", "geometry": {"type": "MultiPolygon", "coordinates": [[[[120.3513811, 22.9294436], [120.3512603, 22.9281998], [120.3510586, 22.9267742], [120.3508196, 22.9268177], [120.3507995, 22.9269606], [120.3506655, 22.9273359], [120.3506232, 22.9275581], [120.3506316, 22.927804], [120.3506876, 22.9279492], [120.3507562, 22.9281293], [120.3507672, 22.9284286], [120.3506859, 22.9285968], [120.3505389, 22.9287519], [120.3502029, 22.9290443], [120.3500039, 22.9291835], [120.3497718, 22.9295057], [120.3496386, 22.9299558], [120.3497245, 22.9304141], [120.3500321, 22.9308209], [120.3506091, 22.9312015], [120.3507298, 22.9312962], [120.3508876, 22.931455], [120.351086, 22.9316659], [120.3512081, 22.9318518], [120.3512979, 22.9320731], [120.3514538, 22.9320774], [120.3513811, 22.9294436]]], [[[120.3520985, 22.9323723], [120.352181, 22.9322199], [120.3523645, 22.9320359], [120.3524627, 22.9315863], [120.3523939, 22.931348], [120.3522367, 22.9310764], [120.3522269, 22.9308924], [120.3522695, 22.9306993], [120.3525938, 22.9303493], [120.352964, 22.9300386], [120.3532359, 22.9297942], [120.3534455, 22.9291606], [120.3533243, 22.9287382], [120.3529803, 22.9282917], [120.3528097, 22.928184], [120.3524496, 22.9279568], [120.3521079, 22.9277678], [120.3518564, 22.9275095], [120.3515946, 22.9270865], [120.3514668, 22.9272042], [120.3515756, 22.9276069], [120.3517286, 22.9286483], [120.3518632, 22.9308551], [120.3518588, 22.9323614], [120.3520985, 22.9323723]]]]}, "properties": {"Name": "關廟服務區", "Freeway": "國3", "Direction": "南北向同一側", "Operator": "統一超商股份有限公司", "Theme": "以「有鳳來儀 齊聚關廟」為主題，融入原生的自然環境與在地關懷情感，北站以當地曬麵載體打造巨型鳳梨展現在地人文與產業特色；南站首創國道服務區第一座棒球主題館。", "area_ha": 10.723, "osm_id": 16878226, "osm_type": "relation"}}]}