{"type": "FeatureCollection", "properties": {"description": "計程車排班站點位 (台北市 + 嘉義市)", "date": "20260524", "source": "台北市資料大平台 134597 / 嘉義市 74927", "counts": {"taipei": 202, "chiayi": 22}}, "features": [{"type": "Feature", "geometry": {"type": "Point", "coordinates": [121.533613, 25.112269]}, "properties": {"city": "taipei", "Seq": "1", "District": "士林", "Name": "士林地方法院", "StreetName": "士東路200巷口西側以南10公尺外", "Slots": "7", "Schedule": "週一至週五8~18"}}, {"type": "Feature", "geometry": {"type": "Point", "coordinates": [121.519255, 25.095862]}, "properties": {"city": "taipei", "Seq": "2", "District": "士林", "Name": "新光醫院(基河路美崙街口)", "StreetName": "基河路美崙街口", "Slots": "13", "Schedule": "8~18"}}, {"type": "Feature", "geometry": {"type": "Point", "coordinates": [121.550232, 25.100212]}, "properties": {"city": "taipei", "Seq": "3", "District": "士林", "Name": "故宮博物院前停車彎西側", "StreetName": "至善路(台灣創價學會對面)", "Slots": "4", "Schedule": "8~21"}}, {"type": "Feature", "geometry": {"type": "Point", "coordinates": [121.550589, 25.100444]}, "properties": {"city": "taipei", "Seq": "4", "District": "士林", "Name": "原住民公園(故宮)", "StreetName": "至善路258號對面", "Slots": "3", "Schedule": "8~18"}}, {"type": "Feature", "geometry": {"type": "Point", "coordinates": [121.534667, 25.117281]}, "properties": {"city": "taipei", "Seq": "5", "District": "士林", "Name": "國泰世華銀行", "StreetName": "忠誠路2段247號", "Slots": "1", "Schedule": "周一至周五9~18"}}, {"type": "Feature", "geometry": {"type": "Point", "coordinates": [121.531062, 25.112087]}, "properties": {"city": "taipei", "Seq": "6", "District": "士林", "Name": "大葉高島屋", "StreetName": "忠誠路2段55號", "Slots": "4", "Schedule": "周一至周五11~23"}}, {"type": "Feature", "geometry": {"type": "Point", "coordinates": [121.514398, 25.094424]}, "properties": {"city": "taipei", "Seq": "7", "District": "士林", "Name": "士林監理站", "StreetName": "承德路5段80號(正門口南側)", "Slots": "2", "Schedule": "週一至週五9~17"}}, {"type": "Feature", "geometry": {"type": "Point", "coordinates": [121.546471, 25.138051]}, "properties": {"city": "taipei", "Seq": "8", "District": "士林", "Name": "山仔后(共乘站位)", "StreetName": "格致路與愛富一街交叉口", "Slots": "3", "Schedule": "0~24"}}, {"type": "Feature", "geometry": {"type": "Point", "coordinates": [121.525875, 25.093921]}, "properties": {"city": "taipei", "Seq": "9", "District": "士林", "Name": "捷運士林站1號出口", "StreetName": "美德街", "Slots": "5", "Schedule": "0~24"}}, {"type": "Feature", "geometry": {"type": "Point", "coordinates": [121.526207, 25.092867]}, "properties": {"city": "taipei", "Seq": "10", "District": "士林", "Name": "捷運士林站2號出口西側", "StreetName": "2號出口西側停車彎內", "Slots": "2", "Schedule": "7~17"}}, {"type": "Feature", "geometry": {"type": "Point", "coordinates": [121.522704, 25.102427]}, "properties": {"city": "taipei", "Seq": "11", "District": "士林", "Name": "捷運芝山站東側停車彎", "StreetName": "福華路160號對面", "Slots": "12", "Schedule": "0~24"}}, {"type": "Feature", "geometry": {"type": "Point", "coordinates": [121.525236, 25.084919]}, "properties": {"city": "taipei", "Seq": "12", "District": "士林", "Name": "捷運劍潭站1號出口(共乘3格.普通1格)", "StreetName": "基河路(捷運1號出口停車彎)", "Slots": "4", "Schedule": "0~24"}}, {"type": "Feature", "geometry": {"type": "Point", "coordinates": [121.531454, 25.104652]}, "properties": {"city": "taipei", "Seq": "13", "District": "士林", "Name": "聯合醫院陽明院區急診室外", "StreetName": "雨聲街105號", "Slots": "2", "Schedule": "週一至週六8~19"}}, {"type": "Feature", "geometry": {"type": "Point", "coordinates": [121.53175, 25.105287]}, "properties": {"city": "taipei", "Seq": "14", "District": "士林", "Name": "聯合醫院陽明院區急診室外東側", "StreetName": "雨聲街105號", "Slots": "5", "Schedule": "週一至週六8~19"}}, {"type": "Feature", "geometry": {"type": "Point", "coordinates": [121.534474, 25.117671]}, "properties": {"city": "taipei", "Seq": "15", "District": "士林", "Name": "新光三越天母店", "StreetName": "忠誠路2段206號", "Slots": "4", "Schedule": "0~24"}}, {"type": "Feature", "geometry": {"type": "Point", "coordinates": [121.529459, 25.112161]}, "properties": {"city": "taipei", "Seq": "16", "District": "士林", "Name": "士東市場", "StreetName": "士東路100號", "Slots": "2", "Schedule": "7~15"}}, {"type": "Feature", "geometry": {"type": "Point", "coordinates": [121.523924, 25.087808]}, "properties": {"city": "taipei", "Seq": "17", "District": "士林", "Name": "士林市場對面", "StreetName": "基河路(承德路4段179巷口以南)", "Slots": "1", "Schedule": "15~01"}}, {"type": "Feature", "geometry": {"type": "Point", "coordinates": [121.535015, 25.116741]}, "properties": {"city": "taipei", "Seq": "18", "District": "士林", "Name": "啟明學校", "StreetName": "忠誠路2段207巷1號", "Slots": "3", "Schedule": "周一至周五9~17"}}, {"type": "Feature", "geometry": {"type": "Point", "coordinates": [121.523557, 25.088582]}, "properties": {"city": "taipei", "Seq": "19", "District": "士林", "Name": "士林十全排骨", "StreetName": "基河路131號", "Slots": "2", "Schedule": "15~01"}}, {"type": "Feature", "geometry": {"type": "Point", "coordinates": [121.524897, 25.086004]}, "properties": {"city": "taipei", "Seq": "20", "District": "士林", "Name": "臺北藝術中心", "StreetName": "基河路(百齡高中停車場出口西側)", "Slots": "5", "Schedule": "0~24"}}, {"type": "Feature", "geometry": {"type": "Point", "coordinates": [121.520679, 25.057571]}, "properties": {"city": "taipei", "Seq": "21", "District": "大同", "Name": "捷運雙連站1號出口", "StreetName": "民生西路(捷運出口前)", "Slots": "2", "Schedule": "0~24"}}, {"type": "Feature", "geometry": {"type": "Point", "coordinates": [121.520312, 25.057559]}, "properties": {"city": "taipei", "Seq": "22", "District": "大同", "Name": "捷運雙連站1號出口左側", "StreetName": "民生西路76號", "Slots": "4", "Schedule": "0~24"}}, {"type": "Feature", "geometry": {"type": "Point", "coordinates": [121.518413, 25.071752]}, "properties": {"city": "taipei", "Seq": "23", "District": "大同", "Name": "元大商業銀行", "StreetName": "承德路3段212號", "Slots": "2", "Schedule": "周一至周五9~18"}}, {"type": "Feature", "geometry": {"type": "Point", "coordinates": [121.512979, 25.074055]}, "properties": {"city": "taipei", "Seq": "24", "District": "大同", "Name": "啟聰學校北側", "StreetName": "重慶北路3段320號北側", "Slots": "3", "Schedule": "0~24"}}, {"type": "Feature", "geometry": {"type": "Point", "coordinates": [121.5137, 25.074808]}, "properties": {"city": "taipei", "Seq": "25", "District": "大同", "Name": "啟聰學校(市立圖書館大同分館)", "StreetName": "重慶北路3段318號", "Slots": "3", "Schedule": "0~24"}}, {"type": "Feature", "geometry": {"type": "Point", "coordinates": [121.508853, 25.050589]}, "properties": {"city": "taipei", "Seq": "26", "District": "大同", "Name": "聯合醫院中興院區", "StreetName": "鄭州路145號（市民大道）", "Slots": "5", "Schedule": "9~17"}}, {"type": "Feature", "geometry": {"type": "Point", "coordinates": [121.513732, 25.063373]}, "properties": {"city": "taipei", "Seq": "27", "District": "大同", "Name": "捷運大橋頭站", "StreetName": "重慶北路三段5號(民權國中旁)", "Slots": "1", "Schedule": "9~16"}}, {"type": "Feature", "geometry": {"type": "Point", "coordinates": [121.510377, 25.049844]}, "properties": {"city": "taipei", "Seq": "28", "District": "大同", "Name": "捷運北門站", "StreetName": "塔城街8號(3號出口旁)", "Slots": "4", "Schedule": "0~24"}}, {"type": "Feature", "geometry": {"type": "Point", "coordinates": [121.509406, 25.050816]}, "properties": {"city": "taipei", "Seq": "29", "District": "大同", "Name": "聯合醫院中興院區", "StreetName": "鄭州路145號", "Slots": "2", "Schedule": "0~24"}}, {"type": "Feature", "geometry": {"type": "Point", "coordinates": [121.533724, 25.042094]}, "properties": {"city": "taipei", "Seq": "30", "District": "大安", "Name": "凱統飯店(捷運忠孝新生站3號出口)", "StreetName": "忠孝東路3段8號", "Slots": "2", "Schedule": "0~24"}}, {"type": "Feature", "geometry": {"type": "Point", "coordinates": [121.548357, 25.021606]}, "properties": {"city": "taipei", "Seq": "31", "District": "大安", "Name": "敦南大樓", "StreetName": "敦化南路2段93號", "Slots": "3", "Schedule": "0~24"}}, {"type": "Feature", "geometry": {"type": "Point", "coordinates": [121.549052, 25.028671]}, "properties": {"city": "taipei", "Seq": "32", "District": "大安", "Name": "敦南大樓", "StreetName": "敦化南路2段101號", "Slots": "1", "Schedule": "9~19"}}, {"type": "Feature", "geometry": {"type": "Point", "coordinates": [121.545224, 25.037512]}, "properties": {"city": "taipei", "Seq": "33", "District": "大安", "Name": "聯合醫院仁愛院區", "StreetName": "仁愛路4段10號", "Slots": "9", "Schedule": "0~24"}}, {"type": "Feature", "geometry": {"type": "Point", "coordinates": [121.546595, 25.038294]}, "properties": {"city": "taipei", "Seq": "34", "District": "大安", "Name": "宏恩醫院", "StreetName": "仁愛路4段61號", "Slots": "4", "Schedule": "8~20"}}, {"type": "Feature", "geometry": {"type": "Point", "coordinates": [121.541145, 25.037611]}, "properties": {"city": "taipei", "Seq": "35", "District": "大安", "Name": "芙蓉大廈", "StreetName": "仁愛路3段136號", "Slots": "2", "Schedule": "週一至週五8~19"}}, {"type": "Feature", "geometry": {"type": "Point", "coordinates": [121.541485, 25.021563]}, "properties": {"city": "taipei", "Seq": "36", "District": "大安", "Name": "中央百世大樓", "StreetName": "辛亥路2段185號", "Slots": "4", "Schedule": "週一至週五8~19"}}, {"type": "Feature", "geometry": {"type": "Point", "coordinates": [121.545257, 25.042343]}, "properties": {"city": "taipei", "Seq": "37", "District": "大安", "Name": "SOGO百貨忠孝館", "StreetName": "忠孝東路4段49巷", "Slots": "3", "Schedule": "11~22"}}, {"type": "Feature", "geometry": {"type": "Point", "coordinates": [121.549316, 25.025786]}, "properties": {"city": "taipei", "Seq": "38", "District": "大安", "Name": "遠東國際商業銀行", "StreetName": "敦化南路2段209號", "Slots": "2", "Schedule": "周一至周五9~18"}}, {"type": "Feature", "geometry": {"type": "Point", "coordinates": [121.548265, 25.021726]}, "properties": {"city": "taipei", "Seq": "39", "District": "大安", "Name": "國泰人壽臺北國際大樓", "StreetName": "敦化南路2段218號", "Slots": "2", "Schedule": "週一至週五8~18"}}, {"type": "Feature", "geometry": {"type": "Point", "coordinates": [121.549193, 25.030799]}, "properties": {"city": "taipei", "Seq": "40", "District": "大安", "Name": "葉財記世貿大樓一銀世貿分行", "StreetName": "敦化南路2段65號", "Slots": "1", "Schedule": "週一至週五9~18"}}, {"type": "Feature", "geometry": {"type": "Point", "coordinates": [121.54822, 25.029586]}, "properties": {"city": "taipei", "Seq": "41", "District": "大安", "Name": "新鑽石大廈", "StreetName": "敦化南路2段70號", "Slots": "2", "Schedule": "週一至週五8~18"}}, {"type": "Feature", "geometry": {"type": "Point", "coordinates": [121.548357, 25.021606]}, "properties": {"city": "taipei", "Seq": "42", "District": "大安", "Name": "敦南商業大樓", "StreetName": "敦化南路2段基隆路口", "Slots": "3", "Schedule": "週一至週五9~18"}}, {"type": "Feature", "geometry": {"type": "Point", "coordinates": [121.551018, 25.0416]}, "properties": {"city": "taipei", "Seq": "43", "District": "大安", "Name": "現代大廈(鄰捷運忠孝敦化站)", "StreetName": "忠孝東路4段189號", "Slots": "7", "Schedule": "0~24"}}, {"type": "Feature", "geometry": {"type": "Point", "coordinates": [121.535252, 25.033687]}, "properties": {"city": "taipei", "Seq": "44", "District": "大安", "Name": "經濟部工業局", "StreetName": "信義路3段41-3號", "Slots": "2", "Schedule": "0~24"}}, {"type": "Feature", "geometry": {"type": "Point", "coordinates": [121.534537, 25.033443]}, "properties": {"city": "taipei", "Seq": "45", "District": "大安", "Name": "大安森林公園北側", "StreetName": "信義路3段", "Slots": "4", "Schedule": "0~24"}}, {"type": "Feature", "geometry": {"type": "Point", "coordinates": [121.543041, 25.033248]}, "properties": {"city": "taipei", "Seq": "46", "District": "大安", "Name": "大安站", "StreetName": "信義路3段", "Slots": "2", "Schedule": "0~24"}}, {"type": "Feature", "geometry": {"type": "Point", "coordinates": [121.552974, 25.033066]}, "properties": {"city": "taipei", "Seq": "47", "District": "大安", "Name": "信義安和站", "StreetName": "信義安和路口東南側停車彎(信義路4段236號前)", "Slots": "1", "Schedule": "0~24"}}, {"type": "Feature", "geometry": {"type": "Point", "coordinates": [121.543586, 25.026059]}, "properties": {"city": "taipei", "Seq": "48", "District": "大安", "Name": "捷運科技大樓站出口", "StreetName": "復興南路", "Slots": "1", "Schedule": "0~24"}}, {"type": "Feature", "geometry": {"type": "Point", "coordinates": [121.549278, 25.034091]}, "properties": {"city": "taipei", "Seq": "49", "District": "大安", "Name": "慕軒飯店", "StreetName": "敦化南路1段331號", "Slots": "2", "Schedule": "0~24"}}, {"type": "Feature", "geometry": {"type": "Point", "coordinates": [121.537932, 25.044565]}, "properties": {"city": "taipei", "Seq": "50", "District": "大安", "Name": "忠泰美術館", "StreetName": "市民大道3段178號", "Slots": "2", "Schedule": "0~24"}}, {"type": "Feature", "geometry": {"type": "Point", "coordinates": [121.526779, 25.062535]}, "properties": {"city": "taipei", "Seq": "51", "District": "中山", "Name": "捷運中山國小站2號出口西側", "StreetName": "民族東路36號", "Slots": "2", "Schedule": "0~24"}}, {"type": "Feature", "geometry": {"type": "Point", "coordinates": [121.556916, 25.083937]}, "properties": {"city": "taipei", "Seq": "52", "District": "中山", "Name": "美麗華購物中心", "StreetName": "植福路", "Slots": "4", "Schedule": "11~23"}}, {"type": "Feature", "geometry": {"type": "Point", "coordinates": [121.535039, 25.062331]}, "properties": {"city": "taipei", "Seq": "53", "District": "中山", "Name": "第一殯儀館停車場對面", "StreetName": "民權東路2段158號前", "Slots": "1", "Schedule": "週一至週五9~17(7-9時與17-19禁停)"}}, {"type": "Feature", "geometry": {"type": "Point", "coordinates": [121.533139, 25.053383]}, "properties": {"city": "taipei", "Seq": "54", "District": "中山", "Name": "味全大樓(捷運松江南京站7號出口)", "StreetName": "松江路127號前", "Slots": "2", "Schedule": "周一至周五9~18"}}, {"type": "Feature", "geometry": {"type": "Point", "coordinates": [121.519354, 25.062782]}, "properties": {"city": "taipei", "Seq": "55", "District": "中山", "Name": "捷運民權西路站1號出口西側", "StreetName": "民權西路72號前", "Slots": "6", "Schedule": "0~24"}}, {"type": "Feature", "geometry": {"type": "Point", "coordinates": [121.544059, 25.060769]}, "properties": {"city": "taipei", "Seq": "56", "District": "中山", "Name": "捷運中山國中站", "StreetName": "復興北路", "Slots": "2", "Schedule": "0~24"}}, {"type": "Feature", "geometry": {"type": "Point", "coordinates": [121.542376, 25.048338]}, "properties": {"city": "taipei", "Seq": "57", "District": "中山", "Name": "長安東路遼寧街口", "StreetName": "長安東路2段175號", "Slots": "2", "Schedule": "周一至周五9~17"}}, {"type": "Feature", "geometry": {"type": "Point", "coordinates": [121.533293, 25.059888]}, "properties": {"city": "taipei", "Seq": "58", "District": "中山", "Name": "捷運行天宮站3號出口", "StreetName": "松江路261號前", "Slots": "5", "Schedule": "0~24(7-9時與17-20禁停)"}}, {"type": "Feature", "geometry": {"type": "Point", "coordinates": [121.526396, 25.062593]}, "properties": {"city": "taipei", "Seq": "59", "District": "中山", "Name": "捷運中山國小站2號出口", "StreetName": "新興國中北側臨停彎", "Slots": "2", "Schedule": "0~24"}}, {"type": "Feature", "geometry": {"type": "Point", "coordinates": [121.521108, 25.052281]}, "properties": {"city": "taipei", "Seq": "60", "District": "中山", "Name": "新光三越南西店一館(捷運中山站2號出口)", "StreetName": "南京西路12號", "Slots": "5", "Schedule": "10~22"}}, {"type": "Feature", "geometry": {"type": "Point", "coordinates": [121.520717, 25.052671]}, "properties": {"city": "taipei", "Seq": "61", "District": "中山", "Name": "新光三越南西店三館(原衣蝶百貨、捷運中山站3號出口)", "StreetName": "南京西路15號", "Slots": "4", "Schedule": "10~23"}}, {"type": "Feature", "geometry": {"type": "Point", "coordinates": [121.537424, 25.066957]}, "properties": {"city": "taipei", "Seq": "62", "District": "中山", "Name": "濱江果菜批發市場", "StreetName": "民族東路410巷2弄20號", "Slots": "4", "Schedule": "11~20"}}, {"type": "Feature", "geometry": {"type": "Point", "coordinates": [121.554356, 25.080465]}, "properties": {"city": "taipei", "Seq": "63", "District": "中山", "Name": "美福飯店東側", "StreetName": "敬業二路(樂群二路至敬業一路36巷間西側)", "Slots": "3", "Schedule": "11~23"}}, {"type": "Feature", "geometry": {"type": "Point", "coordinates": [121.543875, 25.060952]}, "properties": {"city": "taipei", "Seq": "64", "District": "中山", "Name": "捷運中山國中站", "StreetName": "復興北路376號前", "Slots": "2", "Schedule": "0~24"}}, {"type": "Feature", "geometry": {"type": "Point", "coordinates": [121.560006, 25.08345]}, "properties": {"city": "taipei", "Seq": "65", "District": "中山", "Name": "台北大直英迪格酒店", "StreetName": "植福路200號", "Slots": "2", "Schedule": "11~23"}}, {"type": "Feature", "geometry": {"type": "Point", "coordinates": [121.508701, 25.042708]}, "properties": {"city": "taipei", "Seq": "66", "District": "中正", "Name": "捷運西門站6號出口", "StreetName": "中華路1段東側", "Slots": "5", "Schedule": "0~24"}}, {"type": "Feature", "geometry": {"type": "Point", "coordinates": [121.506911, 25.035549]}, "properties": {"city": "taipei", "Seq": "67", "District": "中正", "Name": "和平醫院和平院區", "StreetName": "中華路2段33號", "Slots": "2", "Schedule": "0~24"}}, {"type": "Feature", "geometry": {"type": "Point", "coordinates": [121.5171, 25.044725]}, "properties": {"city": "taipei", "Seq": "68", "District": "中正", "Name": "健保局聯合門診中心", "StreetName": "公園路15號之1", "Slots": "2", "Schedule": "週一至週五9~18"}}, {"type": "Feature", "geometry": {"type": "Point", "coordinates": [121.516302, 25.042227]}, "properties": {"city": "taipei", "Seq": "69", "District": "中正", "Name": "捷運台大醫院站", "StreetName": "公園路西側", "Slots": "3", "Schedule": "0~24"}}, {"type": "Feature", "geometry": {"type": "Point", "coordinates": [121.516302, 25.028422]}, "properties": {"city": "taipei", "Seq": "70", "District": "中正", "Name": "集合住宅(和平西路2段)前", "StreetName": "和平西路2段21之1號", "Slots": "2", "Schedule": "週一至週五8~18"}}, {"type": "Feature", "geometry": {"type": "Point", "coordinates": [121.530379, 25.013491]}, "properties": {"city": "taipei", "Seq": "71", "District": "中正", "Name": "自來水博物館", "StreetName": "思源街1號", "Slots": "3", "Schedule": "7~22"}}, {"type": "Feature", "geometry": {"type": "Point", "coordinates": [121.517326, 25.041192]}, "properties": {"city": "taipei", "Seq": "72", "District": "中正", "Name": "臺大醫院常德院區", "StreetName": "常德街", "Slots": "3", "Schedule": "8~18"}}, {"type": "Feature", "geometry": {"type": "Point", "coordinates": [121.511098, 25.037903]}, "properties": {"city": "taipei", "Seq": "73", "District": "中正", "Name": "法庭大廈", "StreetName": "博愛路127號", "Slots": "5", "Schedule": "週一至週五8~18"}}, {"type": "Feature", "geometry": {"type": "Point", "coordinates": [121.511002, 25.036808]}, "properties": {"city": "taipei", "Seq": "74", "District": "中正", "Name": "法庭大廈", "StreetName": "博愛路131號", "Slots": "5", "Schedule": "週一至週五8~18"}}, {"type": "Feature", "geometry": {"type": "Point", "coordinates": [121.517453, 25.034756]}, "properties": {"city": "taipei", "Seq": "75", "District": "中正", "Name": "捷運中正紀念堂站(近5號出口)國家劇院南側", "StreetName": "愛國東路", "Slots": "6", "Schedule": "0~24"}}, {"type": "Feature", "geometry": {"type": "Point", "coordinates": [121.517453, 25.034756]}, "properties": {"city": "taipei", "Seq": "76", "District": "中正", "Name": "捷運中正紀念堂站(近5號出口)國家劇院北側", "StreetName": "愛國東路", "Slots": "6", "Schedule": "0~24"}}, {"type": "Feature", "geometry": {"type": "Point", "coordinates": [121.519247, 25.037765]}, "properties": {"city": "taipei", "Seq": "77", "District": "中正", "Name": "捷運中正紀念堂站之國家音樂廳劇院路側", "StreetName": "信義路1段", "Slots": "16", "Schedule": "0~24"}}, {"type": "Feature", "geometry": {"type": "Point", "coordinates": [121.520362, 25.043]}, "properties": {"city": "taipei", "Seq": "78", "District": "中正", "Name": "中央聯合辦公大樓北棟(外交部領事事務局)", "StreetName": "濟南路1段2之2號", "Slots": "5", "Schedule": "週一至週五8~18"}}, {"type": "Feature", "geometry": {"type": "Point", "coordinates": [121.519594, 25.041689]}, "properties": {"city": "taipei", "Seq": "79", "District": "中正", "Name": "中央聯合辦公大樓南棟", "StreetName": "徐州路5號", "Slots": "2", "Schedule": "週一至週五7~20"}}, {"type": "Feature", "geometry": {"type": "Point", "coordinates": [121.508806, 25.041969]}, "properties": {"city": "taipei", "Seq": "80", "District": "中正", "Name": "捷運西門站寶慶路", "StreetName": "遠東百貨大門西側", "Slots": "2", "Schedule": "0~24"}}, {"type": "Feature", "geometry": {"type": "Point", "coordinates": [121.509584, 25.045201]}, "properties": {"city": "taipei", "Seq": "81", "District": "中正", "Name": "台糖會館", "StreetName": "漢口街1段144號對面", "Slots": "2", "Schedule": "7~19"}}, {"type": "Feature", "geometry": {"type": "Point", "coordinates": [121.520949, 25.023257]}, "properties": {"city": "taipei", "Seq": "82", "District": "中正", "Name": "頂好超市斜對面", "StreetName": "廈門街113巷41號對面", "Slots": "2", "Schedule": "週一至週五8~20"}}, {"type": "Feature", "geometry": {"type": "Point", "coordinates": [121.509825, 25.039097]}, "properties": {"city": "taipei", "Seq": "83", "District": "中正", "Name": "臺灣高等法院", "StreetName": "貴陽街1段", "Slots": "4", "Schedule": "0~24"}}, {"type": "Feature", "geometry": {"type": "Point", "coordinates": [121.508133, 25.035618]}, "properties": {"city": "taipei", "Seq": "84", "District": "中正", "Name": "內政部出入境管理局", "StreetName": "廣州街15號", "Slots": "3", "Schedule": "週一至週五9~16"}}, {"type": "Feature", "geometry": {"type": "Point", "coordinates": [121.508052, 25.029631]}, "properties": {"city": "taipei", "Seq": "85", "District": "中正", "Name": "集合住宅前", "StreetName": "汀州路1段75號", "Slots": "1", "Schedule": "週一至周六9~17"}}, {"type": "Feature", "geometry": {"type": "Point", "coordinates": [121.525027, 25.037998]}, "properties": {"city": "taipei", "Seq": "86", "District": "中正", "Name": "交通部", "StreetName": "杭州南路(鄰仁愛路交叉路口)", "Slots": "1", "Schedule": "週一至週五0830~1730"}}, {"type": "Feature", "geometry": {"type": "Point", "coordinates": [121.523792, 25.038325]}, "properties": {"city": "taipei", "Seq": "87", "District": "中正", "Name": "中華電信台北南區服務中心", "StreetName": "仁愛路1段42號", "Slots": "2", "Schedule": "週一至週五0830~1730"}}, {"type": "Feature", "geometry": {"type": "Point", "coordinates": [121.518673, 25.028798]}, "properties": {"city": "taipei", "Seq": "88", "District": "中正", "Name": "郵政醫院前", "StreetName": "福州街14號", "Slots": "1", "Schedule": "9~17"}}, {"type": "Feature", "geometry": {"type": "Point", "coordinates": [121.516186, 25.046328]}, "properties": {"city": "taipei", "Seq": "89", "District": "中正", "Name": "台北凱撒大飯店(南陽街)", "StreetName": "南陽街", "Slots": "3", "Schedule": "0~24"}}, {"type": "Feature", "geometry": {"type": "Point", "coordinates": [121.525312, 25.044426]}, "properties": {"city": "taipei", "Seq": "90", "District": "中正", "Name": "和逸飯店", "StreetName": "忠孝東路1段31號", "Slots": "3", "Schedule": "9~17"}}, {"type": "Feature", "geometry": {"type": "Point", "coordinates": [121.527986, 25.034071]}, "properties": {"city": "taipei", "Seq": "91", "District": "中正", "Name": "捷運東門站1號出口旁", "StreetName": "信義路2段139號", "Slots": "2", "Schedule": "9~16"}}, {"type": "Feature", "geometry": {"type": "Point", "coordinates": [121.517151, 25.027959]}, "properties": {"city": "taipei", "Seq": "92", "District": "中正", "Name": "經濟部", "StreetName": "福州街15號", "Slots": "3", "Schedule": "7~18"}}, {"type": "Feature", "geometry": {"type": "Point", "coordinates": [121.519816, 25.04159]}, "properties": {"city": "taipei", "Seq": "93", "District": "中正", "Name": "台大醫院急診室", "StreetName": "徐州路2號", "Slots": "3", "Schedule": "0~24"}}, {"type": "Feature", "geometry": {"type": "Point", "coordinates": [121.505576, 25.030477]}, "properties": {"city": "taipei", "Seq": "94", "District": "中正", "Name": "日昇合作社前", "StreetName": "西藏路80號", "Slots": "1", "Schedule": "0~24"}}, {"type": "Feature", "geometry": {"type": "Point", "coordinates": [121.510823, 25.035312]}, "properties": {"city": "taipei", "Seq": "95", "District": "中正", "Name": "交通大隊新建大樓旁", "StreetName": "博愛路愛國西路口", "Slots": "3", "Schedule": "0830~17"}}, {"type": "Feature", "geometry": {"type": "Point", "coordinates": [121.509776, 25.034737]}, "properties": {"city": "taipei", "Seq": "96", "District": "中正", "Name": "交通大隊新建大樓旁", "StreetName": "廣州街4巷", "Slots": "4", "Schedule": "周一至周五9~17"}}, {"type": "Feature", "geometry": {"type": "Point", "coordinates": [121.518174, 25.047271]}, "properties": {"city": "taipei", "Seq": "97", "District": "中正", "Name": "臺北火車站東3門", "StreetName": "臺北車站東側公園路公車專用道(內側)", "Slots": "70", "Schedule": "0~24"}}, {"type": "Feature", "geometry": {"type": "Point", "coordinates": [121.515929, 25.047912]}, "properties": {"city": "taipei", "Seq": "98", "District": "中正", "Name": "臺北火車站西側地下停車場", "StreetName": "臺北車站西側地下停車場(館前路與北平西路間)", "Slots": "43", "Schedule": "0~24"}}, {"type": "Feature", "geometry": {"type": "Point", "coordinates": [121.516288, 25.046372]}, "properties": {"city": "taipei", "Seq": "99", "District": "中正", "Name": "台北凱撒大飯店(忠孝西路)", "StreetName": "忠孝西路1段38號", "Slots": "1", "Schedule": "0~24"}}, {"type": "Feature", "geometry": {"type": "Point", "coordinates": [121.507461, 25.027207]}, "properties": {"city": "taipei", "Seq": "100", "District": "中正", "Name": "南海路(德泰車行旁)", "StreetName": "南海路124-1號", "Slots": "1", "Schedule": "0~24"}}, {"type": "Feature", "geometry": {"type": "Point", "coordinates": [121.517926, 25.026364]}, "properties": {"city": "taipei", "Seq": "101", "District": "中正", "Name": "廈門街25巷", "StreetName": "廈門街25巷", "Slots": "2", "Schedule": "9~17"}}, {"type": "Feature", "geometry": {"type": "Point", "coordinates": [121.517626, 25.033488]}, "properties": {"city": "taipei", "Seq": "102", "District": "中正", "Name": "勞保局", "StreetName": "中正區羅斯福路1段4號(捷運中正紀念堂1號出口)", "Slots": "3", "Schedule": "6~22"}}, {"type": "Feature", "geometry": {"type": "Point", "coordinates": [121.582864, 25.068459]}, "properties": {"city": "taipei", "Seq": "103", "District": "內湖", "Name": "民權天下大樓", "StreetName": "民權東路6段23號", "Slots": "2", "Schedule": "週一至週五10~17(7~10與17~20禁停)"}}, {"type": "Feature", "geometry": {"type": "Point", "coordinates": [121.576236, 25.064013]}, "properties": {"city": "taipei", "Seq": "104", "District": "內湖", "Name": "好市多賣場", "StreetName": "舊宗路1段268號", "Slots": "5", "Schedule": "週一至週五0~24(假日禁停)"}}, {"type": "Feature", "geometry": {"type": "Point", "coordinates": [121.574262, 25.062534]}, "properties": {"city": "taipei", "Seq": "105", "District": "內湖", "Name": "特力屋賣場", "StreetName": "新湖三路23號", "Slots": "6", "Schedule": "0~24"}}, {"type": "Feature", "geometry": {"type": "Point", "coordinates": [121.586723, 25.088286]}, "properties": {"city": "taipei", "Seq": "106", "District": "內湖", "Name": "全家超商前", "StreetName": "金龍路224號", "Slots": "2", "Schedule": "7~17"}}, {"type": "Feature", "geometry": {"type": "Point", "coordinates": [121.6052, 25.073178]}, "properties": {"city": "taipei", "Seq": "107", "District": "內湖", "Name": "集合住宅前", "StreetName": "民權東路6段493號", "Slots": "3", "Schedule": "0~24"}}, {"type": "Feature", "geometry": {"type": "Point", "coordinates": [121.570179, 25.080399]}, "properties": {"city": "taipei", "Seq": "108", "District": "內湖", "Name": "a爾發科技中心大樓", "StreetName": "洲子街106號", "Slots": "2", "Schedule": "週一至週五9~17"}}, {"type": "Feature", "geometry": {"type": "Point", "coordinates": [121.570205, 25.080285]}, "properties": {"city": "taipei", "Seq": "109", "District": "內湖", "Name": "a爾發科技中心大樓", "StreetName": "瑞光路513巷36號前", "Slots": "1", "Schedule": "週一至週五9~17"}}, {"type": "Feature", "geometry": {"type": "Point", "coordinates": [121.602429, 25.083832]}, "properties": {"city": "taipei", "Seq": "110", "District": "內湖", "Name": "捷運大湖公園站1號出口", "StreetName": "成功路5段", "Slots": "1", "Schedule": "0~24"}}, {"type": "Feature", "geometry": {"type": "Point", "coordinates": [121.575764, 25.058665]}, "properties": {"city": "taipei", "Seq": "111", "District": "內湖", "Name": "新湖一路85號", "StreetName": "新湖一路85號", "Slots": "3", "Schedule": "週一至週五18~20"}}, {"type": "Feature", "geometry": {"type": "Point", "coordinates": [121.59922, 25.060909]}, "properties": {"city": "taipei", "Seq": "112", "District": "內湖", "Name": "長虹雲端科技大樓", "StreetName": "安康路106巷", "Slots": "3", "Schedule": "0~24"}}, {"type": "Feature", "geometry": {"type": "Point", "coordinates": [121.573451, 24.998014]}, "properties": {"city": "taipei", "Seq": "113", "District": "文山", "Name": "捷運木柵站", "StreetName": "木柵路4段111巷", "Slots": "6", "Schedule": "0~24"}}, {"type": "Feature", "geometry": {"type": "Point", "coordinates": [121.581637, 24.999475]}, "properties": {"city": "taipei", "Seq": "114", "District": "文山", "Name": "木柵動物園前廣場東側", "StreetName": "新光路", "Slots": "5", "Schedule": "0~24"}}, {"type": "Feature", "geometry": {"type": "Point", "coordinates": [121.579867, 24.998416]}, "properties": {"city": "taipei", "Seq": "115", "District": "文山", "Name": "捷運動物園站", "StreetName": "新光路2段32號", "Slots": "6", "Schedule": "0~24"}}, {"type": "Feature", "geometry": {"type": "Point", "coordinates": [121.568722, 24.998486]}, "properties": {"city": "taipei", "Seq": "116", "District": "文山", "Name": "捷運萬芳社區站停車彎", "StreetName": "萬芳路60號", "Slots": "2", "Schedule": "0~24"}}, {"type": "Feature", "geometry": {"type": "Point", "coordinates": [121.587846, 24.968699]}, "properties": {"city": "taipei", "Seq": "117", "District": "文山", "Name": "貓空纜車(貓空站)", "StreetName": "指南路3段38巷35號(貓空纜車貓空站前)", "Slots": "3", "Schedule": "0~24"}}, {"type": "Feature", "geometry": {"type": "Point", "coordinates": [121.558415, 24.999447]}, "properties": {"city": "taipei", "Seq": "118", "District": "文山", "Name": "萬芳醫院", "StreetName": "興隆路3段115巷", "Slots": "4", "Schedule": "0~24"}}, {"type": "Feature", "geometry": {"type": "Point", "coordinates": [121.575945, 24.996012]}, "properties": {"city": "taipei", "Seq": "119", "District": "文山", "Name": "貓空纜車(動物園站)", "StreetName": "新光路2段(貓空纜車貓空站前)", "Slots": "6", "Schedule": "0~24"}}, {"type": "Feature", "geometry": {"type": "Point", "coordinates": [121.561862, 24.984191]}, "properties": {"city": "taipei", "Seq": "120", "District": "文山", "Name": "邱成湦皮膚科診所前", "StreetName": "興隆路4段163之1號", "Slots": "1", "Schedule": "週一至週五7~10"}}, {"type": "Feature", "geometry": {"type": "Point", "coordinates": [121.502535, 25.136998]}, "properties": {"city": "taipei", "Seq": "121", "District": "北投", "Name": "捷運新北投站", "StreetName": "大業路700 號", "Slots": "3", "Schedule": "0~24"}}, {"type": "Feature", "geometry": {"type": "Point", "coordinates": [121.473151, 25.131107]}, "properties": {"city": "taipei", "Seq": "122", "District": "北投", "Name": "捷運忠義站", "StreetName": "中央北路4段", "Slots": "5", "Schedule": "0~24"}}, {"type": "Feature", "geometry": {"type": "Point", "coordinates": [121.498385, 25.131724]}, "properties": {"city": "taipei", "Seq": "123", "District": "北投", "Name": "捷運北投站", "StreetName": "北投路2段1號", "Slots": "12", "Schedule": "0~24"}}, {"type": "Feature", "geometry": {"type": "Point", "coordinates": [121.472001, 25.128526]}, "properties": {"city": "taipei", "Seq": "124", "District": "北投", "Name": "和信醫院", "StreetName": "立德路125號", "Slots": "4", "Schedule": "0~24"}}, {"type": "Feature", "geometry": {"type": "Point", "coordinates": [121.515433, 25.114987]}, "properties": {"city": "taipei", "Seq": "125", "District": "北投", "Name": "捷運石牌站", "StreetName": "東華街1段", "Slots": "7", "Schedule": "0~24"}}, {"type": "Feature", "geometry": {"type": "Point", "coordinates": [121.506609, 25.120924]}, "properties": {"city": "taipei", "Seq": "126", "District": "北投", "Name": "捷運唭哩岸站東側", "StreetName": "東華街2段322號對面停車彎", "Slots": "1", "Schedule": "0~24"}}, {"type": "Feature", "geometry": {"type": "Point", "coordinates": [121.547248, 25.152345]}, "properties": {"city": "taipei", "Seq": "127", "District": "北投", "Name": "陽明山", "StreetName": "湖山路一段14號對面", "Slots": "2", "Schedule": "0~24"}}, {"type": "Feature", "geometry": {"type": "Point", "coordinates": [121.467328, 25.125489]}, "properties": {"city": "taipei", "Seq": "128", "District": "北投", "Name": "捷運關渡站1號出口", "StreetName": "捷運關渡站1號出口左側", "Slots": "8", "Schedule": "0~24"}}, {"type": "Feature", "geometry": {"type": "Point", "coordinates": [121.471505, 25.124852]}, "properties": {"city": "taipei", "Seq": "129", "District": "北投", "Name": "華碩電腦公司前", "StreetName": "立德路15號", "Slots": "7", "Schedule": "周一至週五9~20"}}, {"type": "Feature", "geometry": {"type": "Point", "coordinates": [121.519235, 25.109158]}, "properties": {"city": "taipei", "Seq": "130", "District": "北投", "Name": "捷運明德站出口", "StreetName": "捷運明德站出口(明德路西往東)", "Slots": "2", "Schedule": "0~24"}}, {"type": "Feature", "geometry": {"type": "Point", "coordinates": [121.521391, 25.117257]}, "properties": {"city": "taipei", "Seq": "131", "District": "北投", "Name": "振興醫院", "StreetName": "明德路365號對面", "Slots": "4", "Schedule": "週一至週六8~20"}}, {"type": "Feature", "geometry": {"type": "Point", "coordinates": [121.471499, 25.124844]}, "properties": {"city": "taipei", "Seq": "132", "District": "北投", "Name": "萊爾富對面", "StreetName": "立德路60號對面", "Slots": "3", "Schedule": "周一至周五9~17"}}, {"type": "Feature", "geometry": {"type": "Point", "coordinates": [121.522305, 25.116913]}, "properties": {"city": "taipei", "Seq": "133", "District": "北投", "Name": "振興醫院", "StreetName": "振興街45號", "Slots": "2", "Schedule": "0~24"}}, {"type": "Feature", "geometry": {"type": "Point", "coordinates": [121.548411, 25.045949]}, "properties": {"city": "taipei", "Seq": "134", "District": "松山", "Name": "臺北富邦銀行敦南分行", "StreetName": "敦化南路1段108號", "Slots": "3", "Schedule": "0~24"}}, {"type": "Feature", "geometry": {"type": "Point", "coordinates": [121.544239, 25.046099]}, "properties": {"city": "taipei", "Seq": "135", "District": "松山", "Name": "微風廣場購物中心", "StreetName": "復興南路1段39號", "Slots": "3", "Schedule": "0~24"}}, {"type": "Feature", "geometry": {"type": "Point", "coordinates": [121.548603, 25.054752]}, "properties": {"city": "taipei", "Seq": "136", "District": "松山", "Name": "FRIDAY餐廳", "StreetName": "敦化北路150號", "Slots": "2", "Schedule": "0~24"}}, {"type": "Feature", "geometry": {"type": "Point", "coordinates": [121.563333, 25.058423]}, "properties": {"city": "taipei", "Seq": "137", "District": "松山", "Name": "三民路圓環", "StreetName": "三民路115號", "Slots": "2", "Schedule": "週一至週五8~18"}}, {"type": "Feature", "geometry": {"type": "Point", "coordinates": [121.546441, 25.058185]}, "properties": {"city": "taipei", "Seq": "138", "District": "松山", "Name": "玉山銀行", "StreetName": "民生東路3段115號", "Slots": "3", "Schedule": "8~18"}}, {"type": "Feature", "geometry": {"type": "Point", "coordinates": [121.56007, 25.049963]}, "properties": {"city": "taipei", "Seq": "139", "District": "松山", "Name": "臺北瓦斯光復大樓", "StreetName": "光復北路11巷50號", "Slots": "4", "Schedule": "週一至週五8~20"}}, {"type": "Feature", "geometry": {"type": "Point", "coordinates": [121.558234, 25.053913]}, "properties": {"city": "taipei", "Seq": "140", "District": "松山", "Name": "三軍總醫院松山分院", "StreetName": "健康路131號", "Slots": "2", "Schedule": "0~24"}}, {"type": "Feature", "geometry": {"type": "Point", "coordinates": [121.544268, 25.049048]}, "properties": {"city": "taipei", "Seq": "141", "District": "松山", "Name": "中興百貨", "StreetName": "復興北路15號", "Slots": "1", "Schedule": "周一至周五11~23"}}, {"type": "Feature", "geometry": {"type": "Point", "coordinates": [121.544182, 25.050411]}, "properties": {"city": "taipei", "Seq": "142", "District": "松山", "Name": "合作金庫儲蓄部", "StreetName": "復興北路55號", "Slots": "2", "Schedule": "週一至週五8~18"}}, {"type": "Feature", "geometry": {"type": "Point", "coordinates": [121.548481, 25.056559]}, "properties": {"city": "taipei", "Seq": "143", "District": "松山", "Name": "渣打銀行", "StreetName": "敦化北路168號", "Slots": "9", "Schedule": "週一至週五8~18"}}, {"type": "Feature", "geometry": {"type": "Point", "coordinates": [121.549451, 25.055346]}, "properties": {"city": "taipei", "Seq": "144", "District": "松山", "Name": "長庚醫院", "StreetName": "敦化北路197號", "Slots": "4", "Schedule": "0~24"}}, {"type": "Feature", "geometry": {"type": "Point", "coordinates": [121.545549, 25.045325]}, "properties": {"city": "taipei", "Seq": "145", "District": "松山", "Name": "微風廣場", "StreetName": "微風廣場東側巷道", "Slots": "2", "Schedule": "10~22"}}, {"type": "Feature", "geometry": {"type": "Point", "coordinates": [121.547438, 25.048146]}, "properties": {"city": "taipei", "Seq": "146", "District": "松山", "Name": "台安醫院", "StreetName": "八德路2段台安醫院前", "Slots": "4", "Schedule": "0~24"}}, {"type": "Feature", "geometry": {"type": "Point", "coordinates": [121.547788, 25.057248]}, "properties": {"city": "taipei", "Seq": "147", "District": "松山", "Name": "宏泰世紀大樓(勞委會)", "StreetName": "民生東路3段156號", "Slots": "4", "Schedule": "9~24"}}, {"type": "Feature", "geometry": {"type": "Point", "coordinates": [121.544474, 25.061076]}, "properties": {"city": "taipei", "Seq": "148", "District": "松山", "Name": "一銀民權分行", "StreetName": "復興北路365號", "Slots": "3", "Schedule": "週一至週五7~20"}}, {"type": "Feature", "geometry": {"type": "Point", "coordinates": [121.544197, 25.052334]}, "properties": {"city": "taipei", "Seq": "149", "District": "松山", "Name": "捷運南京復興站", "StreetName": "復興北路臨7號出口", "Slots": "3", "Schedule": "0~24"}}, {"type": "Feature", "geometry": {"type": "Point", "coordinates": [121.552414, 25.051885]}, "properties": {"city": "taipei", "Seq": "150", "District": "松山", "Name": "捷運臺北小巨蛋站", "StreetName": "南京東路4段55號(1號出口旁)", "Slots": "3", "Schedule": "0~24"}}, {"type": "Feature", "geometry": {"type": "Point", "coordinates": [121.551867, 25.051322]}, "properties": {"city": "taipei", "Seq": "151", "District": "松山", "Name": "捷運臺北小巨蛋站", "StreetName": "南京東路4段6號(3號出口旁)", "Slots": "3", "Schedule": "0~24"}}, {"type": "Feature", "geometry": {"type": "Point", "coordinates": [121.577962, 25.051251]}, "properties": {"city": "taipei", "Seq": "152", "District": "松山", "Name": "慈祐宮周邊(7-11前)", "StreetName": "八德路4段767號前", "Slots": "2", "Schedule": "19~01"}}, {"type": "Feature", "geometry": {"type": "Point", "coordinates": [121.577746, 25.050453]}, "properties": {"city": "taipei", "Seq": "153", "District": "松山", "Name": "慈祐宮周邊(松山國小前)", "StreetName": "捷運松山站5號出口前", "Slots": "2", "Schedule": "19~01"}}, {"type": "Feature", "geometry": {"type": "Point", "coordinates": [121.578269, 25.048911]}, "properties": {"city": "taipei", "Seq": "154", "District": "松山", "Name": "松山車站地下停車場", "StreetName": "松山路11號", "Slots": "30", "Schedule": "0~24"}}, {"type": "Feature", "geometry": {"type": "Point", "coordinates": [121.548417, 25.063416]}, "properties": {"city": "taipei", "Seq": "155", "District": "松山", "Name": "上達汽車前", "StreetName": "民族東路689號", "Slots": "1", "Schedule": "0~24"}}, {"type": "Feature", "geometry": {"type": "Point", "coordinates": [121.547387, 25.051872]}, "properties": {"city": "taipei", "Seq": "156", "District": "松山", "Name": "柯達大飯店台北南京館", "StreetName": "松山區南京東路三段333號", "Slots": "2", "Schedule": "0~24"}}, {"type": "Feature", "geometry": {"type": "Point", "coordinates": [121.563694, 25.036998]}, "properties": {"city": "taipei", "Seq": "157", "District": "信義", "Name": "市府正大門口南側", "StreetName": "市府路1號", "Slots": "5", "Schedule": "0~24"}}, {"type": "Feature", "geometry": {"type": "Point", "coordinates": [121.563426, 25.035671]}, "properties": {"city": "taipei", "Seq": "158", "District": "信義", "Name": "君悅飯店", "StreetName": "市府路松壽路口西南側", "Slots": "4", "Schedule": "0~24"}}, {"type": "Feature", "geometry": {"type": "Point", "coordinates": [121.563056, 25.041097]}, "properties": {"city": "taipei", "Seq": "159", "District": "信義", "Name": "兆豐銀行(臺北分行)", "StreetName": "忠孝東路4段550號", "Slots": "2", "Schedule": "0~24"}}, {"type": "Feature", "geometry": {"type": "Point", "coordinates": [121.567198, 25.040976]}, "properties": {"city": "taipei", "Seq": "160", "District": "信義", "Name": "捷運市政府站3號出口", "StreetName": "忠孝東路5段", "Slots": "6", "Schedule": "0~24"}}, {"type": "Feature", "geometry": {"type": "Point", "coordinates": [121.578413, 25.040995]}, "properties": {"city": "taipei", "Seq": "161", "District": "信義", "Name": "銀星商業大樓", "StreetName": "忠孝東路5段508號", "Slots": "2", "Schedule": "週一至週五7~20"}}, {"type": "Feature", "geometry": {"type": "Point", "coordinates": [121.566086, 25.047843]}, "properties": {"city": "taipei", "Seq": "162", "District": "信義", "Name": "中農科技大樓", "StreetName": "東興路45號1樓前(合作金庫銀行)", "Slots": "5", "Schedule": "8~20"}}, {"type": "Feature", "geometry": {"type": "Point", "coordinates": [121.568541, 25.036947]}, "properties": {"city": "taipei", "Seq": "163", "District": "信義", "Name": "第一交易廣場", "StreetName": "松仁路93號", "Slots": "5", "Schedule": "0~24"}}, {"type": "Feature", "geometry": {"type": "Point", "coordinates": [121.568516, 25.036218]}, "properties": {"city": "taipei", "Seq": "164", "District": "信義", "Name": "群益大樓", "StreetName": "松仁路97號", "Slots": "3", "Schedule": "0~24"}}, {"type": "Feature", "geometry": {"type": "Point", "coordinates": [121.565569, 25.036362]}, "properties": {"city": "taipei", "Seq": "165", "District": "信義", "Name": "中國信託商業銀行(松智路)", "StreetName": "松智路（距松壽路口北側25公尺處）", "Slots": "2", "Schedule": "0~24"}}, {"type": "Feature", "geometry": {"type": "Point", "coordinates": [121.566081, 25.035945]}, "properties": {"city": "taipei", "Seq": "166", "District": "信義", "Name": "中國信託商業銀行(松壽路)", "StreetName": "松壽路3號", "Slots": "1", "Schedule": "0~24"}}, {"type": "Feature", "geometry": {"type": "Point", "coordinates": [121.567422, 25.035941]}, "properties": {"city": "taipei", "Seq": "167", "District": "信義", "Name": "新光三越信義店A11松壽路前", "StreetName": "松壽路", "Slots": "2", "Schedule": "0~24"}}, {"type": "Feature", "geometry": {"type": "Point", "coordinates": [121.568527, 25.038123]}, "properties": {"city": "taipei", "Seq": "168", "District": "信義", "Name": "國泰金融中心", "StreetName": "松仁路9號", "Slots": "7", "Schedule": "0~24"}}, {"type": "Feature", "geometry": {"type": "Point", "coordinates": [121.567524, 25.035537]}, "properties": {"city": "taipei", "Seq": "169", "District": "信義", "Name": "華納威秀影城", "StreetName": "華納影城東側(與neo19間)巷口", "Slots": "3", "Schedule": "0~24"}}, {"type": "Feature", "geometry": {"type": "Point", "coordinates": [121.556691, 25.020829]}, "properties": {"city": "taipei", "Seq": "170", "District": "信義", "Name": "黎富公園", "StreetName": "和平東路3段341巷口公園旁", "Slots": "2", "Schedule": "周一至周五8~17"}}, {"type": "Feature", "geometry": {"type": "Point", "coordinates": [121.568584, 25.039732]}, "properties": {"city": "taipei", "Seq": "171", "District": "信義", "Name": "中油大樓", "StreetName": "松仁路3號", "Slots": "3", "Schedule": "週一至週五9~20"}}, {"type": "Feature", "geometry": {"type": "Point", "coordinates": [121.566435, 25.038988]}, "properties": {"city": "taipei", "Seq": "172", "District": "信義", "Name": "新光三越A8館", "StreetName": "松智路9巷", "Slots": "2", "Schedule": "0~24"}}, {"type": "Feature", "geometry": {"type": "Point", "coordinates": [121.568245, 25.035599]}, "properties": {"city": "taipei", "Seq": "173", "District": "信義", "Name": "信義區松仁路NEO19", "StreetName": "松仁路NEO19前", "Slots": "3", "Schedule": "23~05"}}, {"type": "Feature", "geometry": {"type": "Point", "coordinates": [121.563652, 25.037852]}, "properties": {"city": "taipei", "Seq": "174", "District": "信義", "Name": "臺北市政府西大門左側", "StreetName": "市府路1號", "Slots": "3", "Schedule": "0~24"}}, {"type": "Feature", "geometry": {"type": "Point", "coordinates": [121.599869, 25.041595]}, "properties": {"city": "taipei", "Seq": "175", "District": "信義", "Name": "忠孝東路5段", "StreetName": "忠孝東路5段532號", "Slots": "2", "Schedule": "12~23"}}, {"type": "Feature", "geometry": {"type": "Point", "coordinates": [121.560845, 25.045]}, "properties": {"city": "taipei", "Seq": "176", "District": "信義", "Name": "松菸文創園區", "StreetName": "菸廠路88號", "Slots": "3", "Schedule": "0~24"}}, {"type": "Feature", "geometry": {"type": "Point", "coordinates": [121.569733, 25.030183]}, "properties": {"city": "taipei", "Seq": "177", "District": "信義", "Name": "象山公園", "StreetName": "信義路5段150巷", "Slots": "3", "Schedule": "8~18"}}, {"type": "Feature", "geometry": {"type": "Point", "coordinates": [121.607398, 25.052044]}, "properties": {"city": "taipei", "Seq": "178", "District": "南港", "Name": "捷運南港站2號出口", "StreetName": "忠孝東路7段", "Slots": "7", "Schedule": "0~24"}}, {"type": "Feature", "geometry": {"type": "Point", "coordinates": [121.61399, 25.05834]}, "properties": {"city": "taipei", "Seq": "179", "District": "南港", "Name": "軟體工業園區", "StreetName": "三重路19號(A棟)", "Slots": "4", "Schedule": "周一至周五9~20"}}, {"type": "Feature", "geometry": {"type": "Point", "coordinates": [121.6116, 25.05901]}, "properties": {"city": "taipei", "Seq": "180", "District": "南港", "Name": "軟體工業園區", "StreetName": "園區街3號(F棟)", "Slots": "5", "Schedule": "週一至週五9~20"}}, {"type": "Feature", "geometry": {"type": "Point", "coordinates": [121.612373, 25.056207]}, "properties": {"city": "taipei", "Seq": "181", "District": "南港", "Name": "軟體工業園區", "StreetName": "新民街出入口(H棟)", "Slots": "3", "Schedule": "週一至週五9~20"}}, {"type": "Feature", "geometry": {"type": "Point", "coordinates": [121.581603, 25.044424]}, "properties": {"city": "taipei", "Seq": "182", "District": "南港", "Name": "捷運板南線後山埤站", "StreetName": "中坡北路出口Ａ(1號出口旁)", "Slots": "5", "Schedule": "0~24"}}, {"type": "Feature", "geometry": {"type": "Point", "coordinates": [121.586678, 25.046349]}, "properties": {"city": "taipei", "Seq": "183", "District": "南港", "Name": "聯合醫院忠孝院區", "StreetName": "同德路、東新街80巷口西北側", "Slots": "3", "Schedule": "0~24"}}, {"type": "Feature", "geometry": {"type": "Point", "coordinates": [121.606363, 25.053742]}, "properties": {"city": "taipei", "Seq": "184", "District": "南港", "Name": "南港火車站", "StreetName": "興華路(車站出口左側)", "Slots": "4", "Schedule": "0~24"}}, {"type": "Feature", "geometry": {"type": "Point", "coordinates": [121.605729, 25.054239]}, "properties": {"city": "taipei", "Seq": "185", "District": "南港", "Name": "家樂福量販店大門口東側", "StreetName": "南港路2段18號", "Slots": "2", "Schedule": "10~22"}}, {"type": "Feature", "geometry": {"type": "Point", "coordinates": [121.615541, 25.059775]}, "properties": {"city": "taipei", "Seq": "186", "District": "南港", "Name": "捷運南港軟體園區站西側", "StreetName": "經貿二路183號", "Slots": "4", "Schedule": "0~24"}}, {"type": "Feature", "geometry": {"type": "Point", "coordinates": [121.618116, 25.055065]}, "properties": {"city": "taipei", "Seq": "187", "District": "南港", "Name": "捷運南港展覽館站南港路北側", "StreetName": "南港路1段(捷運3號出口)", "Slots": "2", "Schedule": "0~24"}}, {"type": "Feature", "geometry": {"type": "Point", "coordinates": [121.616893, 25.055006]}, "properties": {"city": "taipei", "Seq": "188", "District": "南港", "Name": "捷運南港展覽館站南港路南側", "StreetName": "南港路1段(靠近研究院路一段、捷運站5號出口)", "Slots": "6", "Schedule": "0~24"}}, {"type": "Feature", "geometry": {"type": "Point", "coordinates": [121.61446, 25.05708]}, "properties": {"city": "taipei", "Seq": "189", "District": "南港", "Name": "世正經貿大樓(後側)", "StreetName": "經貿二路66號", "Slots": "5", "Schedule": "周一至周五9~20"}}, {"type": "Feature", "geometry": {"type": "Point", "coordinates": [121.594232, 25.050601]}, "properties": {"city": "taipei", "Seq": "190", "District": "南港", "Name": "捷運昆陽站4號出口", "StreetName": "忠孝東路6段(公車停靠區前)", "Slots": "3", "Schedule": "0~24"}}, {"type": "Feature", "geometry": {"type": "Point", "coordinates": [121.61446, 25.05708]}, "properties": {"city": "taipei", "Seq": "191", "District": "南港", "Name": "世正經貿大樓(左側)", "StreetName": "經貿2路62巷(近三重路)", "Slots": "5", "Schedule": "週一至週五9~20"}}, {"type": "Feature", "geometry": {"type": "Point", "coordinates": [121.606384, 25.051918]}, "properties": {"city": "taipei", "Seq": "192", "District": "南港", "Name": "捷運南港站1號出口", "StreetName": "忠孝東路7段", "Slots": "2", "Schedule": "0~24"}}, {"type": "Feature", "geometry": {"type": "Point", "coordinates": [121.605364, 25.052414]}, "properties": {"city": "taipei", "Seq": "193", "District": "南港", "Name": "南港車站B1夾層計程車排班區", "StreetName": "南港路一段313號", "Slots": "64", "Schedule": "8~23"}}, {"type": "Feature", "geometry": {"type": "Point", "coordinates": [121.599896, 25.052066]}, "properties": {"city": "taipei", "Seq": "194", "District": "南港", "Name": "北部流行音樂中心(南基地)", "StreetName": "市民大道8段", "Slots": "3", "Schedule": "9~18"}}, {"type": "Feature", "geometry": {"type": "Point", "coordinates": [121.508634, 25.042434]}, "properties": {"city": "taipei", "Seq": "195", "District": "萬華", "Name": "遠東百貨寶慶店", "StreetName": "寶慶路", "Slots": "2", "Schedule": "0~24"}}, {"type": "Feature", "geometry": {"type": "Point", "coordinates": [121.500937, 25.033136]}, "properties": {"city": "taipei", "Seq": "196", "District": "萬華", "Name": "臺鐵萬華站", "StreetName": "東站艋舺大道側", "Slots": "6", "Schedule": "0~24"}}, {"type": "Feature", "geometry": {"type": "Point", "coordinates": [121.507151, 25.047146]}, "properties": {"city": "taipei", "Seq": "197", "District": "萬華", "Name": "萬華運動中心", "StreetName": "西寧南路6之1號", "Slots": "2", "Schedule": "9~21"}}, {"type": "Feature", "geometry": {"type": "Point", "coordinates": [121.499182, 25.033457]}, "properties": {"city": "taipei", "Seq": "198", "District": "萬華", "Name": "凱達大飯店", "StreetName": "西園路1段306巷", "Slots": "2", "Schedule": "0~24"}}, {"type": "Feature", "geometry": {"type": "Point", "coordinates": [121.493527, 25.028686]}, "properties": {"city": "taipei", "Seq": "199", "District": "萬華", "Name": "東昀交通公司前", "StreetName": "西藏路510號", "Slots": "1", "Schedule": "週一至周六9~21"}}, {"type": "Feature", "geometry": {"type": "Point", "coordinates": [121.501464, 25.033705]}, "properties": {"city": "taipei", "Seq": "200", "District": "萬華", "Name": "萬華車站(廣二停車場東側)", "StreetName": "康定路317巷", "Slots": "5", "Schedule": "0~24"}}, {"type": "Feature", "geometry": {"type": "Point", "coordinates": [121.504004, 25.02862]}, "properties": {"city": "taipei", "Seq": "201", "District": "萬華", "Name": "慈安首璽大樓", "StreetName": "中華路2段364巷", "Slots": "1", "Schedule": "0~24"}}, {"type": "Feature", "geometry": {"type": "Point", "coordinates": [121.508621, 25.045226]}, "properties": {"city": "taipei", "Seq": "202", "District": "萬華", "Name": "索拉利亞西鐵飯店", "StreetName": "漢口街2段", "Slots": "2", "Schedule": "0~24"}}, {"type": "Feature", "geometry": {"type": "Point", "coordinates": [120.440984, 23.478647]}, "properties": {"city": "chiayi", "RoadSegment": "中山路", "Name": "嘉義火車站出口", "Range": "1區"}}, {"type": "Feature", "geometry": {"type": "Point", "coordinates": [120.441004, 23.478087]}, "properties": {"city": "chiayi", "RoadSegment": "中山路", "Name": "中山路近文創園區", "Range": "1區"}}, {"type": "Feature", "geometry": {"type": "Point", "coordinates": [120.440172, 23.477031]}, "properties": {"city": "chiayi", "RoadSegment": "中山路", "Name": "文創園區大門旁", "Range": "1區"}}, {"type": "Feature", "geometry": {"type": "Point", "coordinates": [120.44029, 23.476908]}, "properties": {"city": "chiayi", "RoadSegment": "中山路", "Name": "文創園區對面", "Range": "1區"}}, {"type": "Feature", "geometry": {"type": "Point", "coordinates": [120.463291, 23.482657]}, "properties": {"city": "chiayi", "RoadSegment": "中山路", "Name": "公園派出所對面", "Range": "1格"}}, {"type": "Feature", "geometry": {"type": "Point", "coordinates": [120.449717, 23.479656]}, "properties": {"city": "chiayi", "RoadSegment": "文化路", "Name": "土地銀行", "Range": "1區"}}, {"type": "Feature", "geometry": {"type": "Point", "coordinates": [120.450273, 23.474148]}, "properties": {"city": "chiayi", "RoadSegment": "文化路", "Name": "文化公園", "Range": "1區"}}, {"type": "Feature", "geometry": {"type": "Point", "coordinates": [120.441907, 23.478575]}, "properties": {"city": "chiayi", "RoadSegment": "仁愛路", "Name": "仁愛路、中正路口", "Range": "2格"}}, {"type": "Feature", "geometry": {"type": "Point", "coordinates": [120.442445, 23.473386]}, "properties": {"city": "chiayi", "RoadSegment": "仁愛路", "Name": "仁愛路、垂楊路口", "Range": "1區"}}, {"type": "Feature", "geometry": {"type": "Point", "coordinates": [120.450058, 23.499739]}, "properties": {"city": "chiayi", "RoadSegment": "忠孝路", "Name": "嘉基醫院大門前", "Range": "1區"}}, {"type": "Feature", "geometry": {"type": "Point", "coordinates": [120.441789, 23.468127]}, "properties": {"city": "chiayi", "RoadSegment": "興業西路", "Name": "經國新城外側", "Range": "2格"}}, {"type": "Feature", "geometry": {"type": "Point", "coordinates": [120.430897, 23.484471]}, "properties": {"city": "chiayi", "RoadSegment": "八德路", "Name": "僑平國小圍牆外", "Range": "1區"}}, {"type": "Feature", "geometry": {"type": "Point", "coordinates": [120.453092, 23.480549]}, "properties": {"city": "chiayi", "RoadSegment": "吳鳳北路", "Name": "陽明醫院停車場外", "Range": "2格"}}, {"type": "Feature", "geometry": {"type": "Point", "coordinates": [120.46997, 23.47775]}, "properties": {"city": "chiayi", "RoadSegment": "大雅路", "Name": "近小雅路口", "Range": "2格"}}, {"type": "Feature", "geometry": {"type": "Point", "coordinates": [120.448856, 23.484409]}, "properties": {"city": "chiayi", "RoadSegment": "林森西路", "Name": "林森西路、文化路口", "Range": "1區"}}, {"type": "Feature", "geometry": {"type": "Point", "coordinates": [120.442742, 23.479728]}, "properties": {"city": "chiayi", "RoadSegment": "林森西路", "Name": "光南大批發", "Range": "2格"}}, {"type": "Feature", "geometry": {"type": "Point", "coordinates": [120.461847, 23.488098]}, "properties": {"city": "chiayi", "RoadSegment": "林森東路", "Name": "地方法院及檢察署", "Range": "2區"}}, {"type": "Feature", "geometry": {"type": "Point", "coordinates": [120.439977, 23.479466]}, "properties": {"city": "chiayi", "RoadSegment": "博愛路", "Name": "轉運中心", "Range": "1區"}}, {"type": "Feature", "geometry": {"type": "Point", "coordinates": [120.437631, 23.479016]}, "properties": {"city": "chiayi", "RoadSegment": "博愛路", "Name": "大全聯", "Range": "1區"}}, {"type": "Feature", "geometry": {"type": "Point", "coordinates": [120.44314, 23.467232]}, "properties": {"city": "chiayi", "RoadSegment": "杭州三街", "Name": "近仁愛路", "Range": "3格"}}, {"type": "Feature", "geometry": {"type": "Point", "coordinates": [120.46224, 23.47426]}, "properties": {"city": "chiayi", "RoadSegment": "彌陀路", "Name": "體育館", "Range": "1區"}}, {"type": "Feature", "geometry": {"type": "Point", "coordinates": [120.42528, 23.48662]}, "properties": {"city": "chiayi", "RoadSegment": "世賢路一段", "Name": "嘉義福容voco酒店", "Range": "1區"}}]}