SET
{"type": "FeatureCollection", "features": [{"type": "Feature", "geometry": {"type": "Polygon", "coordinates": [[[121.71285701, 25.133325185], [121.712831194, 25.133060726], [121.712749198, 25.132805934], [121.712614175, 25.1325706], [121.712431312, 25.132363767], [121.712207638, 25.132193384], [121.711951748, 25.132065997], [121.711673475, 25.131986504], [121.711383514, 25.131957958], [121.711093006, 25.131981456], [121.710813116, 25.132056095], [121.710554599, 25.132179007], [121.71032739, 25.132345469], [121.71014022, 25.132549084], [121.710000282, 25.132782027], [121.709912954, 25.133035346], [121.709881592, 25.133299307], [121.709907402, 25.133563765], [121.709989392, 25.133818559], [121.710124412, 25.134053895], [121.710307273, 25.134260731], [121.710530948, 25.134431117], [121.710786841, 25.134558506], [121.711065119, 25.134638001], [121.711355086, 25.134666548], [121.7116456, 25.13464305], [121.711925496, 25.13456841], [121.712184016, 25.134445495], [121.712411227, 25.134279031], [121.712598396, 25.134075413], [121.712738331, 25.133842468], [121.712825654, 25.133589147], [121.71285701, 25.133325185]]]}, "properties": {"name": "新山水庫", "capacity_m3": 4000000.0}}, {"type": "Feature", "geometry": {"type": "Polygon", "coordinates": [[[121.737089845, 25.0873528], [121.737063982, 25.087088342], [121.736981962, 25.086833561], [121.736846937, 25.086598248], [121.736664097, 25.086391445], [121.736440468, 25.086221099], [121.736184644, 25.086093757], [121.735906456, 25.086014311], [121.735616595, 25.085985816], [121.735326199, 25.086009367], [121.735046427, 25.086084057], [121.734788032, 25.086207017], [121.734560942, 25.086373521], [121.734373884, 25.086577172], [121.734234047, 25.086810143], [121.734146806, 25.087063482], [121.734115512, 25.087327452], [121.734141369, 25.087591909], [121.734223384, 25.087846692], [121.734358405, 25.088082007], [121.734541243, 25.088288814], [121.734764873, 25.088459162], [121.7350207, 25.088586507], [121.735298893, 25.088665954], [121.73558876, 25.08869445], [121.735879163, 25.088670899], [121.73615894, 25.088596208], [121.736417339, 25.088473246], [121.736644431, 25.088306738], [121.736831488, 25.088103084], [121.736971321, 25.087870111], [121.737058558, 25.087616771], [121.737089845, 25.0873528]]]}, "properties": {"name": "西勢水庫", "capacity_m3": 560000.0}}, {"type": "Feature", "geometry": {"type": "Polygon", "coordinates": [[[121.587528922, 24.909370848], [121.587392795, 24.907960316], [121.58695756, 24.906601108], [121.586239952, 24.905345453], [121.585267554, 24.904241603], [121.584077738, 24.903331973], [121.582716227, 24.902651517], [121.581235337, 24.902226378], [121.57969197, 24.902072892], [121.578145428, 24.902196956], [121.576655132, 24.902593802], [121.575278345, 24.903248182], [121.574067969, 24.904134953], [121.573070517, 24.905220039], [121.572324321, 24.906461747], [121.571858062, 24.907812363], [121.571689666, 24.909219986], [121.571825614, 24.910630524], [121.572260693, 24.911989769], [121.572978191, 24.913245486], [121.573950541, 24.914349413], [121.575140379, 24.915259123], [121.57650198, 24.915939652], [121.577983013, 24.916364844], [121.579526553, 24.916518355], [121.581073274, 24.916394285], [121.582563727, 24.915997402], [121.583940624, 24.91534296], [121.585151047, 24.914456113], [121.586148476, 24.913370945], [121.586894583, 24.912129165], [121.5873607, 24.910778496], [121.587528922, 24.909370848]]]}, "properties": {"name": "翡翠水庫", "capacity_m3": 406000000.0}}, {"type": "Feature", "geometry": {"type": "Polygon", "coordinates": [[[121.253772076, 24.811701304], [121.253639795, 24.810290647], [121.253208546, 24.808930651], [121.25249491, 24.807673575], [121.25152632, 24.806567727], [121.250339999, 24.805655598], [121.248981536, 24.804972237], [121.247503132, 24.8045439], [121.245961593, 24.804387045], [121.24441615, 24.804507699], [121.242926182, 24.804901225], [121.241548939, 24.805552503], [121.240337342, 24.806436506], [121.23933795, 24.807519268], [121.238589168, 24.808759184], [121.238119778, 24.810108608], [121.237947825, 24.811515686], [121.238079928, 24.812926346], [121.23851102, 24.814286378], [121.239224543, 24.815543513], [121.240193084, 24.816649438], [121.241379425, 24.817561648], [121.242737973, 24.818245082], [121.244216517, 24.818673474], [121.245758229, 24.818830355], [121.247303851, 24.818709697], [121.248793976, 24.818316137], [121.250171331, 24.817664799], [121.251382977, 24.81678072], [121.25238235, 24.815697877], [121.253131045, 24.814457888], [121.253600296, 24.813108409], [121.253772076, 24.811701304]]]}, "properties": {"name": "石門水庫", "capacity_m3": 309120000.0}}, {"type": "Feature", "geometry": {"type": "Polygon", "coordinates": [[[121.043929566, 24.749107674], [121.043905214, 24.748843166], [121.043824822, 24.748588079], [121.04369148, 24.748352215], [121.043510312, 24.74814464], [121.043288282, 24.747973329], [121.04303392, 24.747844866], [121.042757002, 24.747764187], [121.04246817, 24.747734393], [121.042178523, 24.747756628], [121.041899191, 24.747830039], [121.041640909, 24.747951804], [121.041413602, 24.748117243], [121.041226006, 24.74832], [121.041085329, 24.748552283], [121.040996978, 24.748805164], [121.040964348, 24.749068927], [121.040988694, 24.749333435], [121.041069081, 24.749588524], [121.041202419, 24.749824389], [121.041383584, 24.750031967], [121.041605616, 24.750203281], [121.04185998, 24.750331747], [121.042136903, 24.750412428], [121.042425741, 24.750442223], [121.042715394, 24.750419987], [121.042994732, 24.750346575], [121.043253018, 24.750224808], [121.043480326, 24.750059366], [121.043667922, 24.749856606], [121.043808596, 24.749624321], [121.043896943, 24.749371438], [121.043929566, 24.749107674]]]}, "properties": {"name": "寶山水庫", "capacity_m3": 5470000.0}}, {"type": "Feature", "geometry": {"type": "Polygon", "coordinates": [[[120.985148844, 24.673903803], [120.98512462, 24.673639292], [120.985044387, 24.673384182], [120.984911229, 24.673148276], [120.984730264, 24.67294064], [120.984508446, 24.672769254], [120.984254299, 24.672640703], [120.98397759, 24.672559928], [120.983688953, 24.672530032], [120.983399479, 24.672552165], [120.983120292, 24.672625475], [120.982862121, 24.672747146], [120.982634888, 24.672912502], [120.982447323, 24.673115188], [120.982306636, 24.673347416], [120.982218234, 24.673600261], [120.982185513, 24.673864007], [120.982209731, 24.674128519], [120.982289958, 24.67438363], [120.982423112, 24.674619538], [120.982604076, 24.674827176], [120.982825894, 24.674998565], [120.983080044, 24.675127119], [120.983356758, 24.675207896], [120.983645401, 24.675237793], [120.983934881, 24.67521566], [120.984214073, 24.675142349], [120.984472248, 24.675020676], [120.984699484, 24.674855318], [120.984887047, 24.674652628], [120.985027731, 24.674420398], [120.985116129, 24.674167551], [120.985148844, 24.673903803]]]}, "properties": {"name": "大埔水庫", "capacity_m3": 9258000.0}}, {"type": "Feature", "geometry": {"type": "Polygon", "coordinates": [[[120.925160778, 24.66109451], [120.925119334, 24.660639579], [120.924981568, 24.660200777], [120.924752774, 24.659794968], [120.924441747, 24.659437747], [120.924060438, 24.659142841], [120.923623502, 24.658921582], [120.923147729, 24.658782473], [120.922651401, 24.658730859], [120.922153592, 24.658768724], [120.92167343, 24.658894612], [120.921229368, 24.659103687], [120.92083847, 24.659387913], [120.920515757, 24.659736368], [120.920273631, 24.660135663], [120.920121398, 24.660570452], [120.920064908, 24.661024028], [120.920106333, 24.66147896], [120.920244083, 24.661917765], [120.920472864, 24.662323579], [120.920783886, 24.662680809], [120.921165197, 24.662975723], [120.921602142, 24.66319699], [120.922077929, 24.663336105], [120.922574275, 24.663387722], [120.923072102, 24.663349857], [120.92355228, 24.663223965], [120.923996354, 24.663014884], [120.924387258, 24.66273065], [120.924709969, 24.662382186], [120.924952086, 24.661982884], [120.925104305, 24.661548089], [120.925160778, 24.66109451]]]}, "properties": {"name": "永和山水庫", "capacity_m3": 29580000.0}}, {"type": "Feature", "geometry": {"type": "Polygon", "coordinates": [[[120.903212136, 24.625670526], [120.903188087, 24.625406012], [120.903108047, 24.625150869], [120.902975093, 24.624914903], [120.902794335, 24.62470718], [120.902572718, 24.624535685], [120.90231876, 24.624407007], [120.90204222, 24.62432609], [120.901753725, 24.624296045], [120.901464361, 24.624318026], [120.901185248, 24.624391189], [120.900927111, 24.624512721], [120.900699872, 24.624677952], [120.900512261, 24.624880533], [120.90037149, 24.62511268], [120.900282967, 24.62536547], [120.900250096, 24.625629189], [120.900274139, 24.625893703], [120.900354173, 24.626148847], [120.900487123, 24.626384815], [120.90066788, 24.62659254], [120.900889497, 24.626764038], [120.901143458, 24.626892719], [120.901420003, 24.626973638], [120.901708504, 24.627003684], [120.901997874, 24.626981703], [120.902276993, 24.626908539], [120.902535133, 24.626787005], [120.902762375, 24.626621771], [120.902949985, 24.626419187], [120.903090753, 24.626187038], [120.903179271, 24.625934246], [120.903212136, 24.625670526]]]}, "properties": {"name": "劍潭水庫", "capacity_m3": 787000.0}}, {"type": "Feature", "geometry": {"type": "Polygon", "coordinates": [[[120.886683863, 24.581913096], [120.886651916, 24.581561181], [120.886545503, 24.581221728], [120.886368715, 24.580907781], [120.886128347, 24.580631404], [120.885833635, 24.58040322], [120.885495906, 24.580231995], [120.885128137, 24.580124311], [120.884744462, 24.580084304], [120.884359624, 24.580113514], [120.883988411, 24.580210816], [120.88364509, 24.580372472], [120.883342852, 24.580592269], [120.883093312, 24.580861762], [120.882906061, 24.581170594], [120.882788294, 24.581506897], [120.882744538, 24.581857747], [120.882776475, 24.582209662], [120.882882878, 24.582549117], [120.883059659, 24.582863068], [120.883300024, 24.583139449], [120.883594737, 24.583367639], [120.883932471, 24.583538868], [120.884300248, 24.583646556], [120.884683934, 24.583686564], [120.885068783, 24.583657355], [120.885440005, 24.583560051], [120.885783334, 24.583398391], [120.886085575, 24.583178589], [120.886335114, 24.582909091], [120.88652236, 24.582600255], [120.886640118, 24.582263948], [120.886683863, 24.581913096]]]}, "properties": {"name": "明德水庫", "capacity_m3": 17700000.0}}, {"type": "Feature", "geometry": {"type": "Polygon", "coordinates": [[[120.788305251, 24.343976029], [120.78822072, 24.343036625], [120.787937782, 24.34213038], [120.787467314, 24.34129212], [120.786827399, 24.340554057], [120.786042629, 24.339944553], [120.785143163, 24.339487029], [120.784163565, 24.339199066], [120.783141476, 24.339091727], [120.782116171, 24.339169137], [120.781127047, 24.339428323], [120.780212112, 24.339859323], [120.779406523, 24.340445576], [120.778741237, 24.341164555], [120.778241822, 24.341988632], [120.777927471, 24.34288614], [120.777810268, 24.343822589], [120.777894722, 24.344761994], [120.778177591, 24.345668252], [120.778648009, 24.346506537], [120.779287901, 24.347244633], [120.780072677, 24.347854172], [120.780972179, 24.348311729], [120.781951837, 24.348599717], [120.782973999, 24.348707069], [120.783999382, 24.348629658], [120.784988575, 24.348370459], [120.78590356, 24.347939434], [120.786709173, 24.347353148], [120.787374452, 24.346634134], [120.787873831, 24.345810024], [120.788188123, 24.344912491], [120.788305251, 24.343976029]]]}, "properties": {"name": "鯉魚潭水庫", "capacity_m3": 126120000.0}}, {"type": "Feature", "geometry": {"type": "Polygon", "coordinates": [[[121.17495515, 24.255268363], [121.174836626, 24.253994296], [121.17444928, 24.252765909], [121.173808006, 24.251630406], [121.172937452, 24.250631423], [121.171871075, 24.249807346], [121.170649855, 24.24918984], [121.169320718, 24.248802632], [121.167934737, 24.2486606], [121.166545166, 24.2487692], [121.165205397, 24.24912426], [121.16396691, 24.249712137], [121.162877295, 24.250510241], [121.161978422, 24.251487904], [121.161304834, 24.25260756], [121.160882423, 24.253826185], [121.160727427, 24.255096949], [121.16084581, 24.256371019], [121.16123303, 24.257599433], [121.161874215, 24.258734982], [121.162744729, 24.259734026], [121.163811121, 24.260558168], [121.165032409, 24.261175732], [121.166361656, 24.261562984], [121.167747773, 24.261705039], [121.169137486, 24.261596436], [121.170477379, 24.261241348], [121.171715955, 24.260653425], [121.172805611, 24.25985526], [121.173704469, 24.258877532], [121.174377989, 24.257757818], [121.17480029, 24.256539149], [121.17495515, 24.255268363]]]}, "properties": {"name": "德基水庫", "capacity_m3": 232000000.0}}, {"type": "Feature", "geometry": {"type": "Polygon", "coordinates": [[[121.077931399, 24.23349078], [121.077903361, 24.233186873], [121.077811205, 24.232893821], [121.077658473, 24.232622886], [121.077451036, 24.23238448], [121.077196864, 24.232187764], [121.076905727, 24.232040299], [121.07658881, 24.23194775], [121.076258295, 24.231913675], [121.07592688, 24.231939382], [121.075607302, 24.232023884], [121.075311842, 24.232163934], [121.075051854, 24.23235415], [121.074837329, 24.232587221], [121.074676511, 24.232854192], [121.07457558, 24.233144802], [121.074538415, 24.233447885], [121.074566446, 24.233751793], [121.074658595, 24.234044847], [121.074811322, 24.234315785], [121.075018757, 24.234554194], [121.075272929, 24.234750913], [121.07556407, 24.234898382], [121.075880993, 24.234990933], [121.076211516, 24.23502501], [121.076542939, 24.234999302], [121.076862524, 24.234914798], [121.077157989, 24.234774746], [121.077417979, 24.234584527], [121.077632504, 24.234351452], [121.077793318, 24.234084478], [121.077894243, 24.233793865], [121.077931399, 24.23349078]]]}, "properties": {"name": "谷關水庫", "capacity_m3": 13200000.0}}, {"type": "Feature", "geometry": {"type": "Polygon", "coordinates": [[[121.142083522, 23.980394343], [121.141988973, 23.97937465], [121.141679737, 23.978391498], [121.141167703, 23.977482669], [121.140472552, 23.976683086], [121.139621, 23.976023475], [121.138645769, 23.975529181], [121.137584336, 23.975219199], [121.136477487, 23.975105439], [121.135367752, 23.975192272], [121.134297774, 23.975476361], [121.133308665, 23.975946789], [121.132438434, 23.976585481], [121.131720522, 23.977367893], [121.131182519, 23.978263961], [121.130845101, 23.979239251], [121.13072124, 23.980256285], [121.1308157, 23.981275979], [121.131124857, 23.982259148], [121.131636834, 23.983168007], [121.132331959, 23.983967629], [121.133183521, 23.984627281], [121.134158794, 23.985121611], [121.135220297, 23.985431621], [121.136327232, 23.985545396], [121.137437056, 23.985458562], [121.138507113, 23.985174456], [121.139496278, 23.984703997], [121.140366535, 23.984065267], [121.141084438, 23.983282814], [121.141622399, 23.982386709], [121.141959747, 23.981411391], [121.142083522, 23.980394343]]]}, "properties": {"name": "霧社水庫", "capacity_m3": 148600000.0}}, {"type": "Feature", "geometry": {"type": "Polygon", "coordinates": [[[120.896331759, 23.835579222], [120.89630774, 23.835314692], [120.896228079, 23.835059556], [120.896095839, 23.834823617], [120.895916101, 23.834615944], [120.895695774, 23.834444516], [120.895443324, 23.834315921], [120.895168451, 23.834235102], [120.894881721, 23.834205163], [120.89459415, 23.834227255], [120.89431679, 23.834300529], [120.894060299, 23.83442217], [120.893834534, 23.834587502], [120.89364817, 23.834790173], [120.893508371, 23.835022394], [120.893420507, 23.835275241], [120.893387957, 23.835538997], [120.89341197, 23.835803527], [120.893491626, 23.836058664], [120.893623862, 23.836294604], [120.893803598, 23.83650228], [120.894023926, 23.836673711], [120.894276379, 23.836802308], [120.894551255, 23.83688313], [120.894837992, 23.83691307], [120.895125569, 23.836890977], [120.895402934, 23.836817702], [120.895659429, 23.83669606], [120.895885196, 23.836530725], [120.896071559, 23.836328051], [120.896211355, 23.836095828], [120.896299214, 23.835842979], [120.896331759, 23.835579222]]]}, "properties": {"name": "頭社水庫", "capacity_m3": 303700.0}}, {"type": "Feature", "geometry": {"type": "Polygon", "coordinates": [[[119.626975465, 23.578418587], [119.626941991, 23.578155012], [119.626853372, 23.577902521], [119.626713013, 23.577670816], [119.626526308, 23.577468802], [119.626300433, 23.577304242], [119.626044067, 23.577183459], [119.625767063, 23.577111096], [119.625480065, 23.577089932], [119.625194101, 23.577120782], [119.624920162, 23.57720246], [119.624668774, 23.577331826], [119.624449598, 23.577503911], [119.624271056, 23.5777121], [119.62414001, 23.577948394], [119.624061496, 23.578203711], [119.624038532, 23.57846824], [119.624072, 23.578731816], [119.624160615, 23.57898431], [119.624300971, 23.579216017], [119.624487676, 23.579418034], [119.624713553, 23.579582596], [119.624969922, 23.579703381], [119.625246932, 23.579775745], [119.625533936, 23.579796909], [119.625819905, 23.579766058], [119.626093848, 23.579684378], [119.626345239, 23.579555009], [119.626564416, 23.579382922], [119.626742956, 23.57917473], [119.626873998, 23.578938435], [119.626952506, 23.578683117], [119.626975465, 23.578418587]]]}, "properties": {"name": "成功水庫", "capacity_m3": 1084000.0}}, {"type": "Feature", "geometry": {"type": "Polygon", "coordinates": [[[119.599227295, 23.56830223], [119.59919388, 23.568038643], [119.599105321, 23.567786131], [119.598965021, 23.567554395], [119.598778372, 23.567352343], [119.598552546, 23.567187737], [119.598296221, 23.567066905], [119.598019249, 23.566994488], [119.597732272, 23.566973271], [119.597446319, 23.567004068], [119.597172377, 23.567085697], [119.596920976, 23.567215019], [119.596701775, 23.567387066], [119.596523198, 23.567595226], [119.596392108, 23.5678315], [119.596313542, 23.568086808], [119.596290522, 23.568351339], [119.59632393, 23.568614926], [119.596412485, 23.568867441], [119.596552783, 23.569099179], [119.596739432, 23.569301234], [119.59696526, 23.569465842], [119.597221588, 23.569586677], [119.597498566, 23.569659094], [119.597785549, 23.569680311], [119.598071508, 23.569649512], [119.598345453, 23.569567882], [119.598596857, 23.569438557], [119.598816059, 23.569266507], [119.598994634, 23.569058345], [119.59912572, 23.568822069], [119.59920428, 23.56856676], [119.599227295, 23.56830223]]]}, "properties": {"name": "東衛水庫", "capacity_m3": 191000.0}}, {"type": "Feature", "geometry": {"type": "Polygon", "coordinates": [[[119.606568148, 23.550186209], [119.606534727, 23.549922625], [119.60644617, 23.549670116], [119.60630588, 23.549438386], [119.606119249, 23.549236341], [119.605893448, 23.549071744], [119.605637155, 23.54895092], [119.605360219, 23.548878514], [119.605073282, 23.548857307], [119.604787371, 23.548888114], [119.604513472, 23.548969752], [119.604262112, 23.549099083], [119.604042949, 23.549271137], [119.603864406, 23.549479303], [119.603733344, 23.549715581], [119.603654801, 23.549970891], [119.603631794, 23.550235421], [119.603665209, 23.550499007], [119.603753762, 23.550751518], [119.603894049, 23.55098325], [119.60408068, 23.551185298], [119.604306483, 23.551349898], [119.604562779, 23.551470723], [119.604839721, 23.55154313], [119.605126664, 23.551564337], [119.60541258, 23.551533529], [119.605686484, 23.551451889], [119.605937847, 23.551322556], [119.60615701, 23.551150498], [119.606335551, 23.55094233], [119.606466609, 23.55070605], [119.606545147, 23.55045074], [119.606568148, 23.550186209]]]}, "properties": {"name": "興仁水庫", "capacity_m3": 678000.0}}, {"type": "Feature", "geometry": {"type": "Polygon", "coordinates": [[[120.47954679, 23.467653667], [120.479523614, 23.467389133], [120.479444938, 23.467133853], [120.479313787, 23.466897637], [120.479135202, 23.466689563], [120.478916045, 23.466517627], [120.478664738, 23.466388436], [120.478390938, 23.466306954], [120.478105168, 23.466276313], [120.47781841, 23.466297691], [120.477541681, 23.466370265], [120.477285618, 23.466491247], [120.47706006, 23.466655988], [120.476873675, 23.466858156], [120.476733626, 23.467089984], [120.476645294, 23.467342561], [120.476612076, 23.467606182], [120.476635246, 23.467870716], [120.476713917, 23.468125997], [120.476845063, 23.468362215], [120.477023647, 23.468570291], [120.477242805, 23.46874223], [120.477494114, 23.468871424], [120.477767918, 23.468952907], [120.478053694, 23.468983549], [120.478340458, 23.468962172], [120.478617192, 23.468889597], [120.478873259, 23.468768613], [120.479098819, 23.46860387], [120.479285203, 23.468401698], [120.47942525, 23.468169868], [120.479513577, 23.467917289], [120.47954679, 23.467653667]]]}, "properties": {"name": "蘭潭水庫", "capacity_m3": 9795700.0}}, {"type": "Feature", "geometry": {"type": "Polygon", "coordinates": [[[120.508029402, 23.459318153], [120.507989761, 23.458866813], [120.507855437, 23.45843128], [120.507631594, 23.458028291], [120.507326835, 23.457673332], [120.506952871, 23.457380045], [120.506524074, 23.457159698], [120.506056921, 23.457020761], [120.505569364, 23.456968571], [120.50508014, 23.457005134], [120.504608047, 23.457129045], [120.504171227, 23.457335542], [120.503786466, 23.457616691], [120.50346855, 23.457961687], [120.503229697, 23.458357272], [120.503079085, 23.458788245], [120.503022503, 23.459238044], [120.503062127, 23.459689384], [120.503196436, 23.460124919], [120.503420267, 23.460527914], [120.503725021, 23.460882879], [120.504098987, 23.461176175], [120.504527792, 23.461396528], [120.504994957, 23.461535472], [120.50548253, 23.461587665], [120.505971771, 23.461551102], [120.50644388, 23.461427188], [120.506880711, 23.461220685], [120.507265477, 23.460939529], [120.507583392, 23.460594526], [120.507822238, 23.460198933], [120.507972837, 23.459767955], [120.508029402, 23.459318153]]]}, "properties": {"name": "仁義潭水庫", "capacity_m3": 29110000.0}}, {"type": "Feature", "geometry": {"type": "Polygon", "coordinates": [[[120.478928415, 23.386022151], [120.478905237, 23.385757616], [120.478826595, 23.385502337], [120.478695512, 23.385266126], [120.478517024, 23.385058059], [120.478297992, 23.384886132], [120.478046832, 23.384756952], [120.477773196, 23.384675483], [120.4774876, 23.384644856], [120.477201019, 23.384666248], [120.476924465, 23.384738836], [120.476668567, 23.384859832], [120.476443157, 23.385024585], [120.476256898, 23.385226765], [120.476116948, 23.385458601], [120.476028686, 23.385711185], [120.475995503, 23.38597481], [120.476018674, 23.386239345], [120.476097311, 23.386494625], [120.476228391, 23.386730838], [120.476406877, 23.386938907], [120.476625909, 23.387110837], [120.476877072, 23.38724002], [120.477150712, 23.38732149], [120.477436313, 23.387352119], [120.4777229, 23.387330727], [120.477999459, 23.387258137], [120.478255362, 23.38713714], [120.478480774, 23.386972384], [120.478667032, 23.386770202], [120.478806979, 23.386538363], [120.478895237, 23.386285777], [120.478928415, 23.386022151]]]}, "properties": {"name": "鹿寮溪水庫", "capacity_m3": 3783287.0}}, {"type": "Feature", "geometry": {"type": "Polygon", "coordinates": [[[119.497776513, 23.365436458], [119.497743391, 23.365172822], [119.497655194, 23.364920217], [119.497515313, 23.364688351], [119.497329123, 23.364486134], [119.497103779, 23.364321337], [119.496847941, 23.364200292], [119.496571441, 23.364127652], [119.496284903, 23.364106208], [119.49599934, 23.364136784], [119.495725725, 23.364218205], [119.495474572, 23.364347342], [119.495255533, 23.364519232], [119.495077026, 23.364727271], [119.49494591, 23.364963463], [119.494867224, 23.365218733], [119.494843994, 23.365483269], [119.494877111, 23.365746906], [119.494965303, 23.365999513], [119.495105182, 23.366231381], [119.495291371, 23.366433601], [119.495516717, 23.366598401], [119.495772559, 23.366719447], [119.496049064, 23.366792088], [119.496335608, 23.366813532], [119.496621176, 23.366782956], [119.496894796, 23.366701533], [119.497145952, 23.366572393], [119.497364991, 23.3664005], [119.497543496, 23.366192459], [119.497674608, 23.365956265], [119.497753289, 23.365700994], [119.497776513, 23.365436458]]]}, "properties": {"name": "西安水庫", "capacity_m3": 240000.0}}, {"type": "Feature", "geometry": {"type": "Polygon", "coordinates": [[[120.474077291, 23.356414366], [120.474040589, 23.355995318], [120.473916048, 23.355590932], [120.473708452, 23.355216749], [120.473425781, 23.354887148], [120.473078898, 23.354614795], [120.472681133, 23.354410157], [120.472247772, 23.354281096], [120.471795468, 23.354232573], [120.471341602, 23.354266452], [120.470903614, 23.35438143], [120.470498337, 23.354573091], [120.470141344, 23.354834068], [120.469846353, 23.355154332], [120.469624701, 23.355521577], [120.469484907, 23.355921689], [120.469432343, 23.356339294], [120.46946903, 23.356758342], [120.469593558, 23.35716273], [120.469801144, 23.357536918], [120.470083811, 23.357866525], [120.470430695, 23.358138885], [120.470828466, 23.35834353], [120.471261838, 23.358472595], [120.471714156, 23.358521121], [120.472168037, 23.358487243], [120.472606037, 23.358372261], [120.473011324, 23.358180596], [120.473368322, 23.357919613], [120.473663312, 23.357599342], [120.473884957, 23.357232091], [120.474024741, 23.356831974], [120.474077291, 23.356414366]]]}, "properties": {"name": "白河水庫", "capacity_m3": 25093448.0}}, {"type": "Feature", "geometry": {"type": "Polygon", "coordinates": [[[120.332905229, 23.263951677], [120.332882339, 23.263687145], [120.332804032, 23.263431821], [120.332673317, 23.263195518], [120.332495217, 23.262987316], [120.332276578, 23.262815217], [120.332025802, 23.262685834], [120.331752525, 23.262604139], [120.331467249, 23.262573272], [120.331180936, 23.262594418], [120.33090459, 23.262666765], [120.33064883, 23.262787533], [120.330423484, 23.26295208], [120.330237212, 23.263154084], [120.330097173, 23.263385782], [120.330008748, 23.263638269], [120.329975335, 23.263901844], [120.329998219, 23.264166376], [120.330076522, 23.264421701], [120.330207233, 23.264658006], [120.33038533, 23.26486621], [120.330603969, 23.265038312], [120.330854749, 23.265167697], [120.33112803, 23.265249394], [120.331413312, 23.265280263], [120.33169963, 23.265259117], [120.331975981, 23.265186769], [120.332231745, 23.265065999], [120.332457093, 23.264901449], [120.332643365, 23.264699443], [120.332783401, 23.264467742], [120.332871822, 23.264215253], [120.332905229, 23.263951677]]]}, "properties": {"name": "德元埤水庫", "capacity_m3": 3853358.0}}, {"type": "Feature", "geometry": {"type": "Polygon", "coordinates": [[[120.393570171, 23.264528175], [120.39354716, 23.264263641], [120.393468734, 23.264008337], [120.393337905, 23.263772074], [120.393159704, 23.263563933], [120.392940977, 23.263391911], [120.39269013, 23.26326262], [120.392416804, 23.263181028], [120.392131501, 23.263150269], [120.391845185, 23.263171527], [120.391568859, 23.263243984], [120.391313142, 23.263364855], [120.39108786, 23.263529497], [120.390901671, 23.263731581], [120.39076173, 23.263963342], [120.390673415, 23.264215875], [120.390640121, 23.264479473], [120.390663126, 23.264744007], [120.390741547, 23.264999313], [120.390872372, 23.265235577], [120.391050571, 23.26544372], [120.391269299, 23.265615744], [120.391520148, 23.265745038], [120.391793479, 23.265826633], [120.392078787, 23.265857392], [120.392365109, 23.265836135], [120.39264144, 23.265763677], [120.392897161, 23.265642804], [120.393122445, 23.26547816], [120.393308633, 23.265276073], [120.393448572, 23.265044309], [120.393536882, 23.264791775], [120.393570171, 23.264528175]]]}, "properties": {"name": "尖山埤水庫", "capacity_m3": 8111000.0}}, {"type": "Feature", "geometry": {"type": "Polygon", "coordinates": [[[120.543644618, 23.248807481], [120.543520296, 23.247396608], [120.543100492, 23.246035255], [120.542401347, 23.244775737], [120.541449735, 23.243666454], [120.540282228, 23.24275003], [120.538943693, 23.24206168], [120.537485565, 23.241627852], [120.535963871, 23.241465214], [120.534437081, 23.241580016], [120.532963858, 23.241967844], [120.53160081, 23.242613798], [120.530400312, 23.243493055], [120.529408494, 23.244571831], [120.528663474, 23.245808673], [120.528193885, 23.247156054], [120.52801778, 23.248562198], [120.528141937, 23.24997307], [120.528561594, 23.25133445], [120.52926063, 23.252594021], [120.53021219, 23.253703373], [120.531379709, 23.254619873], [120.532718317, 23.255308294], [120.53417657, 23.255742177], [120.535698421, 23.255904846], [120.537225376, 23.255790046], [120.538698746, 23.25540219], [120.540061902, 23.254756184], [120.541262453, 23.253876857], [120.542254259, 23.252798005], [120.542999206, 23.251561092], [120.54346867, 23.250213656], [120.543644618, 23.248807481]]]}, "properties": {"name": "曾文水庫", "capacity_m3": 608317000.0}}, {"type": "Feature", "geometry": {"type": "Polygon", "coordinates": [[[120.373871171, 23.203208692], [120.373780968, 23.202170049], [120.373473288, 23.20116763], [120.372959961, 23.200239956], [120.372260716, 23.199422676], [120.371402426, 23.198747195], [120.370418076, 23.198239468], [120.36934549, 23.197919007], [120.368225885, 23.197798123], [120.36710228, 23.197881462], [120.36601785, 23.19816582], [120.365014265, 23.198640271], [120.364130089, 23.199286584], [120.363399297, 23.200079923], [120.362849976, 23.200989802], [120.362503236, 23.201981259], [120.362372407, 23.203016194], [120.362462521, 23.204054835], [120.36277012, 23.205057268], [120.363283389, 23.20598497], [120.363982605, 23.206802288], [120.364840899, 23.20747781], [120.365825289, 23.207985575], [120.366897941, 23.208306067], [120.368017632, 23.208426968], [120.369141326, 23.208343631], [120.370225836, 23.208059258], [120.37122948, 23.207584779], [120.372113685, 23.206938429], [120.372844471, 23.206145049], [120.373393753, 23.20523513], [120.373740426, 23.204243643], [120.373871171, 23.203208692]]]}, "properties": {"name": "烏山頭水庫", "capacity_m3": 154158000.0}}, {"type": "Feature", "geometry": {"type": "Polygon", "coordinates": [[[120.543962304, 23.089476096], [120.543869616, 23.088424398], [120.543556934, 23.087409638], [120.543036279, 23.086470811], [120.542327664, 23.085643993], [120.541458322, 23.084960957], [120.54046166, 23.084447949], [120.539375978, 23.084124681], [120.538242993, 23.084003575], [120.537106242, 23.084089284], [120.536009403, 23.084378513], [120.534994622, 23.08486015], [120.534100894, 23.085515686], [120.533362563, 23.086319931], [120.532808002, 23.087241983], [120.532458526, 23.088246407], [120.532327568, 23.089294608], [120.532420166, 23.090346305], [120.532732767, 23.09136108], [120.533253362, 23.092299936], [120.533961948, 23.093126792], [120.534831297, 23.09380987], [120.535827999, 23.094322918], [120.53691375, 23.094646216], [120.538046821, 23.094767339], [120.539183663, 23.094681631], [120.540280583, 23.094392386], [120.541295424, 23.093910721], [120.54218918, 23.093255147], [120.542927505, 23.092450859], [120.543482025, 23.091528769], [120.543831433, 23.090524314], [120.543962304, 23.089476096]]]}, "properties": {"name": "南化水庫", "capacity_m3": 158050000.0}}, {"type": "Feature", "geometry": {"type": "Polygon", "coordinates": [[[120.489548516, 23.05817905], [120.489525308, 23.05791451], [120.489446773, 23.057659242], [120.489315931, 23.057423057], [120.48913781, 23.05721503], [120.488919254, 23.057043157], [120.488668664, 23.056914042], [120.488395668, 23.056832646], [120.488110757, 23.056802098], [120.487824881, 23.056823571], [120.487549024, 23.056896241], [120.487293789, 23.057017314], [120.487068982, 23.057182138], [120.486883243, 23.057384379], [120.486743711, 23.057616265], [120.486655746, 23.057868885], [120.486622731, 23.058132531], [120.486645933, 23.058397071], [120.486724462, 23.05865234], [120.4868553, 23.058888527], [120.48703342, 23.059096556], [120.487251976, 23.059268431], [120.487502569, 23.059397549], [120.48777557, 23.059478947], [120.488060486, 23.059509496], [120.488346368, 23.059488023], [120.488622229, 23.059415352], [120.488877469, 23.059294278], [120.489102277, 23.059129451], [120.489288015, 23.058927208], [120.489427546, 23.058695319], [120.489515506, 23.058442697], [120.489548516, 23.05817905]]]}, "properties": {"name": "鏡面水庫", "capacity_m3": 1150000.0}}, {"type": "Feature", "geometry": {"type": "Polygon", "coordinates": [[[120.338854798, 23.025653908], [120.338831886, 23.025389371], [120.338753656, 23.025134055], [120.338623116, 23.024897771], [120.338445282, 23.024689599], [120.338226988, 23.024517539], [120.337976624, 23.024388203], [120.33770381, 23.024306561], [120.33741903, 23.02427575], [120.337133228, 23.024296955], [120.336857387, 23.02436936], [120.336602107, 23.024490183], [120.336377197, 23.024654781], [120.336191302, 23.024856829], [120.336051565, 23.025088562], [120.335963355, 23.025341076], [120.335930064, 23.025604665], [120.335952971, 23.025869201], [120.336031195, 23.026124518], [120.336161732, 23.026360804], [120.336339564, 23.026568978], [120.336557858, 23.026741041], [120.336808225, 23.02687038], [120.337081043, 23.026952024], [120.337365828, 23.026982836], [120.337651636, 23.026961631], [120.337927482, 23.026889225], [120.338182766, 23.0267684], [120.338407677, 23.0266038], [120.338593572, 23.026401749], [120.338733307, 23.026170013], [120.338821512, 23.025917498], [120.338854798, 23.025653908]]]}, "properties": {"name": "虎頭埤水庫", "capacity_m3": 1357736.0}}, {"type": "Feature", "geometry": {"type": "Polygon", "coordinates": [[[120.347723122, 22.811557741], [120.347674461, 22.810996568], [120.347508643, 22.810454979], [120.347232042, 22.809953786], [120.346855289, 22.80951225], [120.346392862, 22.809147337], [120.345862532, 22.808873071], [120.345284679, 22.808699991], [120.344681509, 22.808634748], [120.344076199, 22.808679849], [120.34349201, 22.80883356], [120.34295139, 22.809089975], [120.342475114, 22.80943924], [120.342081485, 22.809867934], [120.34178563, 22.810359583], [120.341598919, 22.810895294], [120.341528529, 22.81145448], [120.341577164, 22.812015653], [120.341742959, 22.812557246], [120.342019543, 22.813058447], [120.342396288, 22.813499994], [120.342858716, 22.813864919], [120.343389057, 22.814139195], [120.343966929, 22.814312284], [120.344570124, 22.814377532], [120.345175459, 22.814332432], [120.345759671, 22.814178717], [120.346300308, 22.813922294], [120.346776592, 22.813573018], [120.347170219, 22.813144312], [120.347466063, 22.812652652], [120.347652755, 22.812116933], [120.347723122, 22.811557741]]]}, "properties": {"name": "阿公店水庫", "capacity_m3": 45000000.0}}, {"type": "Feature", "geometry": {"type": "Polygon", "coordinates": [[[120.359526385, 22.661101837], [120.359503416, 22.660837295], [120.359425281, 22.660581995], [120.359294982, 22.660345748], [120.359117527, 22.660137632], [120.358899736, 22.659965646], [120.358649978, 22.659836398], [120.358377852, 22.659754855], [120.358093813, 22.659724151], [120.357808779, 22.659745466], [120.357533702, 22.65981798], [120.357279152, 22.659938908], [120.357054912, 22.660103601], [120.3568696, 22.660305731], [120.356730336, 22.66053753], [120.356642473, 22.660790091], [120.356609387, 22.661053707], [120.35663235, 22.661318249], [120.35671048, 22.66157355], [120.356840775, 22.661809799], [120.357018228, 22.662017917], [120.35723602, 22.662189906], [120.35748578, 22.662319157], [120.357757911, 22.662400701], [120.358041955, 22.662431406], [120.358326995, 22.662410091], [120.358602077, 22.662337576], [120.35885663, 22.662216647], [120.359080872, 22.662051952], [120.359266184, 22.661849819], [120.359405446, 22.661618018], [120.359493305, 22.661365455], [120.359526385, 22.661101837]]]}, "properties": {"name": "澄清湖水庫", "capacity_m3": 5000000.0}}, {"type": "Feature", "geometry": {"type": "Polygon", "coordinates": [[[120.393421825, 22.534923946], [120.393398785, 22.534659401], [120.393320631, 22.534404114], [120.393190367, 22.534167897], [120.393012998, 22.533959827], [120.392795341, 22.533787899], [120.392545761, 22.53365872], [120.392273848, 22.533577256], [120.391990052, 22.533546635], [120.391705278, 22.533568036], [120.39143047, 22.533640635], [120.391176189, 22.533761642], [120.390952206, 22.533926408], [120.390767128, 22.534128601], [120.390628068, 22.53436045], [120.39054037, 22.534613047], [120.390507405, 22.534876683], [120.390530439, 22.535141228], [120.390608588, 22.535396515], [120.390738849, 22.535632734], [120.390916216, 22.535840807], [120.391133873, 22.536012737], [120.391383456, 22.536141918], [120.391655373, 22.536223385], [120.391939174, 22.536254006], [120.392223953, 22.536232606], [120.392498766, 22.536160006], [120.392753051, 22.536038997], [120.392977036, 22.535874229], [120.393162114, 22.535672033], [120.393301171, 22.535440181], [120.393388865, 22.535187583], [120.393421825, 22.534923946]]]}, "properties": {"name": "鳳山水庫", "capacity_m3": 9200000.0}}, {"type": "Feature", "geometry": {"type": "Polygon", "coordinates": [[[120.784652171, 22.132757447], [120.784611372, 22.132303828], [120.78447637, 22.131866341], [120.784252354, 22.131461798], [120.783947935, 22.131105745], [120.78357481, 22.130811865], [120.783147319, 22.13059145], [120.782681889, 22.130452972], [120.782196406, 22.130401751], [120.781709527, 22.130439755], [120.78123996, 22.130565524], [120.78080575, 22.130774225], [120.780423582, 22.131057838], [120.780108144, 22.131405465], [120.779871557, 22.131803745], [120.779722913, 22.132237375], [120.779667926, 22.132689691], [120.77970871, 22.133143309], [120.779843697, 22.133580799], [120.780067702, 22.133985347], [120.780372117, 22.134341407], [120.780745243, 22.134635295], [120.781172742, 22.134855716], [120.781638183, 22.1349942], [120.782123681, 22.135045424], [120.782610577, 22.13500742], [120.783080158, 22.134881648], [120.783514379, 22.134672941], [120.783896551, 22.134389322], [120.784211988, 22.134041688], [120.784448568, 22.1336434], [120.784597199, 22.133209765], [120.784652171, 22.132757447]]]}, "properties": {"name": "牡丹水庫", "capacity_m3": 29399110.0}}, {"type": "Feature", "geometry": {"type": "Polygon", "coordinates": [[[120.871810985, 23.854522436], [120.871787015, 23.854257906], [120.871707395, 23.854002761], [120.871575185, 23.853766803], [120.871395465, 23.853559103], [120.871175143, 23.85338764], [120.870922685, 23.853259005], [120.870647793, 23.85317814], [120.87036103, 23.853148153], [120.870073417, 23.853170195], [120.869796005, 23.853243422], [120.869539456, 23.853365017], [120.869313628, 23.853530308], [120.8691272, 23.853732944], [120.868987335, 23.853965138], [120.868899409, 23.854217966], [120.868866801, 23.854481713], [120.868890765, 23.854746242], [120.86897038, 23.855001389], [120.869102586, 23.855237348], [120.869282304, 23.855445051], [120.869502627, 23.855616517], [120.869755088, 23.855745155], [120.870029984, 23.855826022], [120.870316753, 23.85585601], [120.870604372, 23.855833967], [120.870881789, 23.85576074], [120.871138342, 23.855639143], [120.871364172, 23.855473848], [120.8715506, 23.85527121], [120.871690462, 23.855039014], [120.871778383, 23.854786184], [120.871810985, 23.854522436]]]}, "properties": {"name": "明湖水庫", "capacity_m3": 9448742.0}}, {"type": "Feature", "geometry": {"type": "Polygon", "coordinates": [[[120.495054639, 23.530188344], [120.495031433, 23.52992381], [120.494952702, 23.529668534], [120.494821471, 23.529432326], [120.494642785, 23.529224262], [120.49442351, 23.529052338], [120.494172073, 23.528923161], [120.493898135, 23.528841696], [120.493612225, 23.528811072], [120.49332533, 23.528832466], [120.493048473, 23.528905057], [120.492792294, 23.529026055], [120.492566639, 23.529190809], [120.492380178, 23.529392989], [120.492240077, 23.529624825], [120.492151721, 23.529877409], [120.492118504, 23.530141032], [120.492141705, 23.530405566], [120.492220431, 23.530660843], [120.492351657, 23.530897053], [120.492530341, 23.53110512], [120.492749617, 23.531277046], [120.493001057, 23.531406225], [120.493274999, 23.531487693], [120.493560914, 23.531518318], [120.493847816, 23.531496924], [120.494124678, 23.531424332], [120.49438086, 23.531303332], [120.494606517, 23.531138575], [120.494792978, 23.530936393], [120.494933076, 23.530704554], [120.495021428, 23.530451968], [120.495054639, 23.530188344]]]}, "properties": {"name": "內埔仔水庫", "capacity_m3": 910000.0}}, {"type": "Feature", "geometry": {"type": "Polygon", "coordinates": [[[119.510572572, 23.610539282], [119.510539314, 23.610275663], [119.510450883, 23.610023089], [119.510310678, 23.609791265], [119.510124087, 23.6095891], [119.509898281, 23.609424363], [119.509641937, 23.609303385], [119.509364906, 23.609230814], [119.509077834, 23.609209439], [119.508791752, 23.609240083], [119.508517655, 23.609321566], [119.508266076, 23.609450759], [119.508046681, 23.609622696], [119.507867903, 23.60983077], [119.507736612, 23.610066985], [119.507657854, 23.610322264], [119.507634655, 23.610586796], [119.507667908, 23.610850415], [119.507756334, 23.611102992], [119.507896536, 23.611334818], [119.508083127, 23.611536986], [119.508308935, 23.611701726], [119.508565283, 23.611822706], [119.508842319, 23.611895278], [119.509129397, 23.611916652], [119.509415484, 23.611886008], [119.509689586, 23.611804522], [119.509941168, 23.611675327], [119.510160563, 23.611503387], [119.510339339, 23.61129531], [119.510470626, 23.611059093], [119.510549379, 23.610803814], [119.510572572, 23.610539282]]]}, "properties": {"name": "小池水庫", "capacity_m3": 191700.0}}, {"type": "Feature", "geometry": {"type": "Polygon", "coordinates": [[[119.435641008, 23.210825282], [119.435608075, 23.210561615], [119.435520123, 23.210308952], [119.435380533, 23.210077003], [119.435194668, 23.209874682], [119.434969671, 23.209709764], [119.434714189, 23.209588586], [119.43443804, 23.209515805], [119.434151835, 23.209494217], [119.433866573, 23.209524654], [119.433593216, 23.209605944], [119.433342268, 23.209734964], [119.433123374, 23.209906756], [119.432944945, 23.210114718], [119.432813839, 23.210350859], [119.432735094, 23.210606104], [119.432711735, 23.210870644], [119.432744662, 23.211134312], [119.43283261, 23.211386977], [119.432972198, 23.211618929], [119.433158062, 23.211821252], [119.433383061, 23.211986173], [119.433638546, 23.212107353], [119.433914701, 23.212180135], [119.434200912, 23.212201722], [119.434486179, 23.212171285], [119.434759541, 23.212089993], [119.435010491, 23.21196097], [119.435229385, 23.211789175], [119.435407812, 23.211581211], [119.435538915, 23.211345068], [119.435617655, 23.211089822], [119.435641008, 23.210825282]]]}, "properties": {"name": "七美水庫", "capacity_m3": 228000.0}}, {"type": "Feature", "geometry": {"type": "Polygon", "coordinates": [[[121.502071151, 22.673138596], [121.502045974, 22.672874063], [121.50196567, 22.672619171], [121.501833326, 22.672383716], [121.501654026, 22.672176745], [121.501434663, 22.672006212], [121.501183665, 22.671878671], [121.500910679, 22.671799023], [121.500626194, 22.671770329], [121.500341144, 22.671793691], [121.500066482, 22.671868211], [121.499812762, 22.671991026], [121.499589736, 22.672157416], [121.499405974, 22.672360988], [121.499268537, 22.672593917], [121.499182707, 22.672847253], [121.499151784, 22.673111261], [121.499176955, 22.673375794], [121.499257254, 22.673630687], [121.499389595, 22.673866145], [121.499568893, 22.674073118], [121.499788257, 22.674243653], [121.500039258, 22.674371197], [121.500312248, 22.674450846], [121.500596738, 22.674479542], [121.500881794, 22.67445618], [121.501156461, 22.674381658], [121.501410184, 22.674258841], [121.501633212, 22.674092448], [121.501816974, 22.673888874], [121.501954408, 22.673655943], [121.502040233, 22.673402605], [121.502071151, 22.673138596]]]}, "properties": {"name": "周津水庫", "capacity_m3": 74300.0}}, {"type": "Feature", "geometry": {"type": "Polygon", "coordinates": [[[120.914675286, 23.864076992], [120.914582547, 23.863057268], [120.914275278, 23.862073777], [120.913765292, 23.861164312], [120.913072189, 23.860363823], [120.912222607, 23.859703068], [120.911249194, 23.859207439], [120.910189357, 23.858895981], [120.909083819, 23.858780659], [120.907975061, 23.858865906], [120.906905688, 23.859148446], [120.90591679, 23.859617421], [120.905046366, 23.860254811], [120.904327866, 23.861036123], [120.9037889, 23.861931335], [120.903450184, 23.862906046], [120.903324738, 23.863922799], [120.903417388, 23.864942523], [120.903724578, 23.865926031], [120.904234508, 23.866835525], [120.904927584, 23.867636052], [120.905777174, 23.868296847], [120.906750628, 23.868792513], [120.907810534, 23.869104001], [120.908916157, 23.869219337], [120.910025003, 23.869134089], [120.911094455, 23.868851534], [120.912083411, 23.868382529], [120.912953861, 23.867745101], [120.913672353, 23.866963748], [120.914211278, 23.866068499], [120.914549925, 23.86509376], [120.914675286, 23.864076992]]]}, "properties": {"name": "霧社水庫", "capacity_m3": 148600000.0}}, {"type": "Feature", "geometry": {"type": "Polygon", "coordinates": [[[121.021322009, 24.047068898], [121.021234365, 24.046114083], [121.020945571, 24.045193317], [121.020466729, 24.044341983], [121.019816242, 24.043592796], [121.019019112, 24.042974545], [121.018105969, 24.042510987], [121.017111904, 24.042219935], [121.016075115, 24.042112571], [121.01503544, 24.042193022], [121.014032829, 24.042458195], [121.013105809, 24.042897902], [121.01229, 24.043495245], [121.011616753, 24.044227271], [121.011111941, 24.04506585], [121.010794965, 24.04597876], [121.010678011, 24.046930917], [121.010765576, 24.047885733], [121.011054301, 24.048806514], [121.011533093, 24.049657874], [121.012183556, 24.050407094], [121.012980695, 24.051025381], [121.013893875, 24.051488972], [121.014888001, 24.051780049], [121.015924865, 24.051887425], [121.016964619, 24.051806974], [121.017967299, 24.051541786], [121.01889437, 24.051102054], [121.019710201, 24.050504677], [121.02038344, 24.049772615], [121.020888216, 24.048934002], [121.02120513, 24.048021068], [121.021322009, 24.047068898]]]}, "properties": {"name": "日月潭水庫", "capacity_m3": 130290000.0}}, {"type": "Feature", "geometry": {"type": "Polygon", "coordinates": [[[120.619451833, 23.13003705], [120.619412533, 23.129593952], [120.619280522, 23.129166459], [120.619060872, 23.128770999], [120.618762027, 23.128422769], [120.61839547, 23.128135151], [120.617975289, 23.127919198], [120.617517629, 23.127783208], [120.617040078, 23.127732406], [120.616560988, 23.127768745], [120.616098768, 23.127890829], [120.61567118, 23.128093966], [120.615294656, 23.12837035], [120.614983665, 23.128709359], [120.614750158, 23.129097967], [120.61460311, 23.12952124], [120.614548172, 23.129962912], [120.614587456, 23.13040601], [120.614719453, 23.130833505], [120.614939091, 23.13122897], [120.615237932, 23.131577207], [120.61560449, 23.131864833], [120.616024679, 23.132080793], [120.616482351, 23.132216789], [120.616959917, 23.132267593], [120.617439023, 23.132231254], [120.617901258, 23.132109167], [120.618328856, 23.131906025], [120.618705385, 23.131629635], [120.619016375, 23.131290618], [120.619249874, 23.130902003], [120.61939691, 23.130478725], [120.619451833, 23.13003705]]]}, "properties": {"name": "仁義潭水庫", "capacity_m3": 28055000.0}}, {"type": "Feature", "geometry": {"type": "Polygon", "coordinates": [[[120.39119742, 23.168036436], [120.391162882, 23.167639368], [120.391045226, 23.167256159], [120.390848975, 23.166901536], [120.39058167, 23.166589126], [120.390253584, 23.166330935], [120.389877326, 23.166136886], [120.389467354, 23.166014433], [120.389039422, 23.165968284], [120.388609976, 23.166000212], [120.388195518, 23.166108989], [120.387811975, 23.166290436], [120.387474085, 23.166537579], [120.387194833, 23.166840922], [120.386984951, 23.167188807], [120.386852505, 23.167567867], [120.386802584, 23.167963533], [120.386837109, 23.168360601], [120.386954753, 23.168743812], [120.387150996, 23.16909844], [120.387418297, 23.169410855], [120.387746383, 23.169669051], [120.388122648, 23.169863107], [120.38853263, 23.169985564], [120.388960573, 23.170031715], [120.389390032, 23.169999788], [120.389804502, 23.169891008], [120.390188054, 23.169709558], [120.390525948, 23.169462409], [120.390805199, 23.16915906], [120.391015076, 23.168811169], [120.391147512, 23.168432105], [120.39119742, 23.168036436]]]}, "properties": {"name": "白河水庫", "capacity_m3": 22530000.0}}, {"type": "Feature", "geometry": {"type": "Polygon", "coordinates": [[[120.448756459, 23.363094011], [120.448665694, 23.362055396], [120.448357203, 23.361053085], [120.447842845, 23.360125596], [120.447142391, 23.359308571], [120.44628276, 23.358633404], [120.445296988, 23.35812604], [120.444222953, 23.357805974], [120.443101928, 23.357685505], [120.441976988, 23.357769261], [120.440891358, 23.358054023], [120.439886754, 23.358528849], [120.439001778, 23.359175494], [120.43827044, 23.359969108], [120.437720842, 23.360879197], [120.43737411, 23.361870789], [120.437243571, 23.362905778], [120.437334246, 23.363944392], [120.437642657, 23.364946717], [120.438156955, 23.365874234], [120.43885738, 23.366691298], [120.439717017, 23.367366506], [120.440702829, 23.367873909], [120.441776931, 23.368194004], [120.442898042, 23.368314491], [120.444023072, 23.368230736], [120.445108783, 23.367945959], [120.446113446, 23.367471105], [120.44699845, 23.366824422], [120.447729783, 23.366030766], [120.448279341, 23.365120639], [120.448626005, 23.364129017], [120.448756459, 23.363094011]]]}, "properties": {"name": "烏山頭水庫", "capacity_m3": 154150000.0}}, {"type": "Feature", "geometry": {"type": "Polygon", "coordinates": [[[120.528813609, 23.253123207], [120.528689446, 23.251712335], [120.528269787, 23.250350955], [120.52757077, 23.249091382], [120.526619262, 23.247982017], [120.525451833, 23.247065489], [120.524113346, 23.246377016], [120.522655234, 23.24594305], [120.521133524, 23.245780266], [120.519606686, 23.245894917], [120.518133386, 23.246282599], [120.516770234, 23.246928413], [120.515569608, 23.247807544], [120.514577645, 23.248886213], [120.513832466, 23.25012297], [120.513362713, 23.251470292], [120.513186444, 23.252876405], [120.513310443, 23.254287275], [120.513729954, 23.255648682], [120.514428863, 23.256908308], [120.515380318, 23.258017743], [120.516547758, 23.258934347], [120.517886319, 23.259622891], [120.519344556, 23.260056912], [120.520866422, 23.260219727], [120.522393425, 23.260105077], [120.523866873, 23.259717368], [120.525230134, 23.259071502], [120.526430812, 23.258192301], [120.527422764, 23.257113556], [120.528167868, 23.255876728], [120.528637497, 23.254529351], [120.528813609, 23.253123207]]]}, "properties": {"name": "曾文水庫", "capacity_m3": 686617000.0}}, {"type": "Feature", "geometry": {"type": "Polygon", "coordinates": [[[120.504467457, 23.474023507], [120.50444423, 23.473758973], [120.504365503, 23.473503701], [120.504234301, 23.473267502], [120.504055665, 23.473059453], [120.503836463, 23.472887548], [120.503585116, 23.472758394], [120.503311284, 23.472676954], [120.50302549, 23.472646357], [120.502738717, 23.47266778], [120.502461984, 23.472740398], [120.502205927, 23.472861422], [120.501980384, 23.4730262], [120.501794024, 23.473228401], [120.501654008, 23.473460254], [120.501565718, 23.473712849], [120.501532545, 23.473976479], [120.501555766, 23.474241014], [120.501634488, 23.474496286], [120.501765686, 23.474732487], [120.50194432, 23.474940539], [120.502163523, 23.475112446], [120.502414872, 23.475241603], [120.502688709, 23.475323045], [120.502974508, 23.475353643], [120.503261287, 23.47533222], [120.503538025, 23.475259601], [120.503794086, 23.475138575], [120.504019631, 23.474973794], [120.50420599, 23.474771591], [120.504346004, 23.474539735], [120.50443429, 23.474287138], [120.504467457, 23.474023507]]]}, "properties": {"name": "虎頭埤水庫", "capacity_m3": 1358000.0}}, {"type": "Feature", "geometry": {"type": "Polygon", "coordinates": [[[121.727487496, 25.115012776], [121.72746165, 25.114748318], [121.727379635, 25.114493533], [121.727244601, 25.114258211], [121.727061738, 25.114051396], [121.726838075, 25.113881035], [121.726582206, 25.113753675], [121.726303963, 25.11367421], [121.72601404, 25.113645693], [121.725723578, 25.113669222], [121.725443737, 25.113743891], [121.725185273, 25.113866831], [121.724958118, 25.114033318], [121.724771001, 25.114236954], [121.724631112, 25.114469913], [121.724543829, 25.114723243], [121.724512505, 25.114987209], [121.724538344, 25.115251667], [121.724620355, 25.115506454], [121.724755385, 25.115741778], [121.724938245, 25.115948596], [121.725161909, 25.11611896], [121.725417782, 25.116246323], [121.725696029, 25.116325789], [121.725985959, 25.116354306], [121.726276428, 25.116330778], [121.726556274, 25.116256107], [121.726814741, 25.116133165], [121.727041898, 25.115966675], [121.727229015, 25.115763037], [121.7273689, 25.115530075], [121.727456178, 25.115276743], [121.727487496, 25.115012776]]]}, "properties": {"name": "新山水庫", "capacity_m3": 10000000.0}}, {"type": "Feature", "geometry": {"type": "Polygon", "coordinates": [[[121.261484196, 24.86701729], [121.261459373, 24.866752794], [121.261378468, 24.866497797], [121.261244589, 24.866262101], [121.261062883, 24.866054761], [121.260840331, 24.865883747], [121.260585487, 24.865755629], [121.260308144, 24.865675331], [121.260018959, 24.865645939], [121.259729046, 24.865668583], [121.259449545, 24.865742391], [121.259191197, 24.865864528], [121.25896393, 24.8660303], [121.258776478, 24.866233337], [121.258636044, 24.866465837], [121.258548026, 24.866718864], [121.258515806, 24.866982695], [121.258540622, 24.867247192], [121.258621522, 24.867502189], [121.258755396, 24.867737888], [121.258937101, 24.86794523], [121.259159653, 24.868116247], [121.2594145, 24.868244368], [121.259691849, 24.868324667], [121.25998104, 24.86835406], [121.260270959, 24.868331417], [121.260550466, 24.868257607], [121.260808817, 24.868135468], [121.261036086, 24.867969693], [121.261223537, 24.867766653], [121.261363968, 24.867534151], [121.261451982, 24.867281122], [121.261484196, 24.86701729]]]}, "properties": {"name": "西勢水庫", "capacity_m3": 652000.0}}, {"type": "Feature", "geometry": {"type": "Polygon", "coordinates": [[[121.248447331, 24.843087495], [121.248322899, 24.841760043], [121.24791706, 24.840480249], [121.247245417, 24.839297293], [121.246333787, 24.838256631], [121.245217205, 24.837398252], [121.243938581, 24.836755139], [121.242547046, 24.836352003], [121.24109607, 24.836204333], [121.239641404, 24.836317802], [121.238238941, 24.836688051], [121.23694257, 24.837300853], [121.235802102, 24.83813266], [121.234861363, 24.839151512], [121.234156507, 24.840318257], [121.233714625, 24.841588063], [121.233552704, 24.842912135], [121.233676978, 24.844239589], [121.234082677, 24.845519414], [121.234754221, 24.846702424], [121.235665807, 24.847743153], [121.236782406, 24.848601604], [121.238061107, 24.849244782], [121.239452766, 24.849647966], [121.240903895, 24.849795661], [121.242358719, 24.849682188], [121.243761321, 24.849311908], [121.245057792, 24.848699054], [121.246198304, 24.847867178], [121.247139025, 24.846848255], [121.247843805, 24.845681445], [121.248285563, 24.84441159], [121.248447331, 24.843087495]]]}, "properties": {"name": "石門水庫", "capacity_m3": 251880000.0}}, {"type": "Feature", "geometry": {"type": "Polygon", "coordinates": [[[121.3694852, 24.944016263], [121.369460141, 24.943751775], [121.369378969, 24.943496826], [121.369244805, 24.943261213], [121.369062805, 24.943053992], [121.368839963, 24.942883125], [121.368584842, 24.942755179], [121.368307247, 24.942675071], [121.368017845, 24.942645878], [121.367727758, 24.942668723], [121.367448132, 24.942742727], [121.367189713, 24.942865047], [121.366962433, 24.943030983], [121.366775024, 24.943234157], [121.36663469, 24.943466762], [121.366546824, 24.943719859], [121.366514801, 24.943983722], [121.366539854, 24.944248211], [121.36662102, 24.944503161], [121.36675518, 24.944738776], [121.366937179, 24.944945999], [121.367160021, 24.945116869], [121.367415145, 24.945244817], [121.367692745, 24.945324928], [121.367982153, 24.945354122], [121.368272248, 24.945331277], [121.368551879, 24.945257271], [121.368810301, 24.945134949], [121.369037584, 24.944969011], [121.369224991, 24.944765834], [121.369365322, 24.944533226], [121.369453184, 24.944280127], [121.3694852, 24.944016263]]]}, "properties": {"name": "寶山水庫", "capacity_m3": 5350000.0}}, {"type": "Feature", "geometry": {"type": "Polygon", "coordinates": [[[121.433486509, 25.049015687], [121.433461304, 25.048751205], [121.433379942, 25.048496284], [121.433245551, 25.048260721], [121.433063294, 25.048053568], [121.432840177, 25.047882786], [121.432584773, 25.047754937], [121.432306897, 25.047674935], [121.432017228, 25.047645855], [121.431726897, 25.047668812], [121.43144706, 25.047742926], [121.431188472, 25.047865348], [121.43096107, 25.048031374], [121.430773593, 25.048234623], [121.430633245, 25.048467285], [121.430545419, 25.04872042], [121.430513492, 25.048984298], [121.430538691, 25.049248781], [121.430620047, 25.049503703], [121.430754435, 25.049739268], [121.430936689, 25.049946424], [121.431159808, 25.050117209], [121.431415215, 25.05024506], [121.431693096, 25.050325063], [121.431982771, 25.050354145], [121.432273109, 25.050331187], [121.43255295, 25.050257072], [121.432811542, 25.050134648], [121.433038946, 25.04996862], [121.433226423, 25.049765367], [121.433366768, 25.049532703], [121.433454588, 25.049279566], [121.433486509, 25.049015687]]]}, "properties": {"name": "大埔水庫", "capacity_m3": 7960000.0}}, {"type": "Feature", "geometry": {"type": "Polygon", "coordinates": [[[120.830126131, 24.594073999], [120.830043404, 24.593158177], [120.829766865, 24.59227471], [120.829307145, 24.591457547], [120.828681913, 24.59073809], [120.827915199, 24.590143985], [120.827036465, 24.589698063], [120.82607948, 24.589417456], [120.825081016, 24.589312949], [120.82407944, 24.589388556], [120.823113237, 24.589641371], [120.822219535, 24.59006168], [120.821432675, 24.590633333], [120.820782894, 24.591334361], [120.820295164, 24.592137829], [120.81998823, 24.593012859], [120.81987389, 24.593925827], [120.819956542, 24.594841649], [120.820233015, 24.59572513], [120.820692687, 24.596542317], [120.821317896, 24.597261806], [120.822084617, 24.597855944], [120.822963386, 24.598301898], [120.823920429, 24.598582528], [120.824918964, 24.598687048], [120.825920614, 24.598611441], [120.826886883, 24.598358612], [120.827780633, 24.597938278], [120.828567516, 24.597366595], [120.82921729, 24.596665532], [120.829704985, 24.595862034], [120.830011862, 24.594986979], [120.830126131, 24.594073999]]]}, "properties": {"name": "鯉魚潭水庫", "capacity_m3": 119872000.0}}, {"type": "Feature", "geometry": {"type": "Polygon", "coordinates": [[[120.843335096, 24.621090993], [120.84323276, 24.619959437], [120.842890907, 24.618867873], [120.84232268, 24.61785825], [120.841549921, 24.616969364], [120.840602327, 24.616235371], [120.839516313, 24.615684477], [120.838333612, 24.615337848], [120.837099669, 24.615208804], [120.835861898, 24.615302301], [120.834667858, 24.615614749], [120.833563431, 24.616134139], [120.832591055, 24.616840516], [120.831788095, 24.617706734], [120.83118541, 24.618699511], [120.830806164, 24.619780695], [120.830664935, 24.62090874], [120.830767157, 24.622040297], [120.831108909, 24.623131881], [120.831677062, 24.624141542], [120.832449788, 24.625030476], [120.833397392, 24.625764521], [120.834483459, 24.626315463], [120.835666247, 24.626662128], [120.8369003, 24.626791192], [120.838138185, 24.626697693], [120.839332326, 24.626385225], [120.840436826, 24.625865797], [120.841409236, 24.625159373], [120.842212186, 24.624293102], [120.842814818, 24.623300278], [120.843193977, 24.622219058], [120.843335096, 24.621090993]]]}, "properties": {"name": "德基水庫", "capacity_m3": 183000000.0}}, {"type": "Feature", "geometry": {"type": "Polygon", "coordinates": [[[120.316464384, 23.214025013], [120.316441524, 23.21376048], [120.316363268, 23.213505152], [120.316232622, 23.213268841], [120.316054608, 23.213060628], [120.315836068, 23.212888515], [120.315585398, 23.212759115], [120.315312232, 23.212677402], [120.315027068, 23.212646514], [120.314740864, 23.21266764], [120.314464618, 23.212739967], [120.314208946, 23.212860716], [120.313983674, 23.213025247], [120.313797457, 23.213227237], [120.313657452, 23.213458923], [120.31356904, 23.213711403], [120.313535619, 23.213974974], [120.313558472, 23.214239506], [120.313636723, 23.214494835], [120.313767365, 23.214731148], [120.313945377, 23.214939363], [120.314163918, 23.215111479], [120.31441459, 23.215240881], [120.31468776, 23.215322597], [120.31497293, 23.215353486], [120.315259139, 23.21533236], [120.315535391, 23.215260032], [120.315791066, 23.215139281], [120.316016341, 23.214974748], [120.316202558, 23.214772755], [120.31634256, 23.214541066], [120.316430968, 23.214288584], [120.316464384, 23.214025013]]]}, "properties": {"name": "澄清湖水庫", "capacity_m3": 3431000.0}}]}
