{"type": "FeatureCollection", "features": [{"id": "dam:wra:1", "type": "Feature", "geometry": {"type": "Point", "coordinates": [121.711369301, 25.133312253]}, "properties": {"kind": "dam", "name": "新山水庫", "name_en": "Shinshan Reservoir", "compare_id": 10204, "capacity_m3": 4000000.0, "dam_height_m": 66.0, "is_reservoir": true}}, {"id": "dam:wra:2", "type": "Feature", "geometry": {"type": "Point", "coordinates": [121.735602678, 25.087340133]}, "properties": {"kind": "dam", "name": "西勢水庫", "name_en": "Shishih Reservoir", "compare_id": 10203, "capacity_m3": 560000.0, "dam_height_m": 29.6, "is_reservoir": true}}, {"id": "dam:wra:3", "type": "Feature", "geometry": {"type": "Point", "coordinates": [121.544963537, 24.943586591]}, "properties": {"kind": "dam", "name": "青潭堰", "name_en": "Chingtan Weir", "compare_id": null, "capacity_m3": 70000.0, "dam_height_m": 33.2, "is_reservoir": false}}, {"id": "dam:wra:4", "type": "Feature", "geometry": {"type": "Point", "coordinates": [121.579609278, 24.909295627]}, "properties": {"kind": "dam", "name": "翡翠水庫", "name_en": "Feitsui Reservoir", "compare_id": 10205, "capacity_m3": 406000000.0, "dam_height_m": 122.5, "is_reservoir": true}}, {"id": "dam:wra:5", "type": "Feature", "geometry": {"type": "Point", "coordinates": [121.245859931, 24.811608704]}, "properties": {"kind": "dam", "name": "石門水庫", "name_en": "Shihmen Reservoir", "compare_id": 10201, "capacity_m3": 309120000.0, "dam_height_m": 133.1, "is_reservoir": true}}, {"id": "dam:wra:7", "type": "Feature", "geometry": {"type": "Point", "coordinates": [121.042446956, 24.749088308]}, "properties": {"kind": "dam", "name": "寶山水庫", "name_en": "Paoshan Reservoir", "compare_id": 10401, "capacity_m3": 5470000.0, "dam_height_m": 34.5, "is_reservoir": true}}, {"id": "dam:wra:8", "type": "Feature", "geometry": {"type": "Point", "coordinates": [121.351560243, 24.737206801]}, "properties": {"kind": "dam", "name": "榮華壩", "name_en": "Ronghua Dam", "compare_id": 10206, "capacity_m3": 12400000.0, "dam_height_m": 82.0, "is_reservoir": false}}, {"id": "dam:wra:9", "type": "Feature", "geometry": {"type": "Point", "coordinates": [120.983667178, 24.673883913]}, "properties": {"kind": "dam", "name": "大埔水庫", "name_en": "Tapu Reservoir", "compare_id": 10503, "capacity_m3": 9258000.0, "dam_height_m": 20.9, "is_reservoir": true}}, {"id": "dam:wra:10", "type": "Feature", "geometry": {"type": "Point", "coordinates": [120.92261284, 24.661059291]}, "properties": {"kind": "dam", "name": "永和山水庫", "name_en": "Yongheshan Reservoir", "compare_id": 10501, "capacity_m3": 29580000.0, "dam_height_m": 62.5, "is_reservoir": true}}, {"id": "dam:wra:11", "type": "Feature", "geometry": {"type": "Point", "coordinates": [120.901731115, 24.625649865]}, "properties": {"kind": "dam", "name": "劍潭水庫", "name_en": "Chientan Reservoir", "compare_id": 10502, "capacity_m3": 787000.0, "dam_height_m": 10.5, "is_reservoir": true}}, {"id": "dam:wra:12", "type": "Feature", "geometry": {"type": "Point", "coordinates": [120.884714199, 24.581885434]}, "properties": {"kind": "dam", "name": "明德水庫", "name_en": "Mingde Reservoir", "compare_id": 10601, "capacity_m3": 17700000.0, "dam_height_m": 35.5, "is_reservoir": true}}, {"id": "dam:wra:13", "type": "Feature", "geometry": {"type": "Point", "coordinates": [120.783057749, 24.3438994]}, "properties": {"kind": "dam", "name": "鯉魚潭水庫", "name_en": "Lyiutan Reservoir", "compare_id": 20101, "capacity_m3": 126120000.0, "dam_height_m": 96.0, "is_reservoir": true}}, {"id": "dam:wra:14", "type": "Feature", "geometry": {"type": "Point", "coordinates": [120.769390613, 24.281634744]}, "properties": {"kind": "dam", "name": "石岡壩", "name_en": "Shihkang Dam", "compare_id": 20202, "capacity_m3": 3380000.0, "dam_height_m": 21.4, "is_reservoir": false}}, {"id": "dam:wra:15", "type": "Feature", "geometry": {"type": "Point", "coordinates": [121.167841272, 24.255182822]}, "properties": {"kind": "dam", "name": "德基水庫", "name_en": "Techi Reservoir", "compare_id": 20201, "capacity_m3": 232000000.0, "dam_height_m": 180.0, "is_reservoir": true}}, {"id": "dam:wra:16", "type": "Feature", "geometry": {"type": "Point", "coordinates": [121.076234906, 24.233469342]}, "properties": {"kind": "dam", "name": "谷關水庫", "name_en": "Kukuan Reservoir", "compare_id": 20203, "capacity_m3": 13200000.0, "dam_height_m": 85.0, "is_reservoir": true}}, {"id": "dam:wra:17", "type": "Feature", "geometry": {"type": "Point", "coordinates": [121.13640237, 23.980325419]}, "properties": {"kind": "dam", "name": "霧社水庫", "name_en": "Wushoh Reservoir", "compare_id": 20501, "capacity_m3": 148600000.0, "dam_height_m": 114.0, "is_reservoir": true}}, {"id": "dam:wra:18", "type": "Feature", "geometry": {"type": "Point", "coordinates": [120.894859857, 23.835559116]}, "properties": {"kind": "dam", "name": "頭社水庫", "name_en": "Toushih Reservoir", "compare_id": 20504, "capacity_m3": 303700.0, "dam_height_m": 12.0, "is_reservoir": true}}, {"id": "dam:wra:21", "type": "Feature", "geometry": {"type": "Point", "coordinates": [119.625506999, 23.578443421]}, "properties": {"kind": "dam", "name": "成功水庫", "name_en": "Chengong Reservoir", "compare_id": 31301, "capacity_m3": 1084000.0, "dam_height_m": 10.5, "is_reservoir": true}}, {"id": "dam:wra:22", "type": "Feature", "geometry": {"type": "Point", "coordinates": [119.597758909, 23.568326791]}, "properties": {"kind": "dam", "name": "東衛水庫", "name_en": "Dongwei Reservoir", "compare_id": 50103, "capacity_m3": 191000.0, "dam_height_m": 9.5, "is_reservoir": true}}, {"id": "dam:wra:23", "type": "Feature", "geometry": {"type": "Point", "coordinates": [119.605099972, 23.550210822]}, "properties": {"kind": "dam", "name": "興仁水庫", "name_en": "Shingren Reservoir", "compare_id": 50102, "capacity_m3": 678000.0, "dam_height_m": 13.0, "is_reservoir": true}}, {"id": "dam:wra:24", "type": "Feature", "geometry": {"type": "Point", "coordinates": [120.478079432, 23.467629931]}, "properties": {"kind": "dam", "name": "蘭潭水庫", "name_en": "Lantan Reservoir", "compare_id": 30302, "capacity_m3": 9795700.0, "dam_height_m": 31.0, "is_reservoir": true}}, {"id": "dam:wra:25", "type": "Feature", "geometry": {"type": "Point", "coordinates": [120.50552595, 23.459278118]}, "properties": {"kind": "dam", "name": "仁義潭水庫", "name_en": "Jenitan Reservoir", "compare_id": 30301, "capacity_m3": 29110000.0, "dam_height_m": 28.0, "is_reservoir": true}}, {"id": "dam:wra:26", "type": "Feature", "geometry": {"type": "Point", "coordinates": [120.477461958, 23.385998487]}, "properties": {"kind": "dam", "name": "鹿寮溪水庫", "name_en": "Luliaoshi Reservoir", "compare_id": 30303, "capacity_m3": 3783287.0, "dam_height_m": 30.0, "is_reservoir": true}}, {"id": "dam:wra:85", "type": "Feature", "geometry": {"type": "Point", "coordinates": [119.496310255, 23.36545987]}, "properties": {"kind": "dam", "name": "西安水庫", "name_en": "Shian Reservoir", "compare_id": 50105, "capacity_m3": 240000.0, "dam_height_m": 13.0, "is_reservoir": true}}, {"id": "dam:wra:28", "type": "Feature", "geometry": {"type": "Point", "coordinates": [120.471754814, 23.356376847]}, "properties": {"kind": "dam", "name": "白河水庫", "name_en": "Paiho Reservoir", "compare_id": 30401, "capacity_m3": 25093448.0, "dam_height_m": 42.5, "is_reservoir": true}}, {"id": "dam:wra:29", "type": "Feature", "geometry": {"type": "Point", "coordinates": [120.331440281, 23.263926767]}, "properties": {"kind": "dam", "name": "德元埤水庫", "name_en": "Teyuanpi Reservoir", "compare_id": 30403, "capacity_m3": 3853358.0, "dam_height_m": 6.7, "is_reservoir": true}}, {"id": "dam:wra:30", "type": "Feature", "geometry": {"type": "Point", "coordinates": [120.392105145, 23.264503831]}, "properties": {"kind": "dam", "name": "尖山埤水庫", "name_en": "Chienranpei Reservoir", "compare_id": 30402, "capacity_m3": 8111000.0, "dam_height_m": 30.0, "is_reservoir": true}}, {"id": "dam:wra:31", "type": "Feature", "geometry": {"type": "Point", "coordinates": [120.535831173, 23.248685034]}, "properties": {"kind": "dam", "name": "曾文水庫", "name_en": "Tsengwen Reservoir", "compare_id": 30502, "capacity_m3": 608317000.0, "dam_height_m": 133.0, "is_reservoir": true}}, {"id": "dam:wra:32", "type": "Feature", "geometry": {"type": "Point", "coordinates": [120.368121774, 23.203112548]}, "properties": {"kind": "dam", "name": "烏山頭水庫", "name_en": "Wushantou Reservoir", "compare_id": 30501, "capacity_m3": 154158000.0, "dam_height_m": 56.0, "is_reservoir": true}}, {"id": "dam:wra:33", "type": "Feature", "geometry": {"type": "Point", "coordinates": [120.538144922, 23.089385459]}, "properties": {"kind": "dam", "name": "南化水庫", "name_en": "Nanhwa Reservoir", "compare_id": 30503, "capacity_m3": 158050000.0, "dam_height_m": 87.5, "is_reservoir": true}}, {"id": "dam:wra:34", "type": "Feature", "geometry": {"type": "Point", "coordinates": [120.488085622, 23.058155797]}, "properties": {"kind": "dam", "name": "鏡面水庫", "name_en": "Chingmein Reservoir", "compare_id": 30504, "capacity_m3": 1150000.0, "dam_height_m": 36.0, "is_reservoir": true}}, {"id": "dam:wra:36", "type": "Feature", "geometry": {"type": "Point", "coordinates": [120.33739243, 23.025629293]}, "properties": {"kind": "dam", "name": "虎頭埤水庫", "name_en": "Hutoupi Reservoir", "compare_id": 30601, "capacity_m3": 1357736.0, "dam_height_m": 15.3, "is_reservoir": true}}, {"id": "dam:wra:37", "type": "Feature", "geometry": {"type": "Point", "coordinates": [120.344625821, 22.811506141]}, "properties": {"kind": "dam", "name": "阿公店水庫", "name_en": "Akongtien Reservoir", "compare_id": 30802, "capacity_m3": 45000000.0, "dam_height_m": 31.0, "is_reservoir": true}}, {"id": "dam:wra:38", "type": "Feature", "geometry": {"type": "Point", "coordinates": [120.358067885, 22.661077779]}, "properties": {"kind": "dam", "name": "澄清湖水庫", "name_en": "Chengchinghu Reservoir", "compare_id": 30801, "capacity_m3": 5000000.0, "dam_height_m": 6.0, "is_reservoir": true}}, {"id": "dam:wra:39", "type": "Feature", "geometry": {"type": "Point", "coordinates": [120.391964614, 22.534900321]}, "properties": {"kind": "dam", "name": "鳳山水庫", "name_en": "Fengshan Reservoir", "compare_id": 30803, "capacity_m3": 9200000.0, "dam_height_m": 39.5, "is_reservoir": true}}, {"id": "dam:wra:40", "type": "Feature", "geometry": {"type": "Point", "coordinates": [120.462169186, 22.504436522]}, "properties": {"kind": "dam", "name": "東港溪堰", "name_en": "Tungkangshi Weir", "compare_id": null, "capacity_m3": 0.0, "dam_height_m": 0.0, "is_reservoir": false}}, {"id": "dam:wra:41", "type": "Feature", "geometry": {"type": "Point", "coordinates": [120.73580662, 21.982700169]}, "properties": {"kind": "dam", "name": "龍鑾潭", "name_en": "Lungluantan Reservoir", "compare_id": null, "capacity_m3": 3790000.0, "dam_height_m": 8.0, "is_reservoir": false}}, {"id": "dam:wra:42", "type": "Feature", "geometry": {"type": "Point", "coordinates": [120.782160046, 22.132723588]}, "properties": {"kind": "dam", "name": "牡丹水庫", "name_en": "Mudan Reservoir", "compare_id": 31201, "capacity_m3": 29399110.0, "dam_height_m": 65.0, "is_reservoir": true}}, {"id": "dam:wra:43", "type": "Feature", "geometry": {"type": "Point", "coordinates": [121.531897424, 24.926616753]}, "properties": {"kind": "dam", "name": "直潭壩", "name_en": "Zhitan Dam", "compare_id": null, "capacity_m3": 4200000.0, "dam_height_m": 12.5, "is_reservoir": false}}, {"id": "dam:wra:93", "type": "Feature", "geometry": {"type": "Point", "coordinates": [121.546646757, 24.914974714]}, "properties": {"kind": "dam", "name": "粗坑壩", "name_en": "Chukeng Dam", "compare_id": null, "capacity_m3": 240000.0, "dam_height_m": 6.8, "is_reservoir": false}}, {"id": "dam:wra:86", "type": "Feature", "geometry": {"type": "Point", "coordinates": [121.546328377, 24.871978093]}, "properties": {"kind": "dam", "name": "龜山壩", "name_en": "Kueishan Dam", "compare_id": null, "capacity_m3": 152500.0, "dam_height_m": 20.0, "is_reservoir": false}}, {"id": "dam:wra:87", "type": "Feature", "geometry": {"type": "Point", "coordinates": [121.587395632, 24.849950918]}, "properties": {"kind": "dam", "name": "阿玉壩", "name_en": "Ayu Dam", "compare_id": null, "capacity_m3": 105000.0, "dam_height_m": 18.0, "is_reservoir": false}}, {"id": "dam:wra:88", "type": "Feature", "geometry": {"type": "Point", "coordinates": [121.526268294, 24.831497842]}, "properties": {"kind": "dam", "name": "羅好壩", "name_en": "Lohao Dam", "compare_id": null, "capacity_m3": 300000.0, "dam_height_m": 22.0, "is_reservoir": false}}, {"id": "dam:wra:50", "type": "Feature", "geometry": {"type": "Point", "coordinates": [121.160454312, 24.252985788]}, "properties": {"kind": "dam", "name": "青山壩", "name_en": "Chingshan Dam", "compare_id": null, "capacity_m3": 600000.0, "dam_height_m": 45.0, "is_reservoir": false}}, {"id": "dam:wra:51", "type": "Feature", "geometry": {"type": "Point", "coordinates": [121.01520172, 24.210744783]}, "properties": {"kind": "dam", "name": "天輪壩", "name_en": "Tienlun Dam", "compare_id": null, "capacity_m3": 590000.0, "dam_height_m": 48.2, "is_reservoir": false}}, {"id": "dam:wra:92", "type": "Feature", "geometry": {"type": "Point", "coordinates": [120.863211641, 23.815804334]}, "properties": {"kind": "dam", "name": "東惠壩", "name_en": "Tunghuei Dam", "compare_id": null, "capacity_m3": 128645.0, "dam_height_m": 27.3, "is_reservoir": false}}, {"id": "dam:wra:54", "type": "Feature", "geometry": {"type": "Point", "coordinates": [121.057694663, 23.914705867]}, "properties": {"kind": "dam", "name": "武界壩", "name_en": "Wujie Dam", "compare_id": null, "capacity_m3": 14000000.0, "dam_height_m": 57.6, "is_reservoir": false}}, {"id": "dam:wra:55", "type": "Feature", "geometry": {"type": "Point", "coordinates": [120.870338892, 23.854502081]}, "properties": {"kind": "dam", "name": "明湖水庫", "name_en": "Minghu Reservoir", "compare_id": null, "capacity_m3": 9448742.0, "dam_height_m": 57.5, "is_reservoir": true}}, {"id": "dam:wra:57", "type": "Feature", "geometry": {"type": "Point", "coordinates": [120.493586571, 23.530164695]}, "properties": {"kind": "dam", "name": "內埔仔水庫", "name_en": "Neiputzu Reservoir", "compare_id": null, "capacity_m3": 910000.0, "dam_height_m": 26.0, "is_reservoir": true}}, {"id": "dam:wra:58", "type": "Feature", "geometry": {"type": "Point", "coordinates": [120.367889096, 22.707765841]}, "properties": {"kind": "dam", "name": "(未登錄名稱)", "name_en": "", "compare_id": null, "capacity_m3": 648750.0, "dam_height_m": 6.0, "is_reservoir": false}}, {"id": "dam:wra:63", "type": "Feature", "geometry": {"type": "Point", "coordinates": [121.583580243, 24.176942627]}, "properties": {"kind": "dam", "name": "溪畔壩", "name_en": "Chipan Dam", "compare_id": null, "capacity_m3": 382873.0, "dam_height_m": 25.0, "is_reservoir": false}}, {"id": "dam:wra:91", "type": "Feature", "geometry": {"type": "Point", "coordinates": [121.40998763, 24.02240854]}, "properties": {"kind": "dam", "name": "龍溪壩", "name_en": "Lungshi Dam", "compare_id": null, "capacity_m3": 191593.0, "dam_height_m": 29.5, "is_reservoir": false}}, {"id": "dam:wra:62", "type": "Feature", "geometry": {"type": "Point", "coordinates": [121.430257596, 24.000686253]}, "properties": {"kind": "dam", "name": "水簾壩", "name_en": "Shuilien Dam", "compare_id": null, "capacity_m3": 20980.0, "dam_height_m": 27.0, "is_reservoir": false}}, {"id": "dam:wra:66", "type": "Feature", "geometry": {"type": "Point", "coordinates": [120.55307121, 22.908051442]}, "properties": {"kind": "dam", "name": "(未登錄名稱)", "name_en": "", "compare_id": null, "capacity_m3": 327700.0, "dam_height_m": 145.5, "is_reservoir": false}}, {"id": "dam:wra:94", "type": "Feature", "geometry": {"type": "Point", "coordinates": [119.509103614, 23.610563046]}, "properties": {"kind": "dam", "name": "小池水庫", "name_en": "Shiaochi Reservoir", "compare_id": null, "capacity_m3": 191700.0, "dam_height_m": 16.0, "is_reservoir": true}}, {"id": "dam:wra:68", "type": "Feature", "geometry": {"type": "Point", "coordinates": [119.434176372, 23.21084797]}, "properties": {"kind": "dam", "name": "七美水庫", "name_en": "Chimei Reservoir", "compare_id": 50106, "capacity_m3": 228000.0, "dam_height_m": 14.0, "is_reservoir": true}}, {"id": "dam:wra:19", "type": "Feature", "geometry": {"type": "Point", "coordinates": [120.901946896, 23.862216296]}, "properties": {"kind": "dam", "name": "日月潭", "name_en": "Sunmoon Lake", "compare_id": null, "capacity_m3": 171621000.0, "dam_height_m": 30.3, "is_reservoir": false}}, {"id": "dam:wra:95", "type": "Feature", "geometry": {"type": "Point", "coordinates": [121.342381658, 24.930717189]}, "properties": {"kind": "dam", "name": "圓山堰", "name_en": "Yuanshan Weir", "compare_id": null, "capacity_m3": 1260000.0, "dam_height_m": 15.5, "is_reservoir": false}}, {"id": "dam:wra:49", "type": "Feature", "geometry": {"type": "Point", "coordinates": [121.253454109, 24.823159082]}, "properties": {"kind": "dam", "name": "(未登錄名稱)", "name_en": "", "compare_id": null, "capacity_m3": 3472096.0, "dam_height_m": 29.0, "is_reservoir": false}}, {"id": "dam:wra:167", "type": "Feature", "geometry": {"type": "Point", "coordinates": [121.753415277, 24.702898732]}, "properties": {"kind": "dam", "name": "(未登錄名稱)", "name_en": "", "compare_id": null, "capacity_m3": 0.0, "dam_height_m": 0.0, "is_reservoir": false}}, {"id": "dam:wra:168", "type": "Feature", "geometry": {"type": "Point", "coordinates": [121.043383554, 24.720937369]}, "properties": {"kind": "dam", "name": "(未登錄名稱)", "name_en": "", "compare_id": null, "capacity_m3": 32180000.0, "dam_height_m": 61.0, "is_reservoir": false}}, {"id": "dam:wra:103", "type": "Feature", "geometry": {"type": "Point", "coordinates": [121.036930236, 24.797147852]}, "properties": {"kind": "dam", "name": "羅恩堰", "name_en": "Lonen Weir", "compare_id": null, "capacity_m3": 0.0, "dam_height_m": 0.0, "is_reservoir": false}}, {"id": "dam:wra:141", "type": "Feature", "geometry": {"type": "Point", "coordinates": [121.006808754, 24.628444609]}, "properties": {"kind": "dam", "name": "(未登錄名稱)", "name_en": "", "compare_id": null, "capacity_m3": 0.0, "dam_height_m": 0.0, "is_reservoir": false}}, {"id": "dam:wra:166", "type": "Feature", "geometry": {"type": "Point", "coordinates": [120.936579014, 24.34404111]}, "properties": {"kind": "dam", "name": "(未登錄名稱)", "name_en": "", "compare_id": null, "capacity_m3": 1274000.0, "dam_height_m": 21.0, "is_reservoir": false}}, {"id": "dam:wra:106", "type": "Feature", "geometry": {"type": "Point", "coordinates": [120.914350988, 24.184102134]}, "properties": {"kind": "dam", "name": "馬鞍壩", "name_en": "Maan Dam", "compare_id": null, "capacity_m3": 965000.0, "dam_height_m": 23.5, "is_reservoir": false}}, {"id": "dam:wra:155", "type": "Feature", "geometry": {"type": "Point", "coordinates": [120.659218198, 23.645878225]}, "properties": {"kind": "dam", "name": "(未登錄名稱)", "name_en": "", "compare_id": null, "capacity_m3": 0.0, "dam_height_m": 0.0, "is_reservoir": false}}, {"id": "dam:wra:110", "type": "Feature", "geometry": {"type": "Point", "coordinates": [120.763513739, 23.818360138]}, "properties": {"kind": "dam", "name": "集集攔河堰", "name_en": "Chichi Weir", "compare_id": 20503, "capacity_m3": 0.0, "dam_height_m": 27.4, "is_reservoir": false}}, {"id": "dam:wra:157", "type": "Feature", "geometry": {"type": "Point", "coordinates": [120.630415495, 23.691057024]}, "properties": {"kind": "dam", "name": "(未登錄名稱)", "name_en": "", "compare_id": null, "capacity_m3": 0.0, "dam_height_m": 75.0, "is_reservoir": false}}, {"id": "dam:wra:83", "type": "Feature", "geometry": {"type": "Point", "coordinates": [120.583748859, 23.08473271]}, "properties": {"kind": "dam", "name": "(未登錄名稱)", "name_en": "", "compare_id": null, "capacity_m3": 0.0, "dam_height_m": 0.0, "is_reservoir": false}}, {"id": "dam:wra:114", "type": "Feature", "geometry": {"type": "Point", "coordinates": [120.438565443, 22.686058415]}, "properties": {"kind": "dam", "name": "高屏溪攔河堰", "name_en": "Kaopinshi Weir", "compare_id": 30901, "capacity_m3": 0.0, "dam_height_m": 0.0, "is_reservoir": false}}, {"id": "dam:wra:120", "type": "Feature", "geometry": {"type": "Point", "coordinates": [121.500611467, 22.673124935]}, "properties": {"kind": "dam", "name": "周津水庫", "name_en": "Chouchin Reservoir", "compare_id": null, "capacity_m3": 74300.0, "dam_height_m": 14.9, "is_reservoir": true}}, {"id": "dam:wra:121", "type": "Feature", "geometry": {"type": "Point", "coordinates": [119.536060019, 23.366504817]}, "properties": {"kind": "dam", "name": "五溝壩", "name_en": "Wugou Dam", "compare_id": null, "capacity_m3": 0.0, "dam_height_m": 0.0, "is_reservoir": false}}, {"id": "dam:wra:35", "type": "Feature", "geometry": {"type": "Point", "coordinates": [120.338477105, 23.04301402]}, "properties": {"kind": "dam", "name": "(未登錄名稱)", "name_en": "", "compare_id": null, "capacity_m3": 755800.0, "dam_height_m": 8.5, "is_reservoir": false}}, {"id": "dam:wra:0", "type": "Feature", "geometry": {"type": "Point", "coordinates": [118.229444835, 24.435226989]}, "properties": {"kind": "dam", "name": "(未登錄名稱)", "name_en": "", "compare_id": null, "capacity_m3": null, "dam_height_m": null, "is_reservoir": false}}, {"id": "reservoir:20502", "type": "Feature", "geometry": {"type": "Point", "coordinates": [120.903534, 23.862501]}, "properties": {"kind": "reservoir", "name": "日月潭水庫", "basin_name": null, "compare_id": 20502, "river_name": "濁水溪(武界壩越域引水至水社水尾溪)", "capacity_m3": 130290000.0, "is_reservoir": true, "design_capacity_wan": 17162.1, "effective_capacity_wan": 13029.0}}, {"id": "reservoir:20503", "type": "Feature", "geometry": {"type": "Point", "coordinates": [120.768115, 23.818248]}, "properties": {"kind": "reservoir", "name": "集集攔河堰", "basin_name": null, "compare_id": 20503, "river_name": "濁水溪", "capacity_m3": 10050000.0, "is_reservoir": false, "design_capacity_wan": 1005.0, "effective_capacity_wan": 1005.0}}, {"id": "reservoir:30301", "type": "Feature", "geometry": {"type": "Point", "coordinates": [120.510961, 23.459079]}, "properties": {"kind": "reservoir", "name": "仁義潭水庫", "basin_name": null, "compare_id": 30301, "river_name": "八掌溪(引水渠)", "capacity_m3": 28055000.0, "is_reservoir": true, "design_capacity_wan": 2911.3, "effective_capacity_wan": 2805.5}}, {"id": "reservoir:30302", "type": "Feature", "geometry": {"type": "Point", "coordinates": [120.478473, 23.466927]}, "properties": {"kind": "reservoir", "name": "蘭潭水庫", "basin_name": null, "compare_id": 30302, "river_name": "八掌溪", "capacity_m3": 9231000.0, "is_reservoir": true, "design_capacity_wan": 979.6, "effective_capacity_wan": 923.1}}, {"id": "reservoir:30303", "type": "Feature", "geometry": {"type": "Point", "coordinates": [120.476266, 23.38542]}, "properties": {"kind": "reservoir", "name": "鹿寮溪水庫", "basin_name": null, "compare_id": 30303, "river_name": "八掌溪支流頭前溪支流鹿寮溪", "capacity_m3": 3570000.0, "is_reservoir": true, "design_capacity_wan": 378.0, "effective_capacity_wan": 357.0}}, {"id": "reservoir:30401", "type": "Feature", "geometry": {"type": "Point", "coordinates": [120.471777, 23.357516]}, "properties": {"kind": "reservoir", "name": "白河水庫", "basin_name": null, "compare_id": 30401, "river_name": "急水溪支流白水溪", "capacity_m3": 22530000.0, "is_reservoir": true, "design_capacity_wan": 2509.0, "effective_capacity_wan": 2253.0}}, {"id": "reservoir:30402", "type": "Feature", "geometry": {"type": "Point", "coordinates": [120.392827, 23.261422]}, "properties": {"kind": "reservoir", "name": "尖山埤水庫", "basin_name": null, "compare_id": 30402, "river_name": "急水溪支流龜重溪上游支流", "capacity_m3": 6330000.0, "is_reservoir": true, "design_capacity_wan": 811.0, "effective_capacity_wan": 633.0}}, {"id": "reservoir:30403", "type": "Feature", "geometry": {"type": "Point", "coordinates": [120.329567, 23.261405]}, "properties": {"kind": "reservoir", "name": "德元埤水庫", "basin_name": null, "compare_id": 30403, "river_name": "急水溪支流塭厝廓溪", "capacity_m3": 3853000.0, "is_reservoir": true, "design_capacity_wan": 385.3, "effective_capacity_wan": 385.3}}, {"id": "reservoir:30501", "type": "Feature", "geometry": {"type": "Point", "coordinates": [120.368895, 23.201751]}, "properties": {"kind": "reservoir", "name": "烏山頭水庫", "basin_name": null, "compare_id": 30501, "river_name": "曾文溪支流官田溪、曾文溪(越域引水)", "capacity_m3": 154150000.0, "is_reservoir": true, "design_capacity_wan": 15415.0, "effective_capacity_wan": 15415.0}}, {"id": "reservoir:30502", "type": "Feature", "geometry": {"type": "Point", "coordinates": [120.535469, 23.249315]}, "properties": {"kind": "reservoir", "name": "曾文水庫", "basin_name": null, "compare_id": 30502, "river_name": "曾文溪", "capacity_m3": 686617000.0, "is_reservoir": true, "design_capacity_wan": 80381.7, "effective_capacity_wan": 68661.7}}, {"id": "reservoir:30503", "type": "Feature", "geometry": {"type": "Point", "coordinates": [120.539763, 23.090682]}, "properties": {"kind": "reservoir", "name": "南化水庫", "basin_name": null, "compare_id": 30503, "river_name": "曾文溪支流後堀溪、高屏溪支流旗山溪(越域引水)", "capacity_m3": 149460000.0, "is_reservoir": true, "design_capacity_wan": 15805.0, "effective_capacity_wan": 14946.0}}, {"id": "reservoir:30504", "type": "Feature", "geometry": {"type": "Point", "coordinates": [120.488036, 23.058045]}, "properties": {"kind": "reservoir", "name": "鏡面水庫", "basin_name": null, "compare_id": 30504, "river_name": "曾文溪支流菜寮溪支流鏡面溪", "capacity_m3": 987000.0, "is_reservoir": true, "design_capacity_wan": 115.0, "effective_capacity_wan": 98.7}}, {"id": "reservoir:30602", "type": "Feature", "geometry": {"type": "Point", "coordinates": [120.33532, 23.041996]}, "properties": {"kind": "reservoir", "name": "鹽水埤水庫", "basin_name": null, "compare_id": 30602, "river_name": "鹽水溪支流茄苳溪", "capacity_m3": 756000.0, "is_reservoir": true, "design_capacity_wan": 75.6, "effective_capacity_wan": 75.6}}, {"id": "reservoir:30601", "type": "Feature", "geometry": {"type": "Point", "coordinates": [120.333833, 23.026766]}, "properties": {"kind": "reservoir", "name": "虎頭埤水庫", "basin_name": null, "compare_id": 30601, "river_name": "鹽水溪支流茄苓崁溪", "capacity_m3": 1358000.0, "is_reservoir": true, "design_capacity_wan": 135.8, "effective_capacity_wan": 135.8}}, {"id": "reservoir:20501", "type": "Feature", "geometry": {"type": "Point", "coordinates": [121.139308, 23.980399]}, "properties": {"kind": "reservoir", "name": "霧社水庫", "basin_name": null, "compare_id": 20501, "river_name": "濁水溪支流霧社溪", "capacity_m3": 148600000.0, "is_reservoir": true, "design_capacity_wan": 14860.0, "effective_capacity_wan": 14860.0}}, {"id": "reservoir:10204", "type": "Feature", "geometry": {"type": "Point", "coordinates": [121.710973, 25.133357]}, "properties": {"kind": "reservoir", "name": "新山水庫", "basin_name": null, "compare_id": 10204, "river_name": "基隆河支流大武崙溪支流新山溪", "capacity_m3": 10000000.0, "is_reservoir": true, "design_capacity_wan": 1000.0, "effective_capacity_wan": 1000.0}}, {"id": "reservoir:10203", "type": "Feature", "geometry": {"type": "Point", "coordinates": [121.735683, 25.087397]}, "properties": {"kind": "reservoir", "name": "西勢水庫", "basin_name": null, "compare_id": 10203, "river_name": "基隆河支流西勢溪", "capacity_m3": 652000.0, "is_reservoir": true, "design_capacity_wan": 65.2, "effective_capacity_wan": null}}, {"id": "reservoir:10205", "type": "Feature", "geometry": {"type": "Point", "coordinates": [121.579613, 24.909214]}, "properties": {"kind": "reservoir", "name": "翡翠水庫", "basin_name": null, "compare_id": 10205, "river_name": "新店溪支流北勢溪", "capacity_m3": 344093000.0, "is_reservoir": true, "design_capacity_wan": 40600.0, "effective_capacity_wan": 34409.3}}, {"id": "reservoir:10201", "type": "Feature", "geometry": {"type": "Point", "coordinates": [121.244603, 24.810835]}, "properties": {"kind": "reservoir", "name": "石門水庫", "basin_name": null, "compare_id": 10201, "river_name": "淡水河支流大漢溪", "capacity_m3": 251880000.0, "is_reservoir": true, "design_capacity_wan": 30912.0, "effective_capacity_wan": 25188.0}}, {"id": "reservoir:10401", "type": "Feature", "geometry": {"type": "Point", "coordinates": [121.042334, 24.749106]}, "properties": {"kind": "reservoir", "name": "寶山水庫", "basin_name": null, "compare_id": 10401, "river_name": "頭前溪支流柴梳山溪、頭前溪支流上坪溪(越域取水)", "capacity_m3": 5350000.0, "is_reservoir": true, "design_capacity_wan": 547.0, "effective_capacity_wan": 535.0}}, {"id": "reservoir:10405", "type": "Feature", "geometry": {"type": "Point", "coordinates": [121.048205, 24.71824]}, "properties": {"kind": "reservoir", "name": "寶山第二水庫", "basin_name": null, "compare_id": 10405, "river_name": "中港溪(越域取水－上坪溪)", "capacity_m3": 31340000.0, "is_reservoir": true, "design_capacity_wan": 3218.0, "effective_capacity_wan": 3134.0}}, {"id": "reservoir:10503", "type": "Feature", "geometry": {"type": "Point", "coordinates": [120.983406, 24.673726]}, "properties": {"kind": "reservoir", "name": "大埔水庫", "basin_name": null, "compare_id": 10503, "river_name": "中港溪支流峨眉溪", "capacity_m3": 7960000.0, "is_reservoir": true, "design_capacity_wan": 925.8, "effective_capacity_wan": 796.0}}, {"id": "reservoir:10501", "type": "Feature", "geometry": {"type": "Point", "coordinates": [120.922843, 24.661033]}, "properties": {"kind": "reservoir", "name": "永和山水庫", "basin_name": null, "compare_id": 10501, "river_name": "中港溪支流北坑溝、中港溪支流南庄溪 (越域引水)", "capacity_m3": 29102000.0, "is_reservoir": true, "design_capacity_wan": 2957.4, "effective_capacity_wan": 2910.2}}, {"id": "reservoir:10601", "type": "Feature", "geometry": {"type": "Point", "coordinates": [120.884874, 24.582637]}, "properties": {"kind": "reservoir", "name": "明德水庫", "basin_name": null, "compare_id": 10601, "river_name": "後龍溪支流老田寮溪", "capacity_m3": 16500000.0, "is_reservoir": true, "design_capacity_wan": 1770.0, "effective_capacity_wan": 1650.0}}, {"id": "reservoir:20101", "type": "Feature", "geometry": {"type": "Point", "coordinates": [120.782863, 24.343832]}, "properties": {"kind": "reservoir", "name": "鯉魚潭水庫", "basin_name": null, "compare_id": 20101, "river_name": "大安溪支流景山溪", "capacity_m3": 119872000.0, "is_reservoir": true, "design_capacity_wan": 12606.9, "effective_capacity_wan": 11987.2}}, {"id": "reservoir:20201", "type": "Feature", "geometry": {"type": "Point", "coordinates": [121.167545, 24.255139]}, "properties": {"kind": "reservoir", "name": "德基水庫", "basin_name": null, "compare_id": 20201, "river_name": "大甲溪、大甲溪支流志樂溪", "capacity_m3": 183000000.0, "is_reservoir": true, "design_capacity_wan": 23200.0, "effective_capacity_wan": 18300.0}}, {"id": "reservoir:20203", "type": "Feature", "geometry": {"type": "Point", "coordinates": [121.072544, 24.2322]}, "properties": {"kind": "reservoir", "name": "谷關水庫", "basin_name": null, "compare_id": 20203, "river_name": "大甲溪、大甲溪支流小雪溪", "capacity_m3": 12500000.0, "is_reservoir": true, "design_capacity_wan": 1710.0, "effective_capacity_wan": 1250.0}}, {"id": "reservoir:20202", "type": "Feature", "geometry": {"type": "Point", "coordinates": [120.76762, 24.280596]}, "properties": {"kind": "reservoir", "name": "石岡壩", "basin_name": null, "compare_id": 20202, "river_name": "大甲溪", "capacity_m3": 1842000.0, "is_reservoir": false, "design_capacity_wan": 240.2, "effective_capacity_wan": 184.2}}, {"id": "reservoir:30802", "type": "Feature", "geometry": {"type": "Point", "coordinates": [120.344967, 22.811292]}, "properties": {"kind": "reservoir", "name": "阿公店水庫", "basin_name": null, "compare_id": 30802, "river_name": "阿公店溪、高屏溪支流旗山溪(越域引水)", "capacity_m3": 18370000.0, "is_reservoir": true, "design_capacity_wan": 1837.0, "effective_capacity_wan": 1837.0}}, {"id": "reservoir:30803", "type": "Feature", "geometry": {"type": "Point", "coordinates": [120.385729, 22.538567]}, "properties": {"kind": "reservoir", "name": "鳳山水庫", "basin_name": null, "compare_id": 30803, "river_name": "高屏溪及東港溪(抽水)", "capacity_m3": 8500000.0, "is_reservoir": true, "design_capacity_wan": 920.0, "effective_capacity_wan": 850.0}}, {"id": "reservoir:30801", "type": "Feature", "geometry": {"type": "Point", "coordinates": [120.35657, 22.664611]}, "properties": {"kind": "reservoir", "name": "澄清湖水庫", "basin_name": null, "compare_id": 30801, "river_name": "高屏溪(抽水)", "capacity_m3": 3431000.0, "is_reservoir": true, "design_capacity_wan": 435.7, "effective_capacity_wan": 343.1}}, {"id": "reservoir:31201", "type": "Feature", "geometry": {"type": "Point", "coordinates": [120.781215, 22.132989]}, "properties": {"kind": "reservoir", "name": "牡丹水庫", "basin_name": null, "compare_id": 31201, "river_name": "四重溪支流汝仍溪、牡丹溪", "capacity_m3": 30560000.0, "is_reservoir": true, "design_capacity_wan": 3119.0, "effective_capacity_wan": 3056.0}}, {"id": "reservoir:31301", "type": "Feature", "geometry": {"type": "Point", "coordinates": [119.62449, 23.578978]}, "properties": {"kind": "reservoir", "name": "成功水庫", "basin_name": null, "compare_id": 31301, "river_name": "港底溪及紅羅越域引水", "capacity_m3": 1047000.0, "is_reservoir": true, "design_capacity_wan": 108.5, "effective_capacity_wan": 104.7}}, {"id": "reservoir:50102", "type": "Feature", "geometry": {"type": "Point", "coordinates": [119.602912, 23.539684]}, "properties": {"kind": "reservoir", "name": "興仁水庫", "basin_name": null, "compare_id": 50102, "river_name": "雙港溪支流及菜園越域引水", "capacity_m3": 637000.0, "is_reservoir": true, "design_capacity_wan": 67.8, "effective_capacity_wan": 63.7}}, {"id": "reservoir:50103", "type": "Feature", "geometry": {"type": "Point", "coordinates": [119.596122, 23.566843]}, "properties": {"kind": "reservoir", "name": "東衛水庫", "basin_name": null, "compare_id": 50103, "river_name": "東衛里(天然積水)", "capacity_m3": 185000.0, "is_reservoir": true, "design_capacity_wan": 19.1, "effective_capacity_wan": 18.5}}, {"id": "reservoir:50105", "type": "Feature", "geometry": {"type": "Point", "coordinates": [119.507269, 23.370683]}, "properties": {"kind": "reservoir", "name": "西安水庫", "basin_name": null, "compare_id": 50105, "river_name": "西安村(天然積水)", "capacity_m3": 235000.0, "is_reservoir": true, "design_capacity_wan": 24.0, "effective_capacity_wan": 23.5}}, {"id": "reservoir:50106", "type": "Feature", "geometry": {"type": "Point", "coordinates": [119.430068, 23.203762]}, "properties": {"kind": "reservoir", "name": "七美水庫", "basin_name": null, "compare_id": 50106, "river_name": "東湖村(天然積水)", "capacity_m3": 228000.0, "is_reservoir": true, "design_capacity_wan": 22.8, "effective_capacity_wan": 22.8}}]}
