{"type": "FeatureCollection", "features": [{"type": "Feature", "properties": {"bucket": "cpc", "station_count": 291}, "geometry": {"type": "Polygon", "coordinates": [[[120.34818504686241, 23.21969969969971], [120.33053751154935, 23.203506006005984], [120.30108404510203, 23.203506006005984], [120.29226027744551, 23.21969969969971], [120.27811594639006, 23.21969969969971], [120.27046282875993, 23.21399575675676], [120.25720509420346, 23.218049783783783], [120.246861, 23.218049783783783], [120.24326451946837, 23.21969969969971], [120.20136244674343, 23.21969969969971], [120.17370928704362, 23.24507681081081], [120.15796923941191, 23.24507681081081], [120.153333333333, 23.242950450450483], [120.12387107443577, 23.242950450450483], [120.10928956102788, 23.246294516483783], [120.06902609225263, 23.246294516483783], [119.9803522877419, 23.273386854209505], [119.8773669386407, 23.29700450450454], [119.85871074436075, 23.29700450450454], [119.85871074436075, 23.35105855855859], [119.86728864277325, 23.366796326191317], [119.89224806106988, 23.435483705672972], [119.90388602672554, 23.478940703072873], [119.90388602672554, 23.486814027027027], [119.90595530519442, 23.492508720960107], [119.90595530519442, 23.51090489189189], [119.91549740916035, 23.53713317270417], [119.91549740916035, 23.628554506485504], [119.90595530519442, 23.646040027027027], [119.90595530519442, 23.670308522283136], [119.90388602672554, 23.676003216216216], [119.90388602672554, 23.683376922229417], [119.8859907103054, 23.76533410810811], [119.85648401145045, 23.84641518918919], [119.85648401145045, 23.87344221621622], [119.89843567968612, 23.87344221621622], [119.89843567968612, 23.97898727027027], [119.95078054826222, 23.97898727027027], [119.95078054826222, 24.02098627027027], [119.9760225187734, 24.02098627027027], [119.9760225187734, 24.05971471471467], [119.99321996428776, 24.05971471471467], [119.99321996428776, 24.06484727027027], [120.0312803148721, 24.06484727027027], [120.0312803148721, 24.190270270270272], [120.22381547424335, 24.131604006363386], [120.2764274610786, 24.227761154286302], [120.2533852661518, 24.23904427027027], [120.33183540670942, 24.23804804804807], [120.417817, 24.19808824324324], [120.4297499698632, 24.18718311109442], [120.43454930341063, 24.184990216216217], [120.46042840826897, 24.184990216216217], [120.46527826819477, 24.182774395258182], [120.52067610572138, 24.208080216216217], [120.57159767774273, 24.192572845748252], [120.64292261393076, 24.208863419213916], [120.6641821690432, 24.19915207945208], [120.71930692264685, 24.215938438438418], [120.73167433987861, 24.204640216216216], [120.75975231160427, 24.204640216216216], [120.75975231160427, 24.17898965731934], [120.77847632349653, 24.16188438438436], [120.77847632349653, 24.143399640502928], [120.78933441547237, 24.12355913513513], [120.78933441547237, 24.104523869658873], [120.83686380564319, 24.09005041891938], [120.86743316682627, 24.104016110463828], [120.88337780511577, 24.118584135135137], [120.94253972716209, 24.06453008108108], [120.91586375280372, 24.06453008108108], [120.91586375280372, 24.05857418108108], [120.89373544099222, 24.038355428369307], [120.89373544099222, 24.018576278514235], [120.92639982562076, 23.972695195195172], [120.90118877454998, 23.972695195195172], [120.85379684409261, 23.929394945945948], [120.8510780530152, 23.924426828793], [120.85435155610476, 23.915446442250833], [120.87291443970248, 23.898467240762564], [120.89474431701473, 23.888481081081082], [120.89474431701473, 23.86405659168695], [120.9085018879401, 23.8388888888889], [120.9085018879401, 23.821840121647305], [120.92428503651719, 23.8074], [120.92428503651719, 23.780372972972973], [120.91632551046244, 23.773090742566026], [120.91632551046244, 23.751718918918918], [120.8951882658876, 23.751718918918918], [120.89074474365256, 23.749686706117792], [120.86520359751228, 23.72631891891892], [120.84581290242718, 23.717448572343674], [120.82835032594849, 23.685491891891893], [120.8143790133179, 23.672708074630666], [120.8143790133179, 23.65432589189189], [120.80284051391692, 23.65432589189189], [120.80284051391692, 23.650225225225192], [120.74378136806946, 23.650225225225192], [120.68743279646293, 23.624438628655074], [120.67606873279742, 23.603637837837837], [120.66896102939823, 23.603637837837837], [120.6632440191841, 23.596886654987713], [120.6632440191841, 23.59], [120.63620254964394, 23.565218316040212], [120.63620254964394, 23.54286036036033], [120.65998094562977, 23.521056763786422], [120.65998094562977, 23.54580330330328], [120.71890794325824, 23.57283033033031], [120.77783494088675, 23.57283033033031], [120.77783494088675, 23.491749249249228], [120.80729843970099, 23.4647222222222], [120.80729843970099, 23.43769519519517], [120.83676193851522, 23.38364114114112], [120.79700891510494, 23.40187397297297], [120.77724904299204, 23.40187397297297], [120.74779353224403, 23.34781991891892], [120.688882510748, 23.34781991891892], [120.62997148925199, 23.32079289189189], [120.60051597850396, 23.32079289189189], [120.58571441535858, 23.33437412803459], [120.58148866011844, 23.33437412803459], [120.55034988456754, 23.307133786915763], [120.5473480384003, 23.309887864864862], [120.52556756331013, 23.309887864864862], [120.52556756331013, 23.290220964864865], [120.49611284220676, 23.290220964864865], [120.47341216091532, 23.24856163801927], [120.47341216091532, 23.23454971081081], [120.46832200029807, 23.239220391290683], [120.46665812110338, 23.23616691081081], [120.46057445840766, 23.24174915059924], [120.44835137733864, 23.230533033033012], [120.43966651059358, 23.24647181081081], [120.436026, 23.24647181081081], [120.42149366607377, 23.25313857176892], [120.34818504686241, 23.21969969969971]]]}}]}