{"type": "FeatureCollection", "features": [{"type": "Feature", "properties": {"bucket": "taisugar", "station_count": 1}, "geometry": {"type": "Polygon", "coordinates": [[[120.3014793719019, 23.676075], [120.3014793719019, 23.70310202702703], [120.36050127892642, 23.75715608108108], [120.39001223243869, 23.78418310810811], [120.44903413946321, 23.78418310810811], [120.44903413946321, 23.811210135135134], [120.47854509297547, 23.78418310810811], [120.56707795351225, 23.78418310810811], [120.59658890702453, 23.811210135135134], [120.62609986053678, 23.811210135135134], [120.65561081404904, 23.78418310810811], [120.6851217675613, 23.78418310810811], [120.6851217675613, 23.75715608108108], [120.65561081404904, 23.75715608108108], [120.62609986053678, 23.730129054054053], [120.65561081404904, 23.676075], [120.6851217675613, 23.676075], [120.6851217675613, 23.649047972972973], [120.65561081404904, 23.59499391891892], [120.62609986053678, 23.567966891891892], [120.59658890702453, 23.51391283783784], [120.50805604648774, 23.51391283783784], [120.50805604648774, 23.48688581081081], [120.47854509297547, 23.51391283783784], [120.41952318595095, 23.51391283783784], [120.36050127892642, 23.567966891891892], [120.3014793719019, 23.676075]]]}}]}