{"type": "FeatureCollection", "features": [{"type": "Feature", "properties": {"bucket": "fpcc", "station_count": 71}, "geometry": {"type": "Polygon", "coordinates": [[[120.45259321725396, 23.24598551081081], [120.41745908814588, 23.262103479417085], [120.39693279509517, 23.25268741081081], [120.36747439264275, 23.25268741081081], [120.34546186798937, 23.27288311217993], [120.33021645549239, 23.26589168378378], [120.33021645549239, 23.270931269713454], [120.31730499535922, 23.265605022584626], [120.29542574769296, 23.245534618429183], [120.28870948217805, 23.245534618429183], [120.27440820845182, 23.232414383783784], [120.18602848309638, 23.232414383783784], [120.15656857464458, 23.28646843783784], [120.13642419327712, 23.30494923999483], [120.04021359233957, 23.349077485954428], [120.02528502811046, 23.35364272653729], [120.00079739171815, 23.35364272653729], [119.9418717205232, 23.38066975356432], [119.9418717205232, 23.56985894275351], [119.9503492154819, 23.56985894275351], [119.9503492154819, 23.583765735135138], [120.0037273296908, 23.583765735135138], [120.0037273296908, 23.59914682509651], [119.94022037733333, 23.59914682509651], [119.94022037733333, 23.74338110227365], [119.92221466607374, 23.744566107462546], [119.92221466607374, 24.06889043178687], [120.01318328850472, 24.06889043178687], [120.01318328850472, 24.150779643243244], [120.03403335723814, 24.160310216510844], [120.03403335723814, 24.18804764324324], [120.11623931379344, 24.16496198918919], [120.17539771034508, 24.24604307027027], [120.27271779032756, 24.24604307027027], [120.27271779032756, 24.25318996538777], [120.3022986297784, 24.25318996538777], [120.3614603086801, 24.22616293836074], [120.37877645417049, 24.210341753402464], [120.4108138508485, 24.195702543243243], [120.41487731250884, 24.19198901621622], [120.47118969310327, 24.19198901621622], [120.49294711255283, 24.172108884306688], [120.50936450593431, 24.172108884306688], [120.62768786373769, 24.199135911333716], [120.65726870318854, 24.199135911333716], [120.6611368123372, 24.19383466773589], [120.6961484318192, 24.20982781450642], [120.75531502358358, 24.20982781450642], [120.75531502358358, 24.18280078747939], [120.78489831946577, 24.128746733425338], [120.78489831946577, 24.07469267937128], [120.8288528975747, 24.03453618108108], [120.85797476494841, 24.03453618108108], [120.88754884243981, 23.980482127027027], [120.84191701392058, 23.959631220298988], [120.84191701392058, 23.928038722792397], [120.87731764622309, 23.895658954054053], [120.87731764622309, 23.8416049], [120.90686615392694, 23.814577872972972], [120.90686615392694, 23.76052381891892], [120.87731764622309, 23.73349679189189], [120.84776913851924, 23.73349679189189], [120.78867212311154, 23.67944273783784], [120.72957510770385, 23.67944273783784], [120.708155762036, 23.669646959992335], [120.708155762036, 23.6511682], [120.68705509659318, 23.631839888515792], [120.69648941557745, 23.614547727027027], [120.63750740934647, 23.56049367297297], [120.63750740934647, 23.540206911844603], [120.66550333404365, 23.5145358], [120.66550333404365, 23.487508772972973], [120.65169658365416, 23.462188328137326], [120.6577593647736, 23.4510643336186], [120.65633304840513, 23.449755830544504], [120.66205841716689, 23.4418766], [120.64388446990057, 23.433539627811033], [120.5988384622514, 23.392227204371856], [120.5988384622514, 23.34295622551049], [120.54083531009661, 23.34295622551049], [120.5104571084681, 23.315929198483467], [120.50376480633271, 23.31285943846718], [120.48205012588093, 23.27301253783784], [120.45259321725396, 23.24598551081081]]]}}]}