{"type":"FeatureCollection","features":[{"type":"Feature","geometry":{"type":"Point","coordinates":[121.3273889,25.0107965]},"properties":{"id":"lcm_03b3ddaf83","address":"桃園市桃園區成功路三段大道200號","city":"桃園市","name":"桃園忠烈祠暨神社文化園區","name_eng":"Martyrs' Shrine Agency, Taoyuan","type":"歷史與人文","website":"http://www.tycg.gov.tw/confucius/","facebook":"https://www.facebook.com/tycg.confuciustemple/","srcWebsite":"https://museums.moc.gov.tw/","source":"google","precision":"approximate"}},{"type":"Feature","geometry":{"type":"Point","coordinates":[119.9205653,26.1704534]},"properties":{"id":"lcm_94811512b4","address":"連江縣南竿鄉四維村72號","city":"連江縣","name":"林義和工坊","name_eng":"Lin Yihe Factory","type":"生活與休閒","website":"https://linyihe-matsu.com/","facebook":"https://www.facebook.com/LinyiheMatsu/","srcWebsite":"https://museums.moc.gov.tw/","source":"google","precision":"approximate"}},{"type":"Feature","geometry":{"type":"Point","coordinates":[119.6223878,23.6003522]},"properties":{"id":"lcm_c7f36d3f41","address":"澎湖縣湖西鄉沙港村 118-1號","city":"澎湖縣","name":"沙港廣聖殿文物典藏館","name_eng":"Shagang GuangShengdian Relic Museum","type":"歷史與人文","website":"","facebook":"https://www.facebook.com/%E6%B2%99%E6%B8%AF%E5%BB%A3%E8%81%96%E6%AE%BF%E6%96%87%E7%89%A9%E5%85%B8%E8%97%8F%E9%A4%A8%E5%8D%B0%E8%B1%A1%E6%B2%99%E6%B8%AF%E6%B0%91%E5%AE%BF-111299345567016/","srcWebsite":"https://museums.moc.gov.tw/","source":"google","precision":"approximate"}},{"type":"Feature","geometry":{"type":"Point","coordinates":[120.632124,22.591884]},"properties":{"id":"lcm_1da2619970","address":"屏東縣泰武鄉佳平村佳平巷169號","city":"屏東縣","name":"泰武鄉立圖書文物館","name_eng":"Taiwu Township Library and Cultural Relics Museum","type":"歷史與人文","website":"","facebook":"https://zh-tw.facebook.com/pages/category/Library/%E6%B3%B0%E6%AD%A6%E5%9C%96%E6%9B%B8%E6%96%87%E7%89%A9%E9%A4%A8-1779261172127704/","srcWebsite":"https://museums.moc.gov.tw/","source":"google","precision":"approximate"}},{"type":"Feature","geometry":{"type":"Point","coordinates":[120.7316233,22.7447025]},"properties":{"id":"lcm_b67d2ceac7","address":"屏東縣霧臺鄉霧台村中山巷59號","city":"屏東縣","name":"屏東縣霧臺鄉魯凱族文物館","name_eng":"RUKAI CULTURE  MUSEME","type":"綜合與其他","website":"","facebook":"https://www.facebook.com/Ngudradrekai/","srcWebsite":"https://museums.moc.gov.tw/","source":"google","precision":"exact"}},{"type":"Feature","geometry":{"type":"Point","coordinates":[120.3155565,22.6307072]},"properties":{"id":"lcm_d5446b1331","address":"高雄市新興區文昌里中正二路214號","city":"高雄市","name":"三餘書店","name_eng":"takaobooks","type":"歷史與人文","website":"","facebook":"https://www.facebook.com/takaobooks214/","srcWebsite":"https://museums.moc.gov.tw/","source":"offline_l2","precision":"exact"}},{"type":"Feature","geometry":{"type":"Point","coordinates":[120.6347768,23.1510176]},"properties":{"id":"lcm_e1478e1aab","address":"高雄市甲仙區五里路50號","city":"高雄市","name":"小林村平埔族群文物館","name_eng":"Xiaolin Pingpu Cultural Museums","type":"歷史與人文","website":"http://xiaolin.khcc.gov.tw/index.php?task=home&lang=cht&","facebook":"","srcWebsite":"https://museums.moc.gov.tw/","source":"offline_l2","precision":"exact"}},{"type":"Feature","geometry":{"type":"Point","coordinates":[120.695147,24.1613005]},"properties":{"id":"lcm_9e91c48647","address":"臺中市北屯區天祥街19號","city":"臺中市","name":"北屯新村-臺中市眷村文物館","name_eng":"Taichung Military Kindred Village Museum","type":"綜合與其他","website":"","facebook":"https://www.facebook.com/go.tmkvm","srcWebsite":"https://museums.moc.gov.tw/","source":"offline_l2","precision":"exact"}},{"type":"Feature","geometry":{"type":"Point","coordinates":[120.7008188,24.0628074]},"properties":{"id":"lcm_4b18cc8a53","address":"臺中市霧峰區民生路26號","city":"臺中市","name":"霧峰林家宮保第園區","name_eng":"Wufeng Lin Family Mansion","type":"歷史與人文","website":"","facebook":"","srcWebsite":"https://museums.moc.gov.tw/","source":"offline_l2","precision":"exact"}},{"type":"Feature","geometry":{"type":"Point","coordinates":[120.6815298,24.1565031]},"properties":{"id":"lcm_7b5a5102c5","address":"臺中市北區學士路91號1樓","city":"臺中市","name":"中國醫藥大學 立夫中醫藥博物館","name_eng":"Lifu Museum of Chinese Medicine, China Medical University","type":"綜合與其他","website":"http://lifumuseum.cmu.edu.tw/","facebook":"https://www.facebook.com/lifumuseum/","srcWebsite":"https://museums.moc.gov.tw/","source":"offline_l2","precision":"exact"}},{"type":"Feature","geometry":{"type":"Point","coordinates":[121.102272,24.5753]},"properties":{"id":"lcm_1bb8535342","address":"新竹縣五峰鄉桃山村清泉164-6號","city":"新竹縣","name":"五峰鄉原住民族館","name_eng":"Aborigines Museum of Wufeng Township","type":"歷史與人文","website":"","facebook":"https://zh-tw.facebook.com/pages/category/Art/%E6%96%B0%E7%AB%B9%E7%B8%A3%E4%BA%94%E5%B3%B0%E9%84%89%E5%8E%9F%E4%BD%8F%E6%B0%91%E6%97%8F%E9%A4%A8-520580971647380/","srcWebsite":"https://museums.moc.gov.tw/","source":"google","precision":"approximate"}},{"type":"Feature","geometry":{"type":"Point","coordinates":[121.3124253,24.9901309]},"properties":{"id":"lcm_8b7398135b","address":"桃園市桃園區復興路135號","city":"桃園市","name":"桃園市新住民文化會館","name_eng":"Taoyuan New Immigrants Culture Hall","type":"綜合與其他","website":"","facebook":"https://www.facebook.com/TaoyuanNewImmigrants/","srcWebsite":"https://museums.moc.gov.tw/","source":"offline_l2","precision":"exact"}},{"type":"Feature","geometry":{"type":"Point","coordinates":[121.5187561,25.038662]},"properties":{"id":"lcm_f2b11714ef","address":"台北市中正區中山南路11號B2","city":"臺北市","name":"文藝資料研究及服務中心","name_eng":"Library Materials Resrarch & Service Center","type":"歷史與人文","website":"http://www.lmrsc.org.tw/index.php","facebook":"https://www.facebook.com/wsnlib/","srcWebsite":"https://museums.moc.gov.tw/","source":"offline_l2","precision":"exact"}},{"type":"Feature","geometry":{"type":"Point","coordinates":[121.5276712,25.0406229]},"properties":{"id":"lcm_7889d45e9d","address":"100臺北市中正區泰安街2巷3號","city":"臺北市","name":"李國鼎故居","name_eng":"Kwoh-ting Li's Residence","type":"綜合與其他","website":"http://online.ktli.org.tw/index.php","facebook":"https://www.facebook.com/pg/%E6%9D%8E%E5%9C%8B%E9%BC%8E%E6%95%85%E5%B1%85-148030612064398/photos/?ref=page_internal","srcWebsite":"https://museums.moc.gov.tw/","source":"offline_l2","precision":"exact"}},{"type":"Feature","geometry":{"type":"Point","coordinates":[120.343699,23.5598934]},"properties":{"id":"lcm_bce85cae60","address":"嘉義縣新港鄉新中路305號","city":"嘉義縣","name":"新港閱讀館","name_eng":"Hsin Kang","type":"綜合與其他","website":"http://www.hkfce.org.tw/","facebook":"https://zh-tw.facebook.com/pg/hkfce1987/","srcWebsite":"https://museums.moc.gov.tw/","source":"google","precision":"exact"}},{"type":"Feature","geometry":{"type":"Point","coordinates":[120.5418533,23.7056658]},"properties":{"id":"lcm_2251fe40a0","address":"雲林縣斗六市府前街101號","city":"雲林縣","name":"行啓記念館","name_eng":"House of Citizen-Memorial Hall of Attendance","type":"歷史與人文","website":"","facebook":"","srcWebsite":"https://museums.moc.gov.tw/","source":"offline_l2","precision":"exact"}},{"type":"Feature","geometry":{"type":"Point","coordinates":[119.9321859,26.1505389]},"properties":{"id":"lcm_ffdbfe8106","address":"連江縣南竿鄉清水村文化路135號","city":"連江縣","name":"馬祖民俗文物館","name_eng":"Matsu Folklore Culture Museum","type":"歷史與人文","website":"https://matsucc.gov.tw/%e6%96%87%e5%8c%96%e6%b2%bf%e9%9d%a9/","facebook":"https://www.facebook.com/culturematsu?locale=zh_TW","srcWebsite":"https://museums.moc.gov.tw/","source":"google","precision":"approximate"}},{"type":"Feature","geometry":{"type":"Point","coordinates":[119.9379151,26.1477771]},"properties":{"id":"lcm_497beced69","address":"連江縣南竿鄉清水村136-1號","city":"連江縣","name":"經國先生紀念館","name_eng":"Ching-Kuo Memorial Hall","type":"歷史與人文","website":"https://matsucc.gov.tw/museum/%e7%b6%93%e5%9c%8b%e5%85%88%e7%94%9f%e7%b4%80%e5%bf%b5%e9%a4%a8/","facebook":"","srcWebsite":"https://museums.moc.gov.tw/","source":"google","precision":"approximate"}},{"type":"Feature","geometry":{"type":"Point","coordinates":[119.5769937,23.5704983]},"properties":{"id":"lcm_1388b645eb","address":"澎湖縣馬公市中華路236號","city":"澎湖縣","name":"澎湖化石館","name_eng":"penghu fossil museum","type":"自然與科學","website":"","facebook":"https://zh-tw.facebook.com/phfm224/","srcWebsite":"https://museums.moc.gov.tw/","source":"offline_l2","precision":"exact"}},{"type":"Feature","geometry":{"type":"Point","coordinates":[119.5767233,23.5713835]},"properties":{"id":"lcm_e79f94d258","address":"澎湖縣馬公市中華路240號","city":"澎湖縣","name":"二呆藝館","name_eng":"erdai art hall","type":"藝術與工藝","website":"","facebook":"https://zh-tw.facebook.com/erdai.phhcc.gov.tw/","srcWebsite":"https://museums.moc.gov.tw/","source":"offline_l2","precision":"exact"}},{"type":"Feature","geometry":{"type":"Point","coordinates":[119.5673261,23.5699364]},"properties":{"id":"lcm_584261f7f9","address":"澎湖縣馬公市治平路30號","city":"澎湖縣","name":"澎湖開拓館","name_eng":"PENGHU RECLAMATION HALL","type":"歷史與人文","website":"","facebook":"","srcWebsite":"https://museums.moc.gov.tw/","source":"offline_l2","precision":"exact"}},{"type":"Feature","geometry":{"type":"Point","coordinates":[120.6846638863298,23.90972799944417]},"properties":{"id":"lcm_79f7e54d49","address":"南投縣南投市彰南路2段65號","city":"南投縣","name":"南投縣縣史館","name_eng":"County History Hall","type":"歷史與人文","website":"","facebook":"","srcWebsite":"https://museums.moc.gov.tw/","source":"offline_l15","precision":"interpolated"}},{"type":"Feature","geometry":{"type":"Point","coordinates":[120.7866507,23.8280832]},"properties":{"id":"lcm_a0cfff0379","address":"南投縣集集鎮育才街166號","city":"南投縣","name":"集集鎮地方文化館","name_eng":"JIJI Local Cultural Ｍuseum","type":"綜合與其他","website":"","facebook":"https://www.facebook.com/chichilibrary/","srcWebsite":"https://museums.moc.gov.tw/","source":"google","precision":"exact"}},{"type":"Feature","geometry":{"type":"Point","coordinates":[120.3143184,22.6323294]},"properties":{"id":"lcm_407be2e30b","address":"六合路178號","city":"","name":"埔里藝文中心與田園藝廊","name_eng":"Puli, Taiwan - Arts & Entertainment","type":"綜合與其他","website":"","facebook":"","srcWebsite":"https://museums.moc.gov.tw/","source":"google","precision":"exact"}},{"type":"Feature","geometry":{"type":"Point","coordinates":[120.6797915,23.7482497]},"properties":{"id":"lcm_7375e18764","address":"南投縣竹山鎮建國路742號","city":"南投縣","name":"竹山地方文化館","name_eng":"Zhushan Local Culture Center","type":"綜合與其他","website":"","facebook":"","srcWebsite":"https://museums.moc.gov.tw/","source":"offline_l2","precision":"exact"}},{"type":"Feature","geometry":{"type":"Point","coordinates":[120.68469355989293,23.909642279160003]},"properties":{"id":"lcm_8c36f73b4f","address":"南投縣南投市彰南路2段61號","city":"南投縣","name":"南投縣藝術家資料館","name_eng":"Nantou County Art Archive","type":"藝術與工藝","website":"","facebook":"","srcWebsite":"https://museums.moc.gov.tw/","source":"offline_l15","precision":"interpolated"}},{"type":"Feature","geometry":{"type":"Point","coordinates":[120.69061612121212,23.903647472727272]},"properties":{"id":"lcm_5479fb8874","address":"南投縣南投市中興路669號4樓","city":"南投縣","name":"南投縣文學資料館","name_eng":"Nantou County Literature Information Hall","type":"歷史與人文","website":"","facebook":"","srcWebsite":"https://museums.moc.gov.tw/","source":"offline_l15","precision":"interpolated"}},{"type":"Feature","geometry":{"type":"Point","coordinates":[120.6846638863298,23.90972799944417]},"properties":{"id":"lcm_3236cf4767","address":"南投縣南投市彰南路2段65號","city":"南投縣","name":"南投陶展示館","name_eng":"Nantou Ceramic Museum","type":"歷史與人文","website":"","facebook":"","srcWebsite":"https://museums.moc.gov.tw/","source":"offline_l15","precision":"interpolated"}},{"type":"Feature","geometry":{"type":"Point","coordinates":[120.6794227,23.91004214285714]},"properties":{"id":"lcm_be2a821426","address":"南投縣南投市建國路135號","city":"南投縣","name":"竹藝博物館","name_eng":"Bamboo Art Museum","type":"藝術與工藝","website":"http://www.nthcc.gov.tw/B1_1","facebook":"","srcWebsite":"https://museums.moc.gov.tw/","source":"offline_l15","precision":"interpolated"}},{"type":"Feature","geometry":{"type":"Point","coordinates":[121.1499013,22.7642688]},"properties":{"id":"lcm_b66a0eb4a0","address":"臺東縣臺東市浙江路350號","city":"臺東縣","name":"臺東美術館","name_eng":"Taitung Art Mueum","type":"藝術與工藝","website":"","facebook":"www.facebook.com/taitungartmuseum","srcWebsite":"https://museums.moc.gov.tw/","source":"offline_l2","precision":"exact"}},{"type":"Feature","geometry":{"type":"Point","coordinates":[121.3836725,23.1003808]},"properties":{"id":"lcm_304983f03b","address":"臺東縣成功鎮民富路43號","city":"臺東縣","name":"臺東縣成功鎮成功鎮原住民文物館","name_eng":"Chenggong Township Museum of Formosan Aborigines","type":"綜合與其他","website":"","facebook":"","srcWebsite":"https://museums.moc.gov.tw/","source":"offline_l2","precision":"exact"}},{"type":"Feature","geometry":{"type":"Point","coordinates":[121.6154852,23.9825873]},"properties":{"id":"lcm_ba1fe6aa5a","address":"花蓮縣花蓮市松園街65號","city":"花蓮縣","name":"松園別館","name_eng":"Pine Garden","type":"歷史與人文","website":"http://www.pinegarden.com.tw/","facebook":"https://www.facebook.com/pinegarden1943/","srcWebsite":"https://museums.moc.gov.tw/","source":"offline_l2","precision":"exact"}},{"type":"Feature","geometry":{"type":"Point","coordinates":[121.6245527,24.0075793]},"properties":{"id":"lcm_6055a75e42","address":"花蓮縣花蓮市北興路460號","city":"花蓮縣","name":"花蓮縣臺灣原住民族文化館","name_eng":"Taiwan Aboriginal Culture Museum","type":"藝術與工藝","website":"","facebook":"","srcWebsite":"https://museums.moc.gov.tw/","source":"offline_l2","precision":"exact"}},{"type":"Feature","geometry":{"type":"Point","coordinates":[121.5647243,23.9739516]},"properties":{"id":"lcm_6a22886ccd","address":"花蓮縣吉安鄉中興路345之1號","city":"花蓮縣","name":"花蓮縣縣定吉安慶修院","name_eng":"Jian Chinxiu Temple","type":"歷史與人文","website":"http://www.yoshino793.com.tw/","facebook":"https://www.facebook.com/yoshino793/","srcWebsite":"https://museums.moc.gov.tw/","source":"google","precision":"exact"}},{"type":"Feature","geometry":{"type":"Point","coordinates":[121.6289261,23.990156]},"properties":{"id":"lcm_34d7daa8cd","address":"花蓮縣花蓮市文復路6號","city":"花蓮縣","name":"花蓮縣石雕博物館","name_eng":"Hualien County Stone Sculptural Museum","type":"藝術與工藝","website":"","facebook":"","srcWebsite":"https://museums.moc.gov.tw/","source":"offline_l2","precision":"exact"}},{"type":"Feature","geometry":{"type":"Point","coordinates":[121.73718426401823,24.7771060517038]},"properties":{"id":"lcm_3f68a4e2a2","address":"宜蘭縣宜蘭市梅洲一路16-3號","city":"宜蘭縣","name":"莎貝莉娜精靈印畫學院","name_eng":"Sabelina Elvis Print Academy","type":"生活與休閒","website":"https://www.sabelina.com.tw/","facebook":"https://www.facebook.com/sabelina.stamp/","srcWebsite":"https://museums.moc.gov.tw/","source":"offline_l1","precision":"cached"}},{"type":"Feature","geometry":{"type":"Point","coordinates":[121.7371742,24.7798738]},"properties":{"id":"lcm_5698deeb4c","address":"宜蘭縣宜蘭市梅洲二路33號","city":"宜蘭縣","name":"橘之鄉蜜餞形象館","name_eng":"AGRIOZ FOOD CO.,LTD","type":"生活與休閒","website":"https://www.agrioz.com.tw/","facebook":"https://www.facebook.com/TWAgrioz","srcWebsite":"https://museums.moc.gov.tw/","source":"offline_l2","precision":"exact"}},{"type":"Feature","geometry":{"type":"Point","coordinates":[121.8459198,24.5814491]},"properties":{"id":"lcm_c47c6db9b6","address":"宜蘭縣蘇澳鎮永春路178號","city":"宜蘭縣","name":"白米木屐館","name_eng":"Baimi Clogs  Village","type":"藝術與工藝","website":"https://www.baimiclogs.com/","facebook":"https://www.facebook.com/baimi.clog.museum","srcWebsite":"https://museums.moc.gov.tw/","source":"google","precision":"exact"}},{"type":"Feature","geometry":{"type":"Point","coordinates":[121.7844552,24.6519156]},"properties":{"id":"lcm_1ca38678cf","address":"宜蘭縣冬山鄉幸福二路73號","city":"宜蘭縣","name":"珍珠稻草工藝館","name_eng":"Pearl Straw Craft Museum","type":"藝術與工藝","website":"","facebook":"","srcWebsite":"https://museums.moc.gov.tw/","source":"google","precision":"exact"}},{"type":"Feature","geometry":{"type":"Point","coordinates":[121.8234687,24.8576121]},"properties":{"id":"lcm_a33286c5eb","address":"宜蘭縣頭城鎮頭城鎮221號","city":"宜蘭縣","name":"龜山島漁村文化館","name_eng":"Gueishan Island Fisherfolk's museum","type":"歷史與人文","website":"","facebook":"","srcWebsite":"https://museums.moc.gov.tw/","source":"google","precision":"approximate"}},{"type":"Feature","geometry":{"type":"Point","coordinates":[121.7746001,24.7051905]},"properties":{"id":"lcm_b9a3af95c3","address":"宜蘭縣五結鄉三興西路171號","city":"宜蘭縣","name":"二結穀倉稻農文化館","name_eng":"Er-Jie Barn","type":"歷史與人文","website":"https://erjiebarn.blogspot.com/","facebook":"https://www.facebook.com/ErJieGuCang/","srcWebsite":"https://museums.moc.gov.tw/","source":"offline_l2","precision":"exact"}},{"type":"Feature","geometry":{"type":"Point","coordinates":[120.4844892,22.6786287]},"properties":{"id":"lcm_a4201eabb5","address":"屏東縣屏東市青島街106號","city":"屏東縣","name":"將軍之屋","name_eng":"General's House","type":"歷史與人文","website":"","facebook":"https://www.facebook.com/VictorystarInPingtung/","srcWebsite":"https://museums.moc.gov.tw/","source":"offline_l2","precision":"exact"}},{"type":"Feature","geometry":{"type":"Point","coordinates":[120.5046967,22.6614872]},"properties":{"id":"lcm_4253575541","address":"屏東縣屏東市菸廠路1號3樓","city":"屏東縣","name":"屏菸1936文化基地原民館","name_eng":"Pingtung  Indigenous Museum","type":"綜合與其他","website":"https://www.cultural.pthg.gov.tw/pt1936/Default.aspx","facebook":"https://www.facebook.com/pt1936/","srcWebsite":"https://museums.moc.gov.tw/","source":"offline_l2","precision":"exact"}},{"type":"Feature","geometry":{"type":"Point","coordinates":[120.4917243,22.6671508]},"properties":{"id":"lcm_06530e2d53","address":"屏東縣屏東市金泉里謙仁巷23號","city":"屏東縣","name":"宗聖公祠","name_eng":"Zhong-Sheng-Gong Memorial","type":"歷史與人文","website":"","facebook":"","srcWebsite":"https://museums.moc.gov.tw/","source":"offline_l2","precision":"exact"}},{"type":"Feature","geometry":{"type":"Point","coordinates":[120.4809263,22.6858014]},"properties":{"id":"lcm_bc246ff64f","address":"屏東縣屏東市博愛路430號","city":"屏東縣","name":"崇蘭昌黎殿","name_eng":"Chonglan Changli Temple","type":"藝術與工藝","website":"https://chong-lan.com/chongli/","facebook":"https://www.facebook.com/ChonglanChangliTemple","srcWebsite":"https://museums.moc.gov.tw/","source":"offline_l2","precision":"exact"}},{"type":"Feature","geometry":{"type":"Point","coordinates":[120.48342033221908,22.678197125524534]},"properties":{"id":"lcm_a937a43ae7","address":"屏東縣屏東市青島街97號","city":"屏東縣","name":"青島玖柒(休館)","name_eng":"Military Song Museum","type":"歷史與人文","website":"","facebook":"https://www.facebook.com/VictorystarInPingtung/","srcWebsite":"https://museums.moc.gov.tw/","source":"offline_l1","precision":"cached"}},{"type":"Feature","geometry":{"type":"Point","coordinates":[120.4993223,22.679154]},"properties":{"id":"lcm_b6b2a7337d","address":"屏東縣屏東市大連路69號4樓","city":"屏東縣","name":"屏東文學館","name_eng":"Pingtung Literature Museum","type":"綜合與其他","website":"https://www.cultural.pthg.gov.tw/index.aspx","facebook":"https://www.facebook.com/ptclib","srcWebsite":"https://museums.moc.gov.tw/","source":"offline_l2","precision":"exact"}},{"type":"Feature","geometry":{"type":"Point","coordinates":[120.5428647,22.5503772]},"properties":{"id":"lcm_86eba4066f","address":"屏東縣潮州鎮建基路58號","city":"屏東縣","name":"屏東戲曲故事館","name_eng":"The Taiwanese Opera&Puppet Museum in Pingtung","type":"藝術與工藝","website":"","facebook":"https://www.facebook.com/TheTaiwaneseOperaAndPuppetMuseumInPingtung/?ref=ts&fref=ts","srcWebsite":"https://museums.moc.gov.tw/","source":"offline_l2","precision":"exact"}},{"type":"Feature","geometry":{"type":"Point","coordinates":[120.4843435,22.6746403]},"properties":{"id":"lcm_c3b0feecae","address":"屏東縣屏東市中山路61號","city":"屏東縣","name":"孫立人將軍行館","name_eng":"Sun Li-Jen General museum","type":"歷史與人文","website":"https://www.cultural.pthg.gov.tw/vipzone/Default.aspx","facebook":"","srcWebsite":"https://museums.moc.gov.tw/","source":"offline_l2","precision":"exact"}},{"type":"Feature","geometry":{"type":"Point","coordinates":[120.7495193,22.0035625]},"properties":{"id":"lcm_b0b367890e","address":"屏東縣恆春鎮東門路1巷6號","city":"屏東縣","name":"恆春文化中心民謠館","name_eng":"Hengchun Cultural Center Folksongs Museum","type":"綜合與其他","website":"","facebook":"https://www.facebook.com/profile.php?id=61561668844495","srcWebsite":"https://museums.moc.gov.tw/","source":"offline_l2","precision":"exact"}},{"type":"Feature","geometry":{"type":"Point","coordinates":[120.5070561,22.6732171]},"properties":{"id":"lcm_1cb63785ba","address":"屏東縣屏東市豐田里田寮巷26號","city":"屏東縣","name":"邱姓河南堂忠實第","name_eng":"Ciou's Ancient House","type":"藝術與工藝","website":"https://www.cultural.pthg.gov.tw/cp.aspx?n=36D04B8B78AFA510","facebook":"","srcWebsite":"https://museums.moc.gov.tw/","source":"offline_l2","precision":"exact"}},{"type":"Feature","geometry":{"type":"Point","coordinates":[120.5232326,22.6181278]},"properties":{"id":"lcm_d85378d678","address":"屏東縣竹田鄉西勢村龍門路97號","city":"屏東縣","name":"屏東縣客家文化中心","name_eng":"Pingtung County Hakka Cultural Center","type":"歷史與人文","website":"","facebook":"https://www.facebook.com/pingtunghakka/","srcWebsite":"https://museums.moc.gov.tw/","source":"google","precision":"exact"}},{"type":"Feature","geometry":{"type":"Point","coordinates":[120.4900017,22.6748789]},"properties":{"id":"lcm_dfb207742e","address":"屏東縣屏東市中正路74號","city":"屏東縣","name":"屏東美術館","name_eng":"Pingtung Art Museum","type":"藝術與工藝","website":"","facebook":"https://www.facebook.com/pingtungartmuseum/","srcWebsite":"https://museums.moc.gov.tw/","source":"offline_l2","precision":"exact"}},{"type":"Feature","geometry":{"type":"Point","coordinates":[120.4818825,22.6863218]},"properties":{"id":"lcm_fca3dd025d","address":"屏東縣屏東市崇蘭里崇蘭69號","city":"屏東縣","name":"阿緱故事館","name_eng":"AGO Museum","type":"歷史與人文","website":"","facebook":"","srcWebsite":"https://museums.moc.gov.tw/","source":"offline_l2","precision":"exact"}},{"type":"Feature","geometry":{"type":"Point","coordinates":[120.1113085,23.2383345]},"properties":{"id":"lcm_544d6743a6","address":"臺南市北門區三寮灣三光里127-3號","city":"臺南市","name":"三寮灣東隆宮東隆文化中心","name_eng":"Donglong Cultural Center","type":"歷史與人文","website":"http://www.donglonglv.com.tw/","facebook":"","srcWebsite":"https://museums.moc.gov.tw/","source":"google","precision":"approximate"}},{"type":"Feature","geometry":{"type":"Point","coordinates":[120.3017689,23.2870638]},"properties":{"id":"lcm_651cd5b5b2","address":"臺南市柳營區界和路158號","city":"臺南市","name":"吳晉淮音樂紀念館","name_eng":"Wu Jin-Huai Memorial Hall","type":"歷史與人文","website":"","facebook":"","srcWebsite":"https://museums.moc.gov.tw/","source":"offline_l2","precision":"exact"}},{"type":"Feature","geometry":{"type":"Point","coordinates":[120.4456257,22.7558007]},"properties":{"id":"lcm_4878810a39","address":"高雄市大樹區統嶺里統嶺路1號","city":"高雄市","name":"佛光山佛陀紀念館","name_eng":"Fo Guang Shan Buddha Museum","type":"綜合與其他","website":"http://www.fgsbmc.org.tw/index.aspx","facebook":"https://www.facebook.com/FgsBm","srcWebsite":"https://museums.moc.gov.tw/","source":"offline_l2","precision":"exact"}},{"type":"Feature","geometry":{"type":"Point","coordinates":[120.1624853,23.0003276]},"properties":{"id":"lcm_6cd0e4446c","address":"臺南市安平區觀音街64號","city":"臺南市","name":"安平鄉土文化館","name_eng":"Anping Local Culture Museum","type":"歷史與人文","website":"","facebook":"","srcWebsite":"https://museums.moc.gov.tw/","source":"offline_l2","precision":"exact"}},{"type":"Feature","geometry":{"type":"Point","coordinates":[120.2221189,22.923915]},"properties":{"id":"lcm_5e2f2efa84","address":"臺南市仁德區二仁路一段315巷50號","city":"臺南市","name":"臺南．家具產業博物館","name_eng":"Furniture Manufacturing Eco-Museum in Tainan","type":"藝術與工藝","website":"","facebook":"https://www.facebook.com/940514fmmit/","srcWebsite":"https://museums.moc.gov.tw/","source":"offline_l2","precision":"exact"}},{"type":"Feature","geometry":{"type":"Point","coordinates":[120.2033876,22.9906062]},"properties":{"id":"lcm_ade598f70c","address":"臺南市中西區友愛街8-3號","city":"臺南市","name":"葉石濤文學紀念館","name_eng":"Yeh-Shyr-Tau Literary Memorial Museum","type":"歷史與人文","website":"","facebook":"","srcWebsite":"https://museums.moc.gov.tw/","source":"google","precision":"exact"}},{"type":"Feature","geometry":{"type":"Point","coordinates":[120.3076265170574,23.037903610050883]},"properties":{"id":"lcm_0862184764","address":"臺南市新化區中正路488號","city":"臺南市","name":"楊逵文學紀念館","name_eng":"Yang Kui Memorial Literature  Museum","type":"歷史與人文","website":"","facebook":"","srcWebsite":"https://museums.moc.gov.tw/","source":"offline_l1","precision":"cached"}},{"type":"Feature","geometry":{"type":"Point","coordinates":[120.2701604,23.1863368]},"properties":{"id":"lcm_7eb9d27c5e","address":"臺南市麻豆區南勢里總爺5號","city":"臺南市","name":"總爺藝文中心","name_eng":"Tsung-Yeh Arts and Cultural Center","type":"藝術與工藝","website":"http://tyart.tnc.gov.tw","facebook":"http://www.facebook.com/pages/tai-nan-shi-zong-ye-yi-wen-zhong-xin/176620665707199?v=wall","srcWebsite":"https://museums.moc.gov.tw/","source":"offline_l2","precision":"exact"}},{"type":"Feature","geometry":{"type":"Point","coordinates":[120.1675725,23.3838962]},"properties":{"id":"lcm_36bd69328a","address":"嘉義縣布袋鎮龍江里新厝仔402號","city":"嘉義縣","name":"洲南鹽場","name_eng":"Zhou Nan Salt Field","type":"綜合與其他","website":"https://taiwansalt.com","facebook":"https://www.facebook.com/taiwansalt","srcWebsite":"https://museums.moc.gov.tw/","source":"offline_l2","precision":"exact"}},{"type":"Feature","geometry":{"type":"Point","coordinates":[120.42943764002682,23.56087627824404]},"properties":{"id":"lcm_5e2a266334","address":"嘉義縣民雄鄉寮頂村民權路74號","city":"嘉義縣","name":"國家廣播文物館","name_eng":"National Radio Museum","type":"歷史與人文","website":"","facebook":"https://www.facebook.com/museumms/","srcWebsite":"https://museums.moc.gov.tw/","source":"offline_l15","precision":"interpolated"}},{"type":"Feature","geometry":{"type":"Point","coordinates":[120.5264703,23.4222641]},"properties":{"id":"lcm_5e2ad19500","address":"嘉義縣中埔鄉中埔村128—8號","city":"嘉義縣","name":"中埔鄉嘉檳文化館","name_eng":"Jhongpu Cultural Exhibition Hall","type":"綜合與其他","website":"","facebook":"","srcWebsite":"https://museums.moc.gov.tw/","source":"google","precision":"approximate"}},{"type":"Feature","geometry":{"type":"Point","coordinates":[120.343699,23.5598934]},"properties":{"id":"lcm_1f0aa4c70e","address":"嘉義縣新港鄉新中路305號","city":"嘉義縣","name":"新港文教基金會","name_eng":"Hsin Kang Foundation of Culture and Education","type":"綜合與其他","website":"http://www.hkfce.org.tw/","facebook":"https://zh-tw.facebook.com/hkfce1987/","srcWebsite":"https://museums.moc.gov.tw/","source":"google","precision":"exact"}},{"type":"Feature","geometry":{"type":"Point","coordinates":[120.3928921,23.6033225]},"properties":{"id":"lcm_168aa362da","address":"嘉義縣溪口鄉中山路55號","city":"嘉義縣","name":"溪口鄉文化生活館","name_eng":"Xikou Township Culture and Life Museum","type":"綜合與其他","website":"","facebook":"","srcWebsite":"https://museums.moc.gov.tw/","source":"offline_l2","precision":"exact"}},{"type":"Feature","geometry":{"type":"Point","coordinates":[120.4320383,23.5441704]},"properties":{"id":"lcm_3451d9ebfa","address":"嘉義縣民雄鄉建國路二段265號","city":"嘉義縣","name":"嘉義縣表演藝術中心","name_eng":"Chiayi Performing Arts Center","type":"藝術與工藝","website":"https://cypac.cyhg.gov.tw/","facebook":"https://www.facebook.com/pac.cyhg.gov.tw/","srcWebsite":"https://museums.moc.gov.tw/","source":"google","precision":"exact"}},{"type":"Feature","geometry":{"type":"Point","coordinates":[120.3521983,23.5360597]},"properties":{"id":"lcm_b94a9a87ac","address":"嘉義縣新港鄉菜公村23-6號","city":"嘉義縣","name":"新港香藝文化館","name_eng":"Singang Incense Artistic Culture House","type":"藝術與工藝","website":"http://www.incense-art.com.tw","facebook":"https://www.facebook.com/incenseart","srcWebsite":"https://museums.moc.gov.tw/","source":"google","precision":"approximate"}},{"type":"Feature","geometry":{"type":"Point","coordinates":[120.30785708974138,23.411178205404386]},"properties":{"id":"lcm_0d7f934866","address":"嘉義縣鹿草鄉西井村長壽路228號","city":"嘉義縣","name":"鹿仔草民俗文化學堂","name_eng":"Luzaicao Folkfore Cultural School","type":"綜合與其他","website":"","facebook":"https://www.facebook.com/chiayilucao/","srcWebsite":"https://museums.moc.gov.tw/","source":"offline_l15","precision":"interpolated"}},{"type":"Feature","geometry":{"type":"Point","coordinates":[120.2484844,23.4680666]},"properties":{"id":"lcm_d5af678c7c","address":"嘉義縣朴子市文明路10號","city":"嘉義縣","name":"朴子刺繡文化館","name_eng":"Puzi Embroidery Culture Center","type":"藝術與工藝","website":"","facebook":"","srcWebsite":"https://museums.moc.gov.tw/","source":"offline_l2","precision":"exact"}},{"type":"Feature","geometry":{"type":"Point","coordinates":[120.2477191,23.4673914]},"properties":{"id":"lcm_2fb0447601","address":"嘉義縣朴子市山通路2之9號","city":"嘉義縣","name":"梅嶺美術館","name_eng":"Meiling Fine Arts Museum","type":"藝術與工藝","website":"https://cypac.cyhg.gov.tw/meiling/","facebook":"https://www.facebook.com/meilingarts/","srcWebsite":"https://museums.moc.gov.tw/","source":"google","precision":"exact"}},{"type":"Feature","geometry":{"type":"Point","coordinates":[120.4299184,23.463366]},"properties":{"id":"lcm_5dea457ebd","address":"嘉義市西區世賢路1段685號","city":"嘉義市","name":"許世賢博士紀念館","name_eng":"Dr. Kuo Sie-Hien Memorial Museum.","type":"歷史與人文","website":"http://www.cabcy.gov.tw/web/ArtZone/HsuShihHsienMemorial","facebook":"https://www.facebook.com/chiayicity.cultureman/","srcWebsite":"https://museums.moc.gov.tw/","source":"google","precision":"approximate"}},{"type":"Feature","geometry":{"type":"Point","coordinates":[120.4675195,23.4810923]},"properties":{"id":"lcm_ca74e36f98","address":"嘉義市東區公園街42號","city":"嘉義市","name":"昭和十八J18-原嘉義市史蹟資料館","name_eng":"Chiayi Shrine Attached House","type":"歷史與人文","website":"https://j18.chiayi.gov.tw/","facebook":"https://www.facebook.com/ChiaYiJ18/","srcWebsite":"https://museums.moc.gov.tw/","source":"google","precision":"exact"}},{"type":"Feature","geometry":{"type":"Point","coordinates":[120.4769216,23.4766703]},"properties":{"id":"lcm_0f811ec352","address":"嘉義市東區大雅路2段285巷30號","city":"嘉義市","name":"祥太文化館","name_eng":"hosanna museum","type":"歷史與人文","website":"http://hosannachiai.blogspot.com/","facebook":"","srcWebsite":"https://museums.moc.gov.tw/","source":"google","precision":"exact"}},{"type":"Feature","geometry":{"type":"Point","coordinates":[120.5495883,23.7039219]},"properties":{"id":"lcm_8673d74c2b","address":"雲林縣斗六市莊敬路66號","city":"雲林縣","name":"雲林縣斗六市立繪本圖書館","name_eng":"Douliu Picturebooks library","type":"歷史與人文","website":"","facebook":"","srcWebsite":"https://museums.moc.gov.tw/","source":"offline_l2","precision":"exact"}},{"type":"Feature","geometry":{"type":"Point","coordinates":[120.3013016,23.5785048]},"properties":{"id":"lcm_6044936310","address":"雲林縣北港鎮公園路66號","city":"雲林縣","name":"雲林縣北港文化中心","name_eng":"Beigang Cultural Center","type":"藝術與工藝","website":"","facebook":"","srcWebsite":"https://museums.moc.gov.tw/","source":"offline_l2","precision":"exact"}},{"type":"Feature","geometry":{"type":"Point","coordinates":[121.1460757,22.7565848]},"properties":{"id":"lcm_68f5ebd508","address":"臺東縣臺東市南京路25號","city":"臺東縣","name":"臺東縣藝文中心","name_eng":"Taitung Art and Culture Center","type":"綜合與其他","website":"","facebook":"","srcWebsite":"https://museums.moc.gov.tw/","source":"offline_l2","precision":"exact"}},{"type":"Feature","geometry":{"type":"Point","coordinates":[120.3924292,23.6778762]},"properties":{"id":"lcm_ec242a7b55","address":"雲林縣土庫鎮中山路252號","city":"雲林縣","name":"土庫庄役場","name_eng":"TUKU","type":"綜合與其他","website":"","facebook":"","srcWebsite":"https://museums.moc.gov.tw/","source":"offline_l2","precision":"exact"}},{"type":"Feature","geometry":{"type":"Point","coordinates":[120.2615492,23.6203578]},"properties":{"id":"lcm_015b4f7bec","address":"雲林縣水林鄉蘇秦路1號","city":"雲林縣","name":"黃金蝙蝠生態館","name_eng":"Formosan Golden Bat's Home","type":"自然與科學","website":"http://www.goldenbat.org.tw/","facebook":"","srcWebsite":"https://museums.moc.gov.tw/","source":"google","precision":"approximate"}},{"type":"Feature","geometry":{"type":"Point","coordinates":[120.4625311,23.8018949]},"properties":{"id":"lcm_6198fdd8d0","address":"雲林縣西螺鎮延平路92號","city":"雲林縣","name":"西螺延平老街文化館","name_eng":"Xiluo Cultural Museum","type":"綜合與其他","website":"http://louyoung.org.tw/culturalcenter.php?id=6","facebook":"https://www.facebook.com/louyoung.ngo/","srcWebsite":"https://museums.moc.gov.tw/","source":"offline_l2","precision":"exact"}},{"type":"Feature","geometry":{"type":"Point","coordinates":[120.38977457190947,23.682238494119826]},"properties":{"id":"lcm_4938e8cd42","address":"雲林縣土庫鎮中興路175號","city":"雲林縣","name":"土庫鎮多功能文化展演館","name_eng":"TUKU","type":"綜合與其他","website":"","facebook":"","srcWebsite":"https://museums.moc.gov.tw/","source":"offline_l1","precision":"cached"}},{"type":"Feature","geometry":{"type":"Point","coordinates":[120.4328334,23.7090791]},"properties":{"id":"lcm_ea52f390fe","address":"雲林縣虎尾鎮林森路一段528號","city":"雲林縣","name":"雲林故事館","name_eng":"Yunlin Storyhouse","type":"綜合與其他","website":"http://www.ylstoryhouse.org.tw/","facebook":"http://www.facebook.com/ylstoryhouse/?ref=bookmarks","srcWebsite":"https://museums.moc.gov.tw/","source":"offline_l2","precision":"exact"}},{"type":"Feature","geometry":{"type":"Point","coordinates":[120.3918595,23.7032499]},"properties":{"id":"lcm_22ccfcbc17","address":"雲林縣虎尾鎮林森路1段498號","city":"雲林縣","name":"雲林布袋戲館","name_eng":"Yunlin Glove Puppetry Museum","type":"藝術與工藝","website":"","facebook":"https://www.facebook.com/palm.puppet","srcWebsite":"https://museums.moc.gov.tw/","source":"offline_l2","precision":"exact"}},{"type":"Feature","geometry":{"type":"Point","coordinates":[120.3548393,23.7639121]},"properties":{"id":"lcm_7e2051eac3","address":"雲林縣崙背鄉民生路28-8號","city":"雲林縣","name":"雲林縣詔安客家文化館","name_eng":"Zhao an Hakka Culture Hall, Lunbei Township, Yunlin County","type":"歷史與人文","website":"http://www.zhaoanka.org.tw/index.aspx","facebook":"https://www.facebook.com/profile.php?id=100064895912386","srcWebsite":"https://museums.moc.gov.tw/","source":"offline_l2","precision":"exact"}},{"type":"Feature","geometry":{"type":"Point","coordinates":[120.4813264,23.6737548]},"properties":{"id":"lcm_cb78a99ec6","address":"雲林縣斗南鎮南昌路27號","city":"雲林縣","name":"他里霧文化園區","name_eng":"Taliwu Cultural Park","type":"綜合與其他","website":"https://www.dalivoe.com/?fbclid=IwAR0UBRhyF9wMTtsUGg3QI5JWa18ZI6-D954f0zgLPISkGHTxTXxJV-24bLs","facebook":"https://www.facebook.com/Dalieov/","srcWebsite":"https://museums.moc.gov.tw/","source":"offline_l2","precision":"exact"}},{"type":"Feature","geometry":{"type":"Point","coordinates":[120.4780001,23.9722229]},"properties":{"id":"lcm_b72dbd3895","address":"彰化縣溪湖鎮彰水路4段439巷151號","city":"彰化縣","name":"巫家捏麵館","name_eng":"Wu Family Dough Figurine Hall","type":"藝術與工藝","website":"","facebook":"facebook.com/wufigure","srcWebsite":"https://museums.moc.gov.tw/","source":"offline_l2","precision":"exact"}},{"type":"Feature","geometry":{"type":"Point","coordinates":[120.3258419,23.9699132]},"properties":{"id":"lcm_8aa10ba655","address":"彰化縣芳苑鄉王功村漁港路900號","city":"彰化縣","name":"王功蚵藝文化館","name_eng":"Wang  Gong oyster cultural centers","type":"綜合與其他","website":"http://www.ork.org.tw/","facebook":"https://www.facebook.com/orkorg/","srcWebsite":"https://museums.moc.gov.tw/","source":"google","precision":"exact"}},{"type":"Feature","geometry":{"type":"Point","coordinates":[120.4386726,24.0462626]},"properties":{"id":"lcm_d2c61f3d06","address":"彰化縣鹿港鎮龍舟路22號","city":"彰化縣","name":"鹿港鎮地方文化館(鹿港鎮圖書藝文中心)","name_eng":"Lukang Library&Art Center","type":"藝術與工藝","website":"","facebook":"","srcWebsite":"https://museums.moc.gov.tw/","source":"offline_l2","precision":"exact"}},{"type":"Feature","geometry":{"type":"Point","coordinates":[120.54413704673611,23.953136735084897]},"properties":{"id":"lcm_f91bbf3524","address":"彰化縣埔心鄉員鹿路二段332號","city":"彰化縣","name":"埔心鄉地方文化館(埔心鄉演藝廳)","name_eng":"Puxin Country Local Cultural Hall","type":"綜合與其他","website":"","facebook":"","srcWebsite":"https://museums.moc.gov.tw/","source":"offline_l15","precision":"interpolated"}},{"type":"Feature","geometry":{"type":"Point","coordinates":[120.6904564,24.1572494]},"properties":{"id":"lcm_61b973ac81","address":"臺中市北區雙十路125號","city":"臺中市","name":"不老夢想125號/宮原武熊宅邸","name_eng":"Bulao 125 / Memorial Building - The Residence of Miyahara Takeo","type":"綜合與其他","website":"https://www.bulao125.com/","facebook":"https://www.facebook.com/bulao125/?ref=bookmarks","srcWebsite":"https://museums.moc.gov.tw/","source":"google","precision":"exact"}},{"type":"Feature","geometry":{"type":"Point","coordinates":[120.6004666,24.110793]},"properties":{"id":"lcm_ec921a08eb","address":"臺中市烏日區中山路路一段497號","city":"臺中市","name":"明道中學現代文學館","name_eng":"Museum of Contemporary Literature, Mingdao","type":"歷史與人文","website":"","facebook":"","srcWebsite":"https://museums.moc.gov.tw/","source":"google","precision":"approximate"}},{"type":"Feature","geometry":{"type":"Point","coordinates":[120.745824,24.2550971]},"properties":{"id":"lcm_02a14459cd","address":"臺中市豐原區水源路1-1號","city":"臺中市","name":"豐原漆藝館","name_eng":"Fengyuan Lacquer Art Museum","type":"藝術與工藝","website":"https://www.fengyuan.taichung.gov.tw/982171/1514378/2515611/","facebook":"https://zh-tw.facebook.com/pages/category/Contemporary-Art-Museum/%E8%B1%90%E5%8E%9F%E6%BC%86%E8%97%9D%E9%A4%A8-444376028984889/","srcWebsite":"https://museums.moc.gov.tw/","source":"google","precision":"exact"}},{"type":"Feature","geometry":{"type":"Point","coordinates":[120.5603643,24.0854623]},"properties":{"id":"lcm_5d3b62b840","address":"彰化縣彰化市中山路3段266-1號","city":"彰化縣","name":"彰化縣原住民生活館","name_eng":"Changhua Indigenous Peoples Activity Center","type":"綜合與其他","website":"","facebook":"https://www.facebook.com/%E5%BD%B0%E5%8C%96%E7%B8%A3%E5%8E%9F%E4%BD%8F%E6%B0%91%E7%94%9F%E6%B4%BB%E9%A4%A8-224070147725047","srcWebsite":"https://museums.moc.gov.tw/","source":"offline_l2","precision":"exact"}},{"type":"Feature","geometry":{"type":"Point","coordinates":[121.754128,24.6228431]},"properties":{"id":"lcm_61cc244bea","address":"宜蘭縣冬山鄉新寮路461巷28號","city":"宜蘭縣","name":"古意生活藝術館","name_eng":"Gu Yi Living Art Gallery","type":"生活與休閒","website":"","facebook":"https://www.facebook.com/Guyi.living.gallery/","srcWebsite":"https://museums.moc.gov.tw/","source":"google","precision":"exact"}},{"type":"Feature","geometry":{"type":"Point","coordinates":[121.75695138,24.75515832]},"properties":{"id":"lcm_4447e712c4","address":"宜蘭縣宜蘭市光復路13號","city":"宜蘭縣","name":"百果樹紅磚屋","name_eng":"The Wonderfultree","type":"綜合與其他","website":"","facebook":"http://www.facebook.com/bigfish950529","srcWebsite":"https://museums.moc.gov.tw/","source":"offline_l15","precision":"interpolated"}},{"type":"Feature","geometry":{"type":"Point","coordinates":[120.7056631,22.2020102]},"properties":{"id":"lcm_8c3453b792","address":"屏東縣獅子鄉楓林村楓林2巷28號","city":"屏東縣","name":"屏東縣獅子鄉文物陳列館","name_eng":"shizi township heritage museum","type":"歷史與人文","website":"","facebook":"","srcWebsite":"https://museums.moc.gov.tw/","source":"google","precision":"exact"}},{"type":"Feature","geometry":{"type":"Point","coordinates":[120.6910841,24.1499165]},"properties":{"id":"lcm_9b6d8e296c","address":"臺中市北區電台街1號","city":"臺中市","name":"歷史建築臺中放送局","name_eng":"Taichung Broadcasting Bureau","type":"歷史與人文","website":"","facebook":"https://www.facebook.com/fangsungstudio/","srcWebsite":"https://museums.moc.gov.tw/","source":"offline_l2","precision":"exact"}},{"type":"Feature","geometry":{"type":"Point","coordinates":[120.8377045,22.024331]},"properties":{"id":"lcm_98bb309a9a","address":"屏東縣滿州鄉中山路152號","city":"屏東縣","name":"滿州民謠館","name_eng":"Manjhou folksongs musuem","type":"藝術與工藝","website":"","facebook":"https://www.facebook.com/manjhoufolksongs/","srcWebsite":"https://museums.moc.gov.tw/","source":"offline_l2","precision":"exact"}},{"type":"Feature","geometry":{"type":"Point","coordinates":[120.5406086,22.5530574]},"properties":{"id":"lcm_c062fb6b96","address":"屏東縣潮州鎮延平路30號","city":"屏東縣","name":"潮州日式歷史建築文化園區","name_eng":"Chaozhou Cultural Park","type":"歷史與人文","website":"","facebook":"https://www.facebook.com/czone30","srcWebsite":"https://museums.moc.gov.tw/","source":"offline_l2","precision":"exact"}},{"type":"Feature","geometry":{"type":"Point","coordinates":[121.3110376,24.9951499]},"properties":{"id":"lcm_ec80730b15","address":"桃園市桃園區中正路198號","city":"桃園市","name":"桃園大廟口派出所","name_eng":"Taoyuan Damiaokou Story House","type":"歷史與人文","website":"","facebook":"","srcWebsite":"https://museums.moc.gov.tw/","source":"offline_l2","precision":"exact"}},{"type":"Feature","geometry":{"type":"Point","coordinates":[120.6291761,24.3444464]},"properties":{"id":"lcm_86c5297095","address":"臺中市大甲區水源路大道190號","city":"臺中市","name":"臺中市大甲區中正紀念館","name_eng":"ZHONG ZHENG MEMORIAL HALL","type":"藝術與工藝","website":"","facebook":"https://www.facebook.com/pg/Dajiatravel/posts","srcWebsite":"https://museums.moc.gov.tw/","source":"google","precision":"approximate"}},{"type":"Feature","geometry":{"type":"Point","coordinates":[121.2855128,24.9020446]},"properties":{"id":"lcm_5d80f54033","address":"桃園市大溪區慈光一大道150巷2號","city":"桃園市","name":"太武新村眷村文化園區","name_eng":"Taiwu New Village Cultural Park","type":"歷史與人文","website":"","facebook":"","srcWebsite":"https://museums.moc.gov.tw/","source":"google","precision":"exact"}},{"type":"Feature","geometry":{"type":"Point","coordinates":[121.3272442,25.0017128]},"properties":{"id":"lcm_b350106bef","address":"桃園市桃園區公園路42號","city":"桃園市","name":"桃園市孔廟","name_eng":"Confucius Temple, Taoyuan","type":"歷史與人文","website":"http://www.tycg.gov.tw/confucius/","facebook":"https://www.facebook.com/tycg.confuciustemple1/","srcWebsite":"https://museums.moc.gov.tw/","source":"offline_l2","precision":"exact"}},{"type":"Feature","geometry":{"type":"Point","coordinates":[121.2975076,25.050354]},"properties":{"id":"lcm_c3c4da8bce","address":"桃園市蘆竹區吉林路34號","city":"桃園市","name":"南崁兒童藝術村","name_eng":"Nankan Children's Art Village","type":"生活與休閒","website":"https://childrenartvillage.com/","facebook":"https://www.facebook.com/nankanartvillage","srcWebsite":"https://museums.moc.gov.tw/","source":"offline_l2","precision":"exact"}},{"type":"Feature","geometry":{"type":"Point","coordinates":[120.2745895,22.6221487]},"properties":{"id":"lcm_f299c0f2cc","address":"高雄市鼓山區臨海三路7號","city":"高雄市","name":"舊三和銀行","name_eng":"Former Sanhe Bank","type":"綜合與其他","website":"","facebook":"","srcWebsite":"https://museums.moc.gov.tw/","source":"offline_l2","precision":"exact"}},{"type":"Feature","geometry":{"type":"Point","coordinates":[120.2744748,22.622167]},"properties":{"id":"lcm_73597c8c93","address":"高雄市鼓山區臨海三路5號","city":"高雄市","name":"哈瑪星貿易商大樓","name_eng":"Hamasen Trader Building","type":"歷史與人文","website":"","facebook":"","srcWebsite":"https://museums.moc.gov.tw/","source":"offline_l2","precision":"exact"}},{"type":"Feature","geometry":{"type":"Point","coordinates":[120.5446957,23.7048096]},"properties":{"id":"lcm_c9c3fb3427","address":"雲林縣斗六市中正路191號","city":"雲林縣","name":"雲林二手玩具屋","name_eng":"Yunlin Re-toys House","type":"綜合與其他","website":"","facebook":"https://www.facebook.com/Retoyshouse2","srcWebsite":"https://museums.moc.gov.tw/","source":"offline_l2","precision":"exact"}},{"type":"Feature","geometry":{"type":"Point","coordinates":[120.4328149,23.7085931]},"properties":{"id":"lcm_5fff8fd735","address":"雲林縣虎尾鎮林森路1段501號","city":"雲林縣","name":"雲林記憶Cool(虎尾登記所)","name_eng":"Yunlin Memory Cool","type":"歷史與人文","website":"","facebook":"https://www.facebook.com/Yunlin.memorycool/?epa=SEARCH_BOX","srcWebsite":"https://museums.moc.gov.tw/","source":"offline_l2","precision":"exact"}},{"type":"Feature","geometry":{"type":"Point","coordinates":[120.6872653,24.174217149999997]},"properties":{"id":"lcm_e4a31d8f03","address":"臺中市北屯區旅順路二段73號","city":"臺中市","name":"臺灣民俗文物館","name_eng":"TFM","type":"歷史與人文","website":"","facebook":"https://www.facebook.com/ttfm1990","srcWebsite":"https://museums.moc.gov.tw/","source":"offline_l15","precision":"interpolated"}},{"type":"Feature","geometry":{"type":"Point","coordinates":[121.09515281264655,24.737540133289517]},"properties":{"id":"lcm_ade8da3849","address":"新竹縣竹東鎮東林路194巷8號","city":"新竹縣","name":"范特喜微創文化","name_eng":"Zhudong creative park","type":"綜合與其他","website":"","facebook":"","srcWebsite":"https://museums.moc.gov.tw/","source":"offline_l1","precision":"cached"}},{"type":"Feature","geometry":{"type":"Point","coordinates":[121.1832591,24.7042881]},"properties":{"id":"lcm_0b612c3780","address":"新竹縣橫山鄉內灣村3鄰110號","city":"新竹縣","name":"劉興欽漫畫教育博物館","name_eng":"Dr. Liu Xing Ching Education Comic Museum","type":"歷史與人文","website":"","facebook":"","srcWebsite":"https://museums.moc.gov.tw/","source":"offline_l2","precision":"exact"}},{"type":"Feature","geometry":{"type":"Point","coordinates":[120.5583462,24.2704683]},"properties":{"id":"lcm_bcfb9d7a16","address":"436038臺中市清水區忠貞路21號","city":"臺中市","name":"臺中市美術家資料館","name_eng":"The Artist Archive of Taichung City","type":"藝術與工藝","website":"https://www.art.tcsac.gov.tw","facebook":"","srcWebsite":"https://museums.moc.gov.tw/","source":"offline_l2","precision":"exact"}},{"type":"Feature","geometry":{"type":"Point","coordinates":[120.7243758,24.1340501]},"properties":{"id":"lcm_82b2ea27ee","address":"臺中市太平區東平路464號","city":"臺中市","name":"太平買菸場","name_eng":"The Taiping Tobacco Market","type":"綜合與其他","website":"","facebook":"https://www.facebook.com/%E6%AD%B7%E5%8F%B2%E5%BB%BA%E7%AF%89-%E5%A4%AA%E5%B9%B3%E8%B2%B7%E8%8F%B8%E5%A0%B4-594149894315286/","srcWebsite":"https://museums.moc.gov.tw/","source":"offline_l2","precision":"exact"}},{"type":"Feature","geometry":{"type":"Point","coordinates":[120.6918853,24.137664]},"properties":{"id":"lcm_e5654b21fa","address":"臺中市東區樂業路30號","city":"臺中市","name":"歷史建築帝國製糖廠臺中營業所","name_eng":"Taichyu Factory of Teikoku Seitou K.K","type":"綜合與其他","website":"","facebook":"","srcWebsite":"https://museums.moc.gov.tw/","source":"offline_l2","precision":"exact"}},{"type":"Feature","geometry":{"type":"Point","coordinates":[120.6918526,24.421076]},"properties":{"id":"lcm_b726fc4e3a","address":"苗栗縣苑裡鎮山腳里錦山71-17號","city":"苗栗縣","name":"灣麗磚瓦文物館","name_eng":"Wan Li Brick Museum","type":"藝術與工藝","website":"http://www.jls-brick.com.tw","facebook":"https://www.facebook.com/jlsbrick/?ref=bookmarks","srcWebsite":"https://museums.moc.gov.tw/","source":"offline_l2","precision":"exact"}},{"type":"Feature","geometry":{"type":"Point","coordinates":[120.9459746,24.468262]},"properties":{"id":"lcm_640c686720","address":"苗栗縣泰安鄉錦水村6鄰圓墩46之3號","city":"苗栗縣","name":"苗栗縣泰雅文物館","name_eng":"TAYALMUSEUM","type":"藝術與工藝","website":"","facebook":"","srcWebsite":"https://museums.moc.gov.tw/","source":"offline_l2","precision":"exact"}},{"type":"Feature","geometry":{"type":"Point","coordinates":[121.0337895,24.5834118]},"properties":{"id":"lcm_1741c81dd1","address":"苗栗縣南庄鄉東河村16鄰向天湖25號","city":"苗栗縣","name":"苗栗縣賽夏族民俗文物館","name_eng":"saySiyat Museum , Miao-li County","type":"綜合與其他","website":"","facebook":"https://www.facebook.com/rareme037825024/","srcWebsite":"https://museums.moc.gov.tw/","source":"offline_l2","precision":"exact"}},{"type":"Feature","geometry":{"type":"Point","coordinates":[120.8278116,24.4898781]},"properties":{"id":"lcm_10f3cb32b7","address":"苗栗縣公館鄉館南村14鄰館南352號","city":"苗栗縣","name":"苗栗陶瓷博物館","name_eng":"Miaoli Ceramics Museum","type":"藝術與工藝","website":"https://www.mlc.gov.tw/","facebook":"https://www.facebook.com/MiaoliCeramicsMuseum/","srcWebsite":"https://museums.moc.gov.tw/","source":"offline_l2","precision":"exact"}},{"type":"Feature","geometry":{"type":"Point","coordinates":[120.7780948,24.5235061]},"properties":{"id":"lcm_10fbe5aaa3","address":"苗栗縣西湖鄉五湖村14鄰194之4號","city":"苗栗縣","name":"吳濁流藝文館","name_eng":"WU ZHUO LIU Museum of Art and Literature","type":"歷史與人文","website":"","facebook":"","srcWebsite":"https://museums.moc.gov.tw/","source":"google","precision":"approximate"}},{"type":"Feature","geometry":{"type":"Point","coordinates":[120.7177509,24.3741206]},"properties":{"id":"lcm_933c219a1c","address":"358苗栗縣苑裡鎮南勢里2鄰31號","city":"苗栗縣","name":"台灣人文窯場展演館(華陶窯)","name_eng":"Hwataoyao","type":"藝術與工藝","website":"","facebook":"","srcWebsite":"https://museums.moc.gov.tw/","source":"google","precision":"approximate"}},{"type":"Feature","geometry":{"type":"Point","coordinates":[121.20125117019815,24.70509532060717]},"properties":{"id":"lcm_2e1fb7560b","address":"新竹縣尖石鄉嘉樂村二鄰36號","city":"新竹縣","name":"尖石鄉原住民文化館","name_eng":"Jianshi Township Cultural Center","type":"綜合與其他","website":"","facebook":"https://zh-tw.facebook.com/tayal.jianshih/","srcWebsite":"https://museums.moc.gov.tw/","source":"offline_l1","precision":"cached"}},{"type":"Feature","geometry":{"type":"Point","coordinates":[121.1194623,24.6298238]},"properties":{"id":"lcm_789be801ca","address":"311新竹縣五峰鄉331-2號","city":"新竹縣","name":"賽夏族矮人祭場文物館","name_eng":"paSta'ay Artifacts Exhibition Hall of Saisiat tribe","type":"歷史與人文","website":"","facebook":"","srcWebsite":"https://museums.moc.gov.tw/","source":"google","precision":"approximate"}},{"type":"Feature","geometry":{"type":"Point","coordinates":[121.102272,24.5753]},"properties":{"id":"lcm_4ce22aa708","address":"新竹縣五峰鄉桃山村清泉256-6號","city":"新竹縣","name":"張學良故居","name_eng":"Zhang Xueliang Cultural Park","type":"歷史與人文","website":"","facebook":"https://www.facebook.com/zxlcp/","srcWebsite":"https://museums.moc.gov.tw/","source":"google","precision":"approximate"}},{"type":"Feature","geometry":{"type":"Point","coordinates":[121.0945947,24.7355398]},"properties":{"id":"lcm_e834234c9e","address":"新竹縣竹東鎮新生路377號","city":"新竹縣","name":"樹杞林文化館","name_eng":"Shuqilin Culture Hall.","type":"綜合與其他","website":"","facebook":"","srcWebsite":"https://museums.moc.gov.tw/","source":"offline_l2","precision":"exact"}},{"type":"Feature","geometry":{"type":"Point","coordinates":[121.0548516880641,24.877096627225896]},"properties":{"id":"lcm_fa9673ee27","address":"新竹縣湖口鄉湖口老街108號","city":"新竹縣","name":"老湖口天主堂文化館","name_eng":"oldhukou Catholic Church Cultural Center","type":"歷史與人文","website":"","facebook":"https://zh-tw.facebook.com/Dawoko.Love/","srcWebsite":"https://museums.moc.gov.tw/","source":"offline_l15","precision":"interpolated"}},{"type":"Feature","geometry":{"type":"Point","coordinates":[120.9678358,24.8065138]},"properties":{"id":"lcm_52f117fdd3","address":"新竹市北區中山路4號","city":"新竹市","name":"新竹市消防博物館","name_eng":"Hsinchu City Fire Museum","type":"綜合與其他","website":"","facebook":"https://www.facebook.com/%E6%96%B0%E7%AB%B9%E5%B8%82%E6%B6%88%E9%98%B2%E5%8D%9A%E7%89%A9%E9%A4%A8-129180957147995/","srcWebsite":"https://museums.moc.gov.tw/","source":"offline_l2","precision":"exact"}},{"type":"Feature","geometry":{"type":"Point","coordinates":[121.2137596,24.8641888]},"properties":{"id":"lcm_1ea9b9c67c","address":"桃園市龍潭區南龍路11號","city":"桃園市","name":"鍾肇政文學生活園區","name_eng":"Chung Chao-cheng Literary Park","type":"歷史與人文","website":"","facebook":"","srcWebsite":"https://museums.moc.gov.tw/","source":"offline_l2","precision":"exact"}},{"type":"Feature","geometry":{"type":"Point","coordinates":[121.3421889,24.992305]},"properties":{"id":"lcm_9391846cd5","address":"桃園市龜山區大同路138巷","city":"桃園市","name":"憲光二村","name_eng":"Xian Guang Military Kindred Village","type":"歷史與人文","website":"https://xianguang.tyccc.gov.tw/","facebook":"https://www.facebook.com/Sianguang2nd/","srcWebsite":"https://museums.moc.gov.tw/","source":"google","precision":"approximate"}},{"type":"Feature","geometry":{"type":"Point","coordinates":[121.1076349,24.9722852]},"properties":{"id":"lcm_7f15d30c73","address":"桃園市新屋區中華路242號","city":"桃園市","name":"新屋區農會稻米故事館","name_eng":"XINWU RICE STORY HOUSE","type":"歷史與人文","website":"","facebook":"https://www.facebook.com/XinwuRiceStoryHouse/","srcWebsite":"https://museums.moc.gov.tw/","source":"offline_l2","precision":"exact"}},{"type":"Feature","geometry":{"type":"Point","coordinates":[121.3404607,24.9983727]},"properties":{"id":"lcm_9c6f304e16","address":"桃園市龜山區光峰路43號","city":"桃園市","name":"龜山眷村故事館","name_eng":"Gueishan Village Story House","type":"歷史與人文","website":"","facebook":"https://zh-tw.facebook.com/gueishanfamily/","srcWebsite":"https://museums.moc.gov.tw/","source":"offline_l2","precision":"exact"}},{"type":"Feature","geometry":{"type":"Point","coordinates":[121.3073764,24.9992897]},"properties":{"id":"lcm_4974c8733f","address":"桃園市桃園區埔新路12號","city":"桃園市","name":"桃園光影文化館","name_eng":"Taoyuan Arts Cinema II","type":"綜合與其他","website":"","facebook":"https://www.facebook.com/taoyuanartscinema2/","srcWebsite":"https://museums.moc.gov.tw/","source":"offline_l2","precision":"exact"}},{"type":"Feature","geometry":{"type":"Point","coordinates":[121.2822431,24.895982]},"properties":{"id":"lcm_0cd88e4b58","address":"桃園市大溪區員林路1段29巷101號","city":"桃園市","name":"桃園市原住民族文化會館","name_eng":"Taoyuan City Indigenous Culture Center","type":"綜合與其他","website":"","facebook":"https://www.facebook.com/tcicc","srcWebsite":"https://museums.moc.gov.tw/","source":"offline_l2","precision":"exact"}},{"type":"Feature","geometry":{"type":"Point","coordinates":[121.2373506,24.9363917]},"properties":{"id":"lcm_5ca6fc0dc7","address":"龍吉二街155號","city":"","name":"馬祖新村眷村文化園區","name_eng":"Matsu new village cultural and creative park","type":"綜合與其他","website":"","facebook":"","srcWebsite":"https://museums.moc.gov.tw/","source":"google","precision":"exact"}},{"type":"Feature","geometry":{"type":"Point","coordinates":[121.2244638,24.9553661]},"properties":{"id":"lcm_158c168eac","address":"桃園市中壢區復興路99號","city":"桃園市","name":"中平路故事館","name_eng":"Zhongping Road Story house","type":"歷史與人文","website":"https://www.zhongpingstory.com/","facebook":"https://www.facebook.com/ZhongpingRoadStoryHouse/","srcWebsite":"https://museums.moc.gov.tw/","source":"offline_l2","precision":"exact"}},{"type":"Feature","geometry":{"type":"Point","coordinates":[121.4665618,25.086074]},"properties":{"id":"lcm_54626393bb","address":"新北市蘆洲區中正路243巷19號","city":"新北市","name":"蘆洲李宅古蹟  李友邦將軍紀念館","name_eng":"Luchou Lee Family Residence","type":"歷史與人文","website":"http://www.luchoulee.org.tw/","facebook":"https://www.facebook.com/LuLeeHouse?sk=wall","srcWebsite":"https://museums.moc.gov.tw/","source":"offline_l2","precision":"exact"}},{"type":"Feature","geometry":{"type":"Point","coordinates":[121.4447229,25.0471809]},"properties":{"id":"lcm_af2819972d","address":"新北市新莊區中平路133號","city":"新北市","name":"新莊文化藝術中心","name_eng":"Xinzhuang Culture Arts Center","type":"藝術與工藝","website":"https://www.xzcac.ntpc.gov.tw/","facebook":"https://www.facebook.com/xzcac.ntpc.gov.tw?locale=zh_TW","srcWebsite":"https://museums.moc.gov.tw/","source":"offline_l2","precision":"exact"}},{"type":"Feature","geometry":{"type":"Point","coordinates":[120.2382911,23.4517488]},"properties":{"id":"lcm_8a5674276b","address":"新寮里頂寮子5號","city":"","name":"新平溪煤礦博物園區","name_eng":"XPX Coal Mine Museum","type":"歷史與人文","website":"","facebook":"","srcWebsite":"https://museums.moc.gov.tw/","source":"google","precision":"approximate"}},{"type":"Feature","geometry":{"type":"Point","coordinates":[121.7133946,24.9353081]},"properties":{"id":"lcm_5171b637d5","address":"新北市坪林區水聳淒坑19-1號","city":"新北市","name":"新北市坪林茶業博物館","name_eng":"Pinglin Tea Museum, New Taipei City","type":"歷史與人文","website":"https://www.tea.ntpc.gov.tw/","facebook":"https://www.facebook.com/pinglin.tea.m","srcWebsite":"https://museums.moc.gov.tw/","source":"offline_l2","precision":"exact"}},{"type":"Feature","geometry":{"type":"Point","coordinates":[121.7245588,25.0238695]},"properties":{"id":"lcm_d3df70a1ed","address":"新北市平溪區菁桐街111-117號","city":"新北市","name":"菁桐礦業生活館","name_eng":"Jingtong Mining Life Museum","type":"歷史與人文","website":"","facebook":"","srcWebsite":"https://museums.moc.gov.tw/","source":"google","precision":"exact"}},{"type":"Feature","geometry":{"type":"Point","coordinates":[121.454455,25.0110947]},"properties":{"id":"lcm_d73efbccb6","address":"新北市板橋區西門街9號","city":"新北市","name":"國定古蹟林本源園邸","name_eng":"The Lin Family Mansion and Garden","type":"歷史與人文","website":"","facebook":"https://www.facebook.com/theLinGarden","srcWebsite":"https://museums.moc.gov.tw/","source":"offline_l2","precision":"exact"}},{"type":"Feature","geometry":{"type":"Point","coordinates":[121.3727871,24.9305499]},"properties":{"id":"lcm_633bb545fb","address":"新北市三峽區中華路43巷10號","city":"新北市","name":"李梅樹紀念館","name_eng":"Li Mei-Shu Memorial Gallery","type":"藝術與工藝","website":"https://github.com/Limeishu","facebook":"https://www.facebook.com/limeishu.org/","srcWebsite":"https://museums.moc.gov.tw/","source":"offline_l2","precision":"exact"}},{"type":"Feature","geometry":{"type":"Point","coordinates":[121.5144575,25.0321456]},"properties":{"id":"lcm_e272978a4b","address":"臺北市中正區重慶南路2段31號","city":"臺北市","name":"楊英風美術館","name_eng":"YuYuYang Museum","type":"藝術與工藝","website":"","facebook":"","srcWebsite":"https://museums.moc.gov.tw/","source":"offline_l2","precision":"exact"}},{"type":"Feature","geometry":{"type":"Point","coordinates":[121.5108423,25.0467107]},"properties":{"id":"lcm_d1fe5645fe","address":"臺北市中正區延平南路26號","city":"臺北市","name":"台北市市定古蹟撫臺街洋樓","name_eng":"Futai Street Mansion","type":"歷史與人文","website":"","facebook":"https://www.facebook.com/futai1910/","srcWebsite":"https://museums.moc.gov.tw/","source":"offline_l2","precision":"exact"}},{"type":"Feature","geometry":{"type":"Point","coordinates":[121.5141763,25.138401]},"properties":{"id":"lcm_f37ddd5daf","address":"臺北市北投區幽雅路32號","city":"臺北市","name":"北投文物館","name_eng":"Beitou Museum","type":"綜合與其他","website":"","facebook":"","srcWebsite":"https://museums.moc.gov.tw/","source":"offline_l2","precision":"exact"}},{"type":"Feature","geometry":{"type":"Point","coordinates":[121.5325836,25.1039135]},"properties":{"id":"lcm_482e3a4fac","address":"臺北市士林區雨聲街120號","city":"臺北市","name":"芝山文化生態綠園博物館","name_eng":"Zhishan Cultural and Ecological Garden","type":"歷史與人文","website":"","facebook":"https://www.facebook.com/zcegarden8866/","srcWebsite":"https://museums.moc.gov.tw/","source":"offline_l2","precision":"exact"}},{"type":"Feature","geometry":{"type":"Point","coordinates":[121.5205531,25.0215095]},"properties":{"id":"lcm_df8ae76f36","address":"臺北市中正區同安街107號","city":"臺北市","name":"紀州庵文學森林","name_eng":"Kishu An Forest of Literature","type":"綜合與其他","website":"https://kishuan.org.tw/activity.htm","facebook":"https://www.facebook.com/kishuann/","srcWebsite":"https://museums.moc.gov.tw/","source":"offline_l2","precision":"exact"}},{"type":"Feature","geometry":{"type":"Point","coordinates":[121.5066762,25.0418312]},"properties":{"id":"lcm_a2825f9fe9","address":"臺北市萬華區成都路10號","city":"臺北市","name":"西門紅樓","name_eng":"THE RedHouse","type":"綜合與其他","website":"https://www.redhouse.taipei","facebook":"","srcWebsite":"https://museums.moc.gov.tw/","source":"offline_l2","precision":"exact"}},{"type":"Feature","geometry":{"type":"Point","coordinates":[121.5113064,25.0627243]},"properties":{"id":"lcm_c7698acc1e","address":"臺北市大同區承德路路3段32號5樓","city":"臺北市","name":"阿嬤家-和平與女性人權館","name_eng":"AMA Museum for Peace and Women's Human Rights","type":"歷史與人文","website":"https://www.amamuseum.org.tw/tw/","facebook":"https://www.facebook.com/taiwanahma/","srcWebsite":"https://museums.moc.gov.tw/","source":"google","precision":"approximate"}},{"type":"Feature","geometry":{"type":"Point","coordinates":[121.5480158,25.0945238]},"properties":{"id":"lcm_8e97ac5541","address":"臺北市士林區臨溪路72號","city":"臺北市","name":"錢穆故居","name_eng":"Chienmu House","type":"歷史與人文","website":"http://web.utaipei.edu.tw/~chienmu/","facebook":"https://www.facebook.com/%E9%8C%A2%E7%A9%86%E6%95%85%E5%B1%85-219744354737251/","srcWebsite":"https://museums.moc.gov.tw/","source":"offline_l2","precision":"exact"}},{"type":"Feature","geometry":{"type":"Point","coordinates":[121.5222067,25.0532006]},"properties":{"id":"lcm_a00028f9c5","address":"臺北市中山區中山北路二段18號","city":"臺北市","name":"台北之家（光點台北）","name_eng":"SPOT Taipei （Taipei Film House）","type":"綜合與其他","website":"http://www.spot.org.tw/","facebook":"https://www.facebook.com/spot.tp/","srcWebsite":"https://museums.moc.gov.tw/","source":"offline_l2","precision":"exact"}},{"type":"Feature","geometry":{"type":"Point","coordinates":[121.5618619,24.982055]},"properties":{"id":"lcm_7930bf886f","address":"臺北市文山區木新路路二段156-1號","city":"臺北市","name":"永安藝文館","name_eng":"Yong An Art Center","type":"藝術與工藝","website":"","facebook":"https://www.facebook.com/people/%E6%B0%B8%E5%AE%89%E8%97%9D%E6%96%87%E9%A4%A8/100092591355328/?mibextid=ZbWKwL","srcWebsite":"https://museums.moc.gov.tw/","source":"google","precision":"exact"}},{"type":"Feature","geometry":{"type":"Point","coordinates":[121.4991489,25.1252814]},"properties":{"id":"lcm_9731683e7f","address":"臺北市北投區大業路166號11樓","city":"臺北市","name":"鳳甲美術館","name_eng":"Hong-Gah Museum","type":"藝術與工藝","website":"https://hong-gah.org.tw/","facebook":"https://www.facebook.com/honggahmuseum.tw","srcWebsite":"https://museums.moc.gov.tw/","source":"offline_l2","precision":"exact"}},{"type":"Feature","geometry":{"type":"Point","coordinates":[121.7441723,25.1312548]},"properties":{"id":"lcm_b902e13650","address":"基隆市中正區信一路181號","city":"基隆市","name":"基隆美術館","name_eng":"Keelung Museum of Art","type":"藝術與工藝","website":"","facebook":"https://www.facebook.com/klvisualart/?locale=zh_TW","srcWebsite":"https://museums.moc.gov.tw/","source":"offline_l2","precision":"exact"}},{"type":"Feature","geometry":{"type":"Point","coordinates":[121.7441723,25.1312548]},"properties":{"id":"lcm_b5bcd33d50","address":"基隆市中正區信一路181號M樓","city":"基隆市","name":"基隆故事館","name_eng":"Keelung Story House","type":"歷史與人文","website":"","facebook":"https://www.facebook.com/KeelungStoryHouse/","srcWebsite":"https://museums.moc.gov.tw/","source":"offline_l15","precision":"interpolated"}},{"type":"Feature","geometry":{"type":"Point","coordinates":[121.7400095,25.1325906]},"properties":{"id":"lcm_ff8b1df41c","address":"基隆市仁愛區港西街4號","city":"基隆市","name":"陽明海洋文化藝術館","name_eng":"YM Oceanic Culture & Art Museum","type":"綜合與其他","website":"http://www.ocam.org.tw","facebook":"https://www.facebook.com/pg/%E9%99%BD%E6%98%8E%E6%B5%B7%E6%B4%8B%E6%96%87%E5%8C%96%E8%97%9D%E8%A1%93%E9%A4%A8-YM-Oceanic-Culture-Art-Museum-146931795413384/about/?ref=page_internal","srcWebsite":"https://museums.moc.gov.tw/","source":"offline_l2","precision":"exact"}},{"type":"Feature","geometry":{"type":"Point","coordinates":[120.4207674,22.6575556]},"properties":{"id":"lcm_9f37c25026","address":"高雄市大樹區復興街42號","city":"高雄市","name":"臺灣鳳梨工場","name_eng":"Taiwan Pineapple Museum","type":"歷史與人文","website":"http://pineapple-museum.khcc.gov.tw/home01.aspx?ID=1","facebook":"https://www.facebook.com/formosapineapple","srcWebsite":"https://museums.moc.gov.tw/","source":"offline_l2","precision":"exact"}},{"type":"Feature","geometry":{"type":"Point","coordinates":[120.3941675,22.5047884]},"properties":{"id":"lcm_c96278a20d","address":"高雄市林園區福興街97號","city":"高雄市","name":"林園歷史教室─原頂林仔邊警察官吏派出所","name_eng":"Historical Building Former Dinglinzihbian Police Station","type":"歷史與人文","website":"","facebook":"","srcWebsite":"https://museums.moc.gov.tw/","source":"offline_l2","precision":"exact"}},{"type":"Feature","geometry":{"type":"Point","coordinates":[120.3595902,22.627462]},"properties":{"id":"lcm_b275076621","address":"高雄市鳳山區鳳崗里鳳明街62號","city":"高雄市","name":"鳳儀書院","name_eng":"Fongyi Academy","type":"歷史與人文","website":"","facebook":"","srcWebsite":"https://museums.moc.gov.tw/","source":"offline_l2","precision":"exact"}},{"type":"Feature","geometry":{"type":"Point","coordinates":[120.4819841,22.8846222]},"properties":{"id":"lcm_74f71214a3","address":"高雄市旗山區中山路路1號","city":"高雄市","name":"旗山車站糖鐵故事館","name_eng":"Cishan Station Sugar Railway Museum","type":"歷史與人文","website":"http://cishanstation.khcc.gov.tw/home01.aspx?ID=1","facebook":"https://www.facebook.com/CISHANSTATION/","srcWebsite":"https://museums.moc.gov.tw/","source":"google","precision":"exact"}},{"type":"Feature","geometry":{"type":"Point","coordinates":[120.2980135,22.6255599]},"properties":{"id":"lcm_f4cdcec03e","address":"高雄市前金區民生二路39號","city":"高雄市","name":"行政法人高雄市立圖書館高雄文學館","name_eng":"Kaohsiung Literature Library","type":"綜合與其他","website":"http://ksm.ksml.edu.tw/Web_Cht/Home?sn_id=54","facebook":"https://www.facebook.com/%E9%AB%98%E9%9B%84%E6%96%87%E5%AD%B8%E9%A4%A8-151586945042602/","srcWebsite":"https://museums.moc.gov.tw/","source":"offline_l2","precision":"exact"}},{"type":"Feature","geometry":{"type":"Point","coordinates":[120.2724467,22.6244761]},"properties":{"id":"lcm_b50e4c0029","address":"高雄市鼓山區登山街36號","city":"高雄市","name":"武德殿","name_eng":"Wude Martial Arts Center","type":"歷史與人文","website":"","facebook":"","srcWebsite":"https://museums.moc.gov.tw/","source":"offline_l2","precision":"exact"}},{"type":"Feature","geometry":{"type":"Point","coordinates":[120.2672956,22.6191338]},"properties":{"id":"lcm_d88a59f4e1","address":"高雄市鼓山區蓮海路20號","city":"高雄市","name":"打狗英國領事館(文化園區)","name_eng":"The British Consulate at Takow","type":"歷史與人文","website":"http://britishconsulate.khcc.gov.tw/home01.aspx?ID=1","facebook":"","srcWebsite":"https://museums.moc.gov.tw/","source":"offline_l2","precision":"exact"}},{"type":"Feature","geometry":{"type":"Point","coordinates":[120.3120646,22.6611085]},"properties":{"id":"lcm_010e742514","address":"高雄市三民區明哲路37號2樓","city":"高雄市","name":"新思惟人文空間","name_eng":"Sincewell Gallery","type":"藝術與工藝","website":"","facebook":"https://www.facebook.com/sincewell.gallery/","srcWebsite":"https://museums.moc.gov.tw/","source":"offline_l2","precision":"exact"}},{"type":"Feature","geometry":{"type":"Point","coordinates":[120.697431,23.2415112]},"properties":{"id":"lcm_bef0267e0f","address":"高雄市那瑪夏區瑪雅里平和巷170號","city":"高雄市","name":"高雄市那瑪夏區原住民文物館","name_eng":"Namasia For Aboriginal Cultural Museum","type":"歷史與人文","website":"","facebook":"https://www.facebook.com/NAMASIAforAboriginalCulturalMuseum/","srcWebsite":"https://museums.moc.gov.tw/","source":"offline_l2","precision":"exact"}},{"type":"Feature","geometry":{"type":"Point","coordinates":[120.28164435164433,22.61994119743669]},"properties":{"id":"lcm_8bdf02576b","address":"高雄市鹽埕區大勇路1號","city":"高雄市","name":"駁二藝術特區","name_eng":"THE PIER-2 ART CENTER","type":"綜合與其他","website":"","facebook":"","srcWebsite":"https://museums.moc.gov.tw/","source":"offline_l1","precision":"cached"}},{"type":"Feature","geometry":{"type":"Point","coordinates":[120.5861139,22.933216]},"properties":{"id":"lcm_d1453afb9d","address":"高雄市美濃區廣林里朝元95號","city":"高雄市","name":"鍾理和紀念館","name_eng":"Zhong Lihe Memorial Institute","type":"歷史與人文","website":"","facebook":"https://www.facebook.com/Zhonglihe/","srcWebsite":"https://museums.moc.gov.tw/","source":"offline_l2","precision":"exact"}},{"type":"Feature","geometry":{"type":"Point","coordinates":[120.1979029,22.8753009]},"properties":{"id":"lcm_4c2ecd4fd8","address":"高雄市茄萣區民生路226號","city":"高雄市","name":"郭常喜兵器藝術文物館","name_eng":"Kuo Chang-Xi Weapon Art Museum","type":"藝術與工藝","website":"http://www.6989595.com/","facebook":"https://www.facebook.com/shingdah6989595/","srcWebsite":"https://museums.moc.gov.tw/","source":"offline_l2","precision":"exact"}},{"type":"Feature","geometry":{"type":"Point","coordinates":[120.4135606,23.630828]},"properties":{"id":"lcm_61d583a5d0","address":"雲林縣大埤鄉民生路665號","city":"雲林縣","name":"大埤鄉酸菜文化館","name_eng":"Pickled Mustard Cultural Center","type":"歷史與人文","website":"","facebook":"","srcWebsite":"https://museums.moc.gov.tw/","source":"offline_l2","precision":"exact"}},{"type":"Feature","geometry":{"type":"Point","coordinates":[121.2203232,24.9538641]},"properties":{"id":"lcm_6df0561670","address":"320桃園市中壢區博愛路路52號","city":"桃園市","name":"中壢國小日式宿舍","name_eng":"Zhongli Forest Story House","type":"生活與休閒","website":"","facebook":"https://www.facebook.com/lixiaostory52/?ref=page_internal","srcWebsite":"https://museums.moc.gov.tw/","source":"google","precision":"exact"}},{"type":"Feature","geometry":{"type":"Point","coordinates":[121.2221931,24.9534627]},"properties":{"id":"lcm_7fe75eb900","address":"桃園市中壢區延平路627號","city":"桃園市","name":"壢景町(中壢警察局日式宿舍群)","name_eng":"Li Jing Ding","type":"歷史與人文","website":"","facebook":"https://www.facebook.com/1941zhongli/","srcWebsite":"https://museums.moc.gov.tw/","source":"offline_l2","precision":"exact"}},{"type":"Feature","geometry":{"type":"Point","coordinates":[120.7423748,24.1172498]},"properties":{"id":"lcm_edd31c5332","address":"臺中市太平區光興路1266巷160號","city":"臺中市","name":"太平古農莊文物館","name_eng":"Taiping  Old times Countryside Heritage Museum","type":"歷史與人文","website":"","facebook":"","srcWebsite":"https://museums.moc.gov.tw/","source":"offline_l2","precision":"exact"}},{"type":"Feature","geometry":{"type":"Point","coordinates":[121.8035086,24.4665153]},"properties":{"id":"lcm_e5748ae89b","address":"宜蘭縣南澳鄉蘇花路2段379巷2號","city":"宜蘭縣","name":"南澳鄉泰雅文化館","name_eng":"Nan'ao Township Atayal Culturalhall","type":"歷史與人文","website":"","facebook":"","srcWebsite":"https://museums.moc.gov.tw/","source":"google","precision":"exact"}},{"type":"Feature","geometry":{"type":"Point","coordinates":[120.6056064,23.5564476]},"properties":{"id":"lcm_8721a3db7c","address":"嘉義縣梅山鄉太平村17號","city":"嘉義縣","name":"文環暗學仔(張文環故居)","name_eng":"WEN-HUAN àm-o̍h-á","type":"歷史與人文","website":"","facebook":"","srcWebsite":"https://museums.moc.gov.tw/","source":"google","precision":"approximate"}},{"type":"Feature","geometry":{"type":"Point","coordinates":[121.4570447,23.5103393]},"properties":{"id":"lcm_ac3c2a2f63","address":"花蓮縣瑞穗鄉奇美村5鄰2-10號","city":"花蓮縣","name":"花蓮縣瑞穗鄉奇美原住民文物館","name_eng":"Chimei Aboriginal Heritage Museum, Ruisui Township, Hualien County","type":"綜合與其他","website":"","facebook":"","srcWebsite":"https://museums.moc.gov.tw/","source":"google","precision":"approximate"}},{"type":"Feature","geometry":{"type":"Point","coordinates":[121.28771665,24.884943149999998]},"properties":{"id":"lcm_7c5c36527f","address":"桃園市大溪區和平路48號","city":"桃園市","name":"源古本舖","name_eng":"GU gallery","type":"歷史與人文","website":"","facebook":"https://www.facebook.com/taiwanchic919/","srcWebsite":"https://museums.moc.gov.tw/","source":"offline_l15","precision":"interpolated"}},{"type":"Feature","geometry":{"type":"Point","coordinates":[121.51409698457957,23.88187066248175]},"properties":{"id":"lcm_754a3f8405","address":"花蓮縣壽豐鄉光榮一街26號","city":"花蓮縣","name":"壽豐鄉原住民文物館","name_eng":"Shoufong Indigenous Museum","type":"生活與休閒","website":"","facebook":"","srcWebsite":"https://museums.moc.gov.tw/","source":"offline_l15","precision":"interpolated"}},{"type":"Feature","geometry":{"type":"Point","coordinates":[120.5248998,23.695433]},"properties":{"id":"lcm_1429e0b1a8","address":"雲林縣斗六市大學路三段310號","city":"雲林縣","name":"雲林縣政府文化觀光處展覽館","name_eng":"Exhibition Hall, Cultural Affairs Department, Yunlin County Government","type":"藝術與工藝","website":"","facebook":"https://www.facebook.com/ylccb.gov.tw","srcWebsite":"https://museums.moc.gov.tw/","source":"offline_l2","precision":"exact"}},{"type":"Feature","geometry":{"type":"Point","coordinates":[120.344028,23.5557298]},"properties":{"id":"lcm_20dd0d1aba","address":"嘉義縣新港鄉登雲路111巷2號","city":"嘉義縣","name":"新港文化館‧25號倉庫","name_eng":"Hsin Kang","type":"綜合與其他","website":"http://www.hkfce.org.tw/","facebook":"https://www.facebook.com/hkfce1987/","srcWebsite":"https://museums.moc.gov.tw/","source":"google","precision":"exact"}},{"type":"Feature","geometry":{"type":"Point","coordinates":[120.97015704533743,24.80638286232551]},"properties":{"id":"lcm_7803c9d842","address":"新竹市東區中央路116號","city":"新竹市","name":"新竹市美術館","name_eng":"Hsinchu City Art Gallery","type":"藝術與工藝","website":"","facebook":"","srcWebsite":"https://museums.moc.gov.tw/","source":"offline_l15","precision":"interpolated"}},{"type":"Feature","geometry":{"type":"Point","coordinates":[121.2342739,24.8455707]},"properties":{"id":"lcm_e16b38d176","address":"桃園市龍潭區中正路三林段500號","city":"桃園市","name":"桃園市客家文化館","name_eng":"Taoyuan City Hakka Culture Hall","type":"綜合與其他","website":"https://www.hakka.tycg.gov.tw/index.jsp","facebook":"https://www.facebook.com/tychakka","srcWebsite":"https://museums.moc.gov.tw/","source":"offline_l2","precision":"exact"}},{"type":"Feature","geometry":{"type":"Point","coordinates":[120.32770848935144,23.968247632263438]},"properties":{"id":"lcm_5baef409da","address":"彰化縣芳苑鄉王功村漁港路840號","city":"彰化縣","name":"王功故事館","name_eng":"Wang Gong Story Museum","type":"綜合與其他","website":"http://www.ork.org.tw/","facebook":"https://www.facebook.com/orkorg/","srcWebsite":"https://museums.moc.gov.tw/","source":"offline_l1","precision":"cached"}},{"type":"Feature","geometry":{"type":"Point","coordinates":[121.8233994,24.6677565]},"properties":{"id":"lcm_7cc97b76ee","address":"宜蘭縣五結鄉利澤東路37號","city":"宜蘭縣","name":"利澤國際偶戲藝術村","name_eng":"Lìzé Puppet Art Colony","type":"藝術與工藝","website":"https://lizepuppet.com.tw/","facebook":"https://www.facebook.com/lize.puppet.art.colony/","srcWebsite":"https://museums.moc.gov.tw/","source":"offline_l15","precision":"interpolated"}},{"type":"Feature","geometry":{"type":"Point","coordinates":[120.5135618,23.9378081]},"properties":{"id":"lcm_3e84c25e4e","address":"彰化縣埔心鄉羅永路路109號","city":"彰化縣","name":"羅厝天主堂 - 埔心文物歷史館","name_eng":"Luocuo Church","type":"歷史與人文","website":"","facebook":"","srcWebsite":"https://museums.moc.gov.tw/","source":"google","precision":"exact"}},{"type":"Feature","geometry":{"type":"Point","coordinates":[120.5492563,24.074742]},"properties":{"id":"lcm_efae9bf85a","address":"彰化縣彰化市公園路一段174巷7號、8號","city":"彰化縣","name":"南郭郡守官舍","name_eng":"Heritage Official Residence of Nan Gou Gunshu","type":"歷史與人文","website":"https://sites.google.com/view/nanguo174","facebook":"https://www.facebook.com/oronm174/","srcWebsite":"https://museums.moc.gov.tw/","source":"offline_l15","precision":"interpolated"}},{"type":"Feature","geometry":{"type":"Point","coordinates":[120.3715848,23.8999199]},"properties":{"id":"lcm_58d7cb5190","address":"彰化縣二林鎮斗苑路5段22號","city":"彰化縣","name":"二林蔗農事件紀念館","name_eng":"Erlin Sugarcane Farmers Movement Memorial","type":"歷史與人文","website":"","facebook":"","srcWebsite":"https://museums.moc.gov.tw/","source":"offline_l2","precision":"exact"}},{"type":"Feature","geometry":{"type":"Point","coordinates":[120.4350305,24.0545527]},"properties":{"id":"lcm_c3165fcd95","address":"彰化縣鹿港鎮中山路194號","city":"彰化縣","name":"長源醫院 鹿港歷史影像館","name_eng":"Changyuan Hospital - Lukang Historical Image Museum","type":"歷史與人文","website":"","facebook":"https://www.facebook.com/profile.php?id=100068402070339","srcWebsite":"https://museums.moc.gov.tw/","source":"offline_l2","precision":"exact"}},{"type":"Feature","geometry":{"type":"Point","coordinates":[120.274399,23.8440905]},"properties":{"id":"lcm_2dcb332df4","address":"彰化縣大城鄉許厝巷19號","city":"彰化縣","name":"彰化縣大城鄉台西村影像館","name_eng":"Tai-xi Village Museum Of Photography","type":"綜合與其他","website":"","facebook":"","srcWebsite":"https://museums.moc.gov.tw/","source":"google","precision":"exact"}},{"type":"Feature","geometry":{"type":"Point","coordinates":[120.5470442,24.0839062]},"properties":{"id":"lcm_4651aa114a","address":"彰化縣彰化市中正路1段242號4樓","city":"彰化縣","name":"賴和紀念館","name_eng":"Laiho Memorial Hall","type":"歷史與人文","website":"http://www.laiho.org.tw/","facebook":"https://www.facebook.com/laiho0528/","srcWebsite":"https://museums.moc.gov.tw/","source":"offline_l1","precision":"cached"}},{"type":"Feature","geometry":{"type":"Point","coordinates":[119.4338932,23.2050231]},"properties":{"id":"lcm_30bd8da550","address":"澎湖縣七美鄉中和村2鄰10號街","city":"澎湖縣","name":"大嶼常民生活文物館","name_eng":"Dayu culture and lifesylte museum","type":"生活與休閒","website":"https://www.chimi.gov.tw/ch/home.jsp?id=79","facebook":"","srcWebsite":"https://museums.moc.gov.tw/","source":"google","precision":"approximate"}},{"type":"Feature","geometry":{"type":"Point","coordinates":[121.542231,22.027498]},"properties":{"id":"lcm_f055aa357b","address":"臺東縣蘭嶼鄉紅頭村漁人147號","city":"臺東縣","name":"蘭恩文化園","name_eng":"Lanyu Museum","type":"歷史與人文","website":"","facebook":"https://www.facebook.com/lanan.org/","srcWebsite":"https://museums.moc.gov.tw/","source":"google","precision":"approximate"}},{"type":"Feature","geometry":{"type":"Point","coordinates":[120.1791861,23.173175]},"properties":{"id":"lcm_a187eac932","address":"臺南市佳里區六安里六安130號 蕭壠文化園區","city":"臺南市","name":"蕭壠兒童美術館","name_eng":"Siao-Long Children's Museum of Art","type":"藝術與工藝","website":"http://soulangh.tnc.gov.tw/","facebook":"https://www.facebook.com/siaolongpark/","srcWebsite":"https://museums.moc.gov.tw/","source":"google","precision":"exact"}},{"type":"Feature","geometry":{"type":"Point","coordinates":[120.163942,22.9984908]},"properties":{"id":"lcm_ceb2eb53a3","address":"臺南市安平區安平路97-15號","city":"臺南市","name":"臺南運河安平海關","name_eng":"Anping Canal Museum","type":"歷史與人文","website":"","facebook":"","srcWebsite":"https://museums.moc.gov.tw/","source":"google","precision":"exact"}},{"type":"Feature","geometry":{"type":"Point","coordinates":[120.3153151,22.75677]},"properties":{"id":"lcm_00b1f1cd38","address":"高雄市橋頭區糖廠路24號","city":"高雄市","name":"台灣糖業博物館","name_eng":"Taiwan Sugar Museum","type":"歷史與人文","website":"https://www.taisugar.com.tw/KOB/index.aspx","facebook":"https://www.facebook.com/cctsr/","srcWebsite":"https://museums.moc.gov.tw/","source":"offline_l2","precision":"exact"}},{"type":"Feature","geometry":{"type":"Point","coordinates":[120.4131623,23.7703914]},"properties":{"id":"lcm_b24d304abb","address":"雲林縣二崙鄉中山路102號","city":"雲林縣","name":"二崙故事屋","name_eng":"Erlun Story House","type":"綜合與其他","website":"erlunstoryhouse@ylstoryteller.org.tw","facebook":"http://www.facebook.com/erlunstoryhouse","srcWebsite":"https://museums.moc.gov.tw/","source":"google","precision":"exact"}},{"type":"Feature","geometry":{"type":"Point","coordinates":[121.2804874,24.927287]},"properties":{"id":"lcm_5f34c867db","address":"桃園市八德區建德路135號","city":"桃園市","name":"祭祀公業法人桃園縣呂萬春呂宅著存堂","name_eng":"Lu Wan-chun Memorial Hall","type":"歷史與人文","website":"","facebook":"https://www.facebook.com/groups/428558508500675/?hoisted_section_header_type=recently_seen&multi_permalinks=974222323934288&locale=zh_TW","srcWebsite":"https://museums.moc.gov.tw/","source":"offline_l2","precision":"exact"}},{"type":"Feature","geometry":{"type":"Point","coordinates":[120.4808535,22.890594800000002]},"properties":{"id":"lcm_16df80c1e5","address":"高雄市旗山區文中路8號","city":"高雄市","name":"舊鼓山國小","name_eng":"Old Gushan Elementary School","type":"歷史與人文","website":"","facebook":"","srcWebsite":"https://museums.moc.gov.tw/","source":"offline_l15","precision":"interpolated"}},{"type":"Feature","geometry":{"type":"Point","coordinates":[121.5429671,25.05202575789474]},"properties":{"id":"lcm_a451556197","address":"臺北市南京東路3段215號11樓","city":"臺北市","name":"台灣史料中心","name_eng":"Ｗu San-lien Foundation for Taiwan Historical Materials","type":"歷史與人文","website":"www.twcenter.org.tw","facebook":"https://www.facebook.com/profile.php?id=100064413140982","srcWebsite":"https://museums.moc.gov.tw/","source":"offline_l15","precision":"interpolated"}},{"type":"Feature","geometry":{"type":"Point","coordinates":[121.1523762,22.7577056]},"properties":{"id":"lcm_4f215b69ee","address":"臺東市寶桑路333號","city":"","name":"臺東縣臺東市順天宮","name_eng":"Taitung City, Taitung County","type":"綜合與其他","website":"","facebook":"","srcWebsite":"https://museums.moc.gov.tw/","source":"google","precision":"exact"}},{"type":"Feature","geometry":{"type":"Point","coordinates":[120.2598021,23.0188399]},"properties":{"id":"lcm_0a4661fda6","address":"臺南市永康區永大二路路88號1樓","city":"臺南市","name":"臺南市原住民文物館","name_eng":"The Indigenous Cultural relic Museum of Tainan City","type":"歷史與人文","website":"","facebook":"","srcWebsite":"https://museums.moc.gov.tw/","source":"google","precision":"exact"}},{"type":"Feature","geometry":{"type":"Point","coordinates":[120.5436085,23.7040841]},"properties":{"id":"lcm_520789c7a2","address":"雲林縣斗六市公正街212號","city":"雲林縣","name":"雲林官邸兒童館","name_eng":"Yunlin County Magistrate Children's Club","type":"綜合與其他","website":"https://line.me/ti/g2/gYQSUH38QcmKg9Q0CagBH6czI0wqwaViGK7F8Q?utm_source=invitation&utm_medium=link_copy&utm_campaign=default","facebook":"","srcWebsite":"https://museums.moc.gov.tw/","source":"offline_l2","precision":"exact"}},{"type":"Feature","geometry":{"type":"Point","coordinates":[120.69067790603054,24.12715820756104]},"properties":{"id":"lcm_7593370af1","address":"台中市東區建智街12號","city":"臺中市","name":"賴高山藝術紀念館","name_eng":"Lai Kao-Shan Art Museum","type":"藝術與工藝","website":"","facebook":"https://www.facebook.com/laimuseum/","srcWebsite":"https://museums.moc.gov.tw/","source":"offline_l15","precision":"interpolated"}},{"type":"Feature","geometry":{"type":"Point","coordinates":[120.6927857,24.1661998]},"properties":{"id":"lcm_56f68c5be1","address":"臺中市北屯區文昌東十一街14巷1號","city":"臺中市","name":"臺中市歷史建築林懋陽故居（一德洋樓）","name_eng":"Lin Mao-Yang Mansion, Historic Buildings of Taichung City","type":"綜合與其他","website":"","facebook":"https://www.facebook.com/YidoMansion/","srcWebsite":"https://museums.moc.gov.tw/","source":"offline_l2","precision":"exact"}},{"type":"Feature","geometry":{"type":"Point","coordinates":[120.692727,24.2246929]},"properties":{"id":"lcm_5cb1605680","address":"臺中市潭子區潭富路二段段８８號","city":"臺中市","name":"臺中市市定古蹟潭子摘星山莊","name_eng":"ZHAIXING VILLA","type":"歷史與人文","website":"","facebook":"https://www.facebook.com/starsvilla1871/","srcWebsite":"https://museums.moc.gov.tw/","source":"google","precision":"exact"}},{"type":"Feature","geometry":{"type":"Point","coordinates":[121.1456666,24.905187]},"properties":{"id":"lcm_bd1f794204","address":"桃園市楊梅區校前路49號、桃園市楊梅區中山路125巷12、14、16、18、20、22、24號","city":"桃園市","name":"楊梅故事園區","name_eng":"Yangmei Story Park","type":"綜合與其他","website":"","facebook":"https://www.facebook.com/YangmeiStoryPark","srcWebsite":"https://museums.moc.gov.tw/","source":"offline_l15","precision":"interpolated"}},{"type":"Feature","geometry":{"type":"Point","coordinates":[121.5423719,24.9681442]},"properties":{"id":"lcm_3f8af773de","address":"新北市新店區北新路1段92號1樓","city":"新北市","name":"新店文史館","name_eng":"Xindian Culture and History Exhibition","type":"歷史與人文","website":"http://localvoice106.pixnet.net/blog","facebook":"https://www.facebook.com/92%E6%95%85%E4%BA%8B%E5%B7%B7-%E6%96%B0%E5%BA%97%E6%96%87%E5%8F%B2%E9%A4%A8-1422963677941081/","srcWebsite":"https://museums.moc.gov.tw/","source":"offline_l2","precision":"exact"}},{"type":"Feature","geometry":{"type":"Point","coordinates":[119.9257714,26.1432123]},"properties":{"id":"lcm_e6564a0a7a","address":"連江縣南竿鄉仁愛村19號","city":"連江縣","name":"馬祖故事館","name_eng":"Matsu Story House, Matsu Daily, Lienchiang County","type":"歷史與人文","website":"https://matsucc.gov.tw/museum/%e9%a6%ac%e7%a5%96%e6%95%85%e4%ba%8b%e9%a4%a8/","facebook":"https://www.facebook.com/%E9%A6%AC%E7%A5%96%E6%95%85%E4%BA%8B%E9%A4%A8-117831974990768/","srcWebsite":"https://museums.moc.gov.tw/","source":"offline_l1","precision":"cached"}},{"type":"Feature","geometry":{"type":"Point","coordinates":[121.7653549,24.7081376]},"properties":{"id":"lcm_ec2854c234","address":"宜蘭縣五結鄉西河五路82號","city":"宜蘭縣","name":"台灣碗盤博物館","name_eng":"Taiwan Bowl & Dish Museum","type":"藝術與工藝","website":"","facebook":"https://m.facebook.com/Taiwan.Bowl.Dish.Museum/","srcWebsite":"https://museums.moc.gov.tw/","source":"offline_l2","precision":"exact"}},{"type":"Feature","geometry":{"type":"Point","coordinates":[120.5583462,24.2704683]},"properties":{"id":"lcm_246a5f7fa3","address":"臺中市清水區忠貞路21號","city":"臺中市","name":"臺中市港區藝術中心","name_eng":"The Taichung City Seaport Art Center","type":"綜合與其他","website":"https://www.tcsac.gov.tw/","facebook":"","srcWebsite":"https://museums.moc.gov.tw/","source":"offline_l2","precision":"exact"}},{"type":"Feature","geometry":{"type":"Point","coordinates":[120.651873,24.4470246]},"properties":{"id":"lcm_9ff394c0e2","address":"苗栗縣苑裡鎮西平里14鄰出水64-11號","city":"苗栗縣","name":"苑裡濱海藝文中心","name_eng":"Yuanli Binhai Arts and Culture Center","type":"藝術與工藝","website":"","facebook":"","srcWebsite":"https://museums.moc.gov.tw/","source":"offline_l2","precision":"exact"}},{"type":"Feature","geometry":{"type":"Point","coordinates":[121.119769,22.932798]},"properties":{"id":"lcm_0e4762f2eb","address":"臺東縣鹿野鄉永安路451號","city":"臺東縣","name":"新元昌紅茶產業文化館","name_eng":"Xinyuanchang Black Tea Industry Cultural Center","type":"生活與休閒","website":"","facebook":"","srcWebsite":"https://museums.moc.gov.tw/","source":"google","precision":"exact"}},{"type":"Feature","geometry":{"type":"Point","coordinates":[120.4340268,24.0550497]},"properties":{"id":"lcm_6aa6af016e","address":"彰化縣鹿港鎮後車巷8號","city":"彰化縣","name":"工藝展覽館","name_eng":"Handicrafts exhibibition hall","type":"藝術與工藝","website":"","facebook":"","srcWebsite":"https://museums.moc.gov.tw/","source":"offline_l2","precision":"exact"}},{"type":"Feature","geometry":{"type":"Point","coordinates":[121.174717,23.09646]},"properties":{"id":"lcm_1fee1f5c76","address":"臺東縣海端鄉海端村山平2鄰56號","city":"臺東縣","name":"海端鄉布農族文物館","name_eng":"Bunun Cultural Museum of Haiduan Township","type":"綜合與其他","website":"https://museum.haiduau.gov.tw/","facebook":"https://www.facebook.com/BununCulturalMuseumofHaiduanTownship/","srcWebsite":"https://museums.moc.gov.tw/","source":"google","precision":"approximate"}},{"type":"Feature","geometry":{"type":"Point","coordinates":[121.0022318,24.7951614]},"properties":{"id":"lcm_661992be98","address":"新竹市東區金城一路69號","city":"新竹市","name":"將軍村開放圖書資訊園區","name_eng":"Generals’ Village","type":"歷史與人文","website":"","facebook":"https://www.facebook.com/GVillage.tw","srcWebsite":"https://museums.moc.gov.tw/","source":"offline_l2","precision":"exact"}},{"type":"Feature","geometry":{"type":"Point","coordinates":[121.5125296,25.0570706]},"properties":{"id":"lcm_37bbe38724","address":"臺北市大同區民生西路309號","city":"臺北市","name":"新芳春茶行","name_eng":"Sin Hong Choon","type":"歷史與人文","website":"","facebook":"","srcWebsite":"https://museums.moc.gov.tw/","source":"offline_l2","precision":"exact"}},{"type":"Feature","geometry":{"type":"Point","coordinates":[121.5115224,25.0335779]},"properties":{"id":"lcm_7c1678d21e","address":"臺北市中正區重慶南路2段6巷10號","city":"臺北市","name":"孫運璿科技‧人文紀念館","name_eng":"Sun Yun-Suan Memorial Museum","type":"歷史與人文","website":"http://www.sysmm.org/","facebook":"https://www.facebook.com/sysmm610","srcWebsite":"https://museums.moc.gov.tw/","source":"offline_l2","precision":"exact"}},{"type":"Feature","geometry":{"type":"Point","coordinates":[120.9386423,23.9755914]},"properties":{"id":"lcm_a96bf68daa","address":"南投縣埔里鎮鐵山里鐵山路310號","city":"南投縣","name":"臺灣手抄紙博物館","name_eng":"Goang Xing Paper Mill","type":"藝術與工藝","website":"","facebook":"","srcWebsite":"https://museums.moc.gov.tw/","source":"offline_l2","precision":"exact"}},{"type":"Feature","geometry":{"type":"Point","coordinates":[121.445957,25.0461942]},"properties":{"id":"lcm_6eddc463bb","address":"新北市新莊區中平路110巷17號3樓","city":"新北市","name":"史明文物館","name_eng":"Su Beng Memorial","type":"歷史與人文","website":"","facebook":"https://www.facebook.com/profile.php?id=100045141427049","srcWebsite":"https://museums.moc.gov.tw/","source":"offline_l2","precision":"exact"}},{"type":"Feature","geometry":{"type":"Point","coordinates":[120.4391314,23.5022579]},"properties":{"id":"lcm_d14bb1ec5c","address":"嘉義市東區文化路909-3號","city":"嘉義市","name":"愛木村地方文化館","name_eng":"i-WOOD Village","type":"生活與休閒","website":"https://iwoodvillage.com/","facebook":"https://www.facebook.com/LoveWoodVillage/?ref=page_internal","srcWebsite":"https://museums.moc.gov.tw/","source":"google","precision":"exact"}},{"type":"Feature","geometry":{"type":"Point","coordinates":[121.05744136685074,24.698323665560267]},"properties":{"id":"lcm_f049ee4135","address":"新竹縣北埔鄉公園街15號","city":"新竹縣","name":"鄧南光影像紀念館","name_eng":"Deng Nan-Guang Memorial Museum","type":"綜合與其他","website":"","facebook":"","srcWebsite":"https://museums.moc.gov.tw/","source":"offline_l15","precision":"interpolated"}},{"type":"Feature","geometry":{"type":"Point","coordinates":[121.219157,23.0972629]},"properties":{"id":"lcm_9f4b5144e2","address":"臺東縣池上鄉萬安村1鄰1-12號","city":"臺東縣","name":"萬安社區稻米原鄉館","name_eng":"Wanan Rice House","type":"生活與休閒","website":"https://wanan197.okgo.tw/","facebook":"https://www.facebook.com/wanan197.rice","srcWebsite":"https://museums.moc.gov.tw/","source":"offline_l2","precision":"exact"}},{"type":"Feature","geometry":{"type":"Point","coordinates":[120.925945,22.526741]},"properties":{"id":"lcm_989809a193","address":"臺東縣金峰鄉歷坵大道42-2號","city":"臺東縣","name":"小米學堂","name_eng":"Millet  Classroom","type":"綜合與其他","website":"","facebook":"","srcWebsite":"https://museums.moc.gov.tw/","source":"google","precision":"approximate"}},{"type":"Feature","geometry":{"type":"Point","coordinates":[121.1452988,22.75406]},"properties":{"id":"lcm_18f55fafa7","address":"台東市博愛路478號","city":"","name":"台東故事館","name_eng":"Taitung Story Museum","type":"綜合與其他","website":"","facebook":"","srcWebsite":"https://museums.moc.gov.tw/","source":"google","precision":"exact"}},{"type":"Feature","geometry":{"type":"Point","coordinates":[121.1757534,24.7913046]},"properties":{"id":"lcm_2434d0231b","address":"新竹縣關西鎮中山路73號","city":"新竹縣","name":"臺紅茶業文化館","name_eng":"The Formosa Tea Industry and Culture Gallery","type":"歷史與人文","website":"","facebook":"https://www.facebook.com/forteaco1937","srcWebsite":"https://museums.moc.gov.tw/","source":"offline_l2","precision":"exact"}},{"type":"Feature","geometry":{"type":"Point","coordinates":[120.6539632,22.7164615]},"properties":{"id":"lcm_3e9c2cc2c7","address":"屏東縣三地門鄉中正路2段110號","city":"屏東縣","name":"屏東縣三地門鄉原住民文化館","name_eng":"Sandimen Indigenous Museum, Pingtung County","type":"藝術與工藝","website":"","facebook":"https://is.gd/eLR2xk","srcWebsite":"https://museums.moc.gov.tw/","source":"offline_l15","precision":"interpolated"}},{"type":"Feature","geometry":{"type":"Point","coordinates":[121.7474446,25.1321573]},"properties":{"id":"lcm_fdd64ea382","address":"基隆市中正區信二路280號","city":"基隆市","name":"鷄籠中元文化館","name_eng":"Keelung Mid-Summer Ghost Festival Museum","type":"歷史與人文","website":"","facebook":"","srcWebsite":"https://museums.moc.gov.tw/","source":"offline_l2","precision":"exact"}},{"type":"Feature","geometry":{"type":"Point","coordinates":[121.0545442,24.7001027]},"properties":{"id":"lcm_41bc65fa68","address":"新竹縣北埔鄉長興街8-10號","city":"新竹縣","name":"龍瑛宗文學館","name_eng":"LONG YING ZONG LITERARY MEMORIAL MUSEUM","type":"歷史與人文","website":"","facebook":"","srcWebsite":"https://museums.moc.gov.tw/","source":"google","precision":"exact"}},{"type":"Feature","geometry":{"type":"Point","coordinates":[120.3101933,23.2772908]},"properties":{"id":"lcm_6fa82bd6f8","address":"臺南市柳營區中山西路3段112號","city":"臺南市","name":"劉啟祥美術紀念館","name_eng":"Liu Chi Shiang Memorial Hall","type":"歷史與人文","website":"https://xinying-culture.tainan.gov.tw/onepage.php?id=26","facebook":"","srcWebsite":"https://museums.moc.gov.tw/","source":"offline_l2","precision":"exact"}},{"type":"Feature","geometry":{"type":"Point","coordinates":[120.64053,22.436947]},"properties":{"id":"lcm_3bf311dcb8","address":"屏東縣來義鄉南和村南和路289號","city":"屏東縣","name":"屏東縣來義鄉原住民文物館","name_eng":"Laiyi Indigenous Museum, Pingtung County","type":"藝術與工藝","website":"","facebook":"","srcWebsite":"https://museums.moc.gov.tw/","source":"google","precision":"approximate"}},{"type":"Feature","geometry":{"type":"Point","coordinates":[120.4844347,22.6791308]},"properties":{"id":"lcm_3f5add7e45","address":"屏東縣屏東市勝利路137號","city":"屏東縣","name":"勝利路137號","name_eng":"victory137","type":"綜合與其他","website":"","facebook":"","srcWebsite":"https://museums.moc.gov.tw/","source":"offline_l2","precision":"exact"}},{"type":"Feature","geometry":{"type":"Point","coordinates":[121.5812244,23.9700061]},"properties":{"id":"lcm_10621da4d3","address":"文化5街43號","city":"","name":"花蓮縣吉安鄉阿美族文物館","name_eng":"Huwalensiyen Ciansiyang Amecu wenhuwakuwan","type":"生活與休閒","website":"","facebook":"","srcWebsite":"https://museums.moc.gov.tw/","source":"google","precision":"exact"}},{"type":"Feature","geometry":{"type":"Point","coordinates":[121.748253,24.744887]},"properties":{"id":"lcm_07d1807aec","address":"26047 宜蘭縣宜蘭市神農路一段1號","city":"宜蘭縣","name":"宜大記憶庫","name_eng":"NIU History Gallery","type":"綜合與其他","website":"https://lic.niu.edu.tw/","facebook":"https://www.facebook.com/niulibrary/","srcWebsite":"https://museums.moc.gov.tw/","source":"offline_l2","precision":"exact"}},{"type":"Feature","geometry":{"type":"Point","coordinates":[120.2570421,23.4464152]},"properties":{"id":"lcm_b8eaa4de17","address":"嘉義縣朴子市市東大道40號","city":"嘉義縣","name":"朴子清木醫療文化館","name_eng":"Qing-Mu historic medical building and cultural center, Puzi City","type":"歷史與人文","website":"","facebook":"https://www.facebook.com/seimokuya/","srcWebsite":"https://museums.moc.gov.tw/","source":"google","precision":"approximate"}},{"type":"Feature","geometry":{"type":"Point","coordinates":[120.2962382,23.0595031]},"properties":{"id":"lcm_2a070af94f","address":"臺南市新化區永新路11號3樓","city":"臺南市","name":"臺南市西拉雅文化會館","name_eng":"Tainan Siraya Cultural Hall","type":"藝術與工藝","website":"","facebook":"","srcWebsite":"https://museums.moc.gov.tw/","source":"offline_l2","precision":"exact"}},{"type":"Feature","geometry":{"type":"Point","coordinates":[120.2664758,22.6176032]},"properties":{"id":"lcm_7e64f943a1","address":"蓮海路6號","city":"","name":"雄鎮北門","name_eng":"雄鎮北門","type":"歷史與人文","website":"","facebook":"","srcWebsite":"https://museums.moc.gov.tw/","source":"google","precision":"exact"}},{"type":"Feature","geometry":{"type":"Point","coordinates":[120.2874411,22.8017596]},"properties":{"id":"lcm_cfbfd2626a","address":"高雄市岡山區岡山路533-2號","city":"高雄市","name":"台灣螺絲博物館","name_eng":"Taiwan Fastener Museum","type":"藝術與工藝","website":"","facebook":"","srcWebsite":"https://museums.moc.gov.tw/","source":"offline_l2","precision":"exact"}},{"type":"Feature","geometry":{"type":"Point","coordinates":[120.4333626,24.0549853]},"properties":{"id":"lcm_95580efc8d","address":"彰化縣鹿港鎮大有街大道39號","city":"彰化縣","name":"吳肇勳書法館","name_eng":"Wu Tsao Hsun Calligraphy Art Center","type":"藝術與工藝","website":"","facebook":"","srcWebsite":"https://museums.moc.gov.tw/","source":"google","precision":"approximate"}},{"type":"Feature","geometry":{"type":"Point","coordinates":[120.4599361,22.4638783]},"properties":{"id":"lcm_2f9a7cf981","address":"屏東縣東港鎮船頭路9號","city":"屏東縣","name":"屏東縣王船文化館","name_eng":"Pingtung KingBoat Museum","type":"歷史與人文","website":"https://www.cultural.pthg.gov.tw/kingboat/Default.aspx","facebook":"https://www.facebook.com/kingboat.pt?locale=zh_TW","srcWebsite":"https://museums.moc.gov.tw/","source":"offline_l2","precision":"exact"}},{"type":"Feature","geometry":{"type":"Point","coordinates":[121.5203668,25.0210944]},"properties":{"id":"lcm_844733724e","address":"臺北市中正區同安街115號","city":"臺北市","name":"紀州庵文學森林-古蹟","name_eng":"Kishu An Forest of Literature","type":"歷史與人文","website":"","facebook":"https://www.facebook.com/kishuann","srcWebsite":"https://museums.moc.gov.tw/","source":"offline_l2","precision":"exact"}},{"type":"Feature","geometry":{"type":"Point","coordinates":[121.5205531,25.0215095]},"properties":{"id":"lcm_9774d2e4d0","address":"臺北市中正區同安街107號","city":"臺北市","name":"紀州庵文學森林-新館","name_eng":"Kishu An Forest of Literature","type":"歷史與人文","website":"http://kishuan.org.tw","facebook":"https://www.facebook.com/kishuann/","srcWebsite":"https://museums.moc.gov.tw/","source":"offline_l2","precision":"exact"}},{"type":"Feature","geometry":{"type":"Point","coordinates":[120.6550704,24.1927008]},"properties":{"id":"lcm_67344e0a47","address":"臺中市西屯區中科路2201號","city":"臺中市","name":"臺中市立美術館","name_eng":"Taichung Art Museum","type":"藝術與工藝","website":"https://www.tcam.museum/zh","facebook":"https://www.facebook.com/TaichungArtMuseum","srcWebsite":"https://museums.moc.gov.tw/","source":"google","precision":"exact"}},{"type":"Feature","geometry":{"type":"Point","coordinates":[120.7809676,23.4354677]},"properties":{"id":"lcm_cd58550d40","address":"嘉義縣阿里山達邦村1鄰21號","city":"嘉義縣","name":"鄒族自然與文化中心","name_eng":"Tsou Ethnic Nature and Culture Center","type":"綜合與其他","website":"","facebook":"https://www.facebook.com/cou.culture.center?locale=zh_TW","srcWebsite":"https://museums.moc.gov.tw/","source":"google","precision":"approximate"}},{"type":"Feature","geometry":{"type":"Point","coordinates":[120.9474747,22.4965176]},"properties":{"id":"lcm_07259a1047","address":"多良村2鄰15號","city":"","name":"阿底旦文化故事館","name_eng":"Taitung County Angel Cultural and Creative Association","type":"藝術與工藝","website":"","facebook":"","srcWebsite":"https://museums.moc.gov.tw/","source":"google","precision":"approximate"}},{"type":"Feature","geometry":{"type":"Point","coordinates":[121.3167421,23.3350618]},"properties":{"id":"lcm_926e7a5021","address":"花蓮縣玉里鎮民權街50號","city":"花蓮縣","name":"璞石藝術館","name_eng":"none","type":"藝術與工藝","website":"","facebook":"","srcWebsite":"https://museums.moc.gov.tw/","source":"offline_l2","precision":"exact"}},{"type":"Feature","geometry":{"type":"Point","coordinates":[121.5153922,25.0317371]},"properties":{"id":"lcm_b1af21cdcd","address":"臺北市中正區牯嶺街5巷2號","city":"臺北市","name":"牯嶺街小劇場","name_eng":"Guling Street Avant-Garde Theatre","type":"藝術與工藝","website":"","facebook":"","srcWebsite":"https://museums.moc.gov.tw/","source":"offline_l2","precision":"exact"}},{"type":"Feature","geometry":{"type":"Point","coordinates":[120.6223816,24.2350881]},"properties":{"id":"lcm_667182d09f","address":"臺中市大雅區仁愛路路69號","city":"臺中市","name":"臺中市原住民族文化館","name_eng":"Taichung City Indigenous Culture Center","type":"綜合與其他","website":"","facebook":"","srcWebsite":"https://museums.moc.gov.tw/","source":"google","precision":"exact"}},{"type":"Feature","geometry":{"type":"Point","coordinates":[120.6855728,24.4144218]},"properties":{"id":"lcm_cc683b84a5","address":"苗栗縣苑裡鎮灣麗路99號","city":"苗栗縣","name":"藺草文化館","name_eng":"YUAN-LI COUNTRY TRIANGLE RUSH EXHIBITION HALL","type":"藝術與工藝","website":"","facebook":"","srcWebsite":"https://museums.moc.gov.tw/","source":"google","precision":"exact"}},{"type":"Feature","geometry":{"type":"Point","coordinates":[120.8697382,24.4272917]},"properties":{"id":"lcm_b49a20dd9d","address":"苗栗縣大湖鄉民生路200號","city":"苗栗縣","name":"羅福星紀念館","name_eng":"Luo, Fu-Sing Memorial Museum","type":"綜合與其他","website":"","facebook":"","srcWebsite":"https://museums.moc.gov.tw/","source":"google","precision":"exact"}},{"type":"Feature","geometry":{"type":"Point","coordinates":[120.6861306,24.3838517]},"properties":{"id":"lcm_e8aaec0f25","address":"苗栗縣苑裡鎮玉田里91-5號","city":"苗栗縣","name":"山水米有機稻場","name_eng":"SunsuiRice Farm","type":"生活與休閒","website":"","facebook":"https://www.facebook.com/sunsuiricefarm","srcWebsite":"https://museums.moc.gov.tw/","source":"google","precision":"approximate"}},{"type":"Feature","geometry":{"type":"Point","coordinates":[121.0879253,24.73989255]},"properties":{"id":"lcm_a4624289d4","address":"新竹縣竹東鎮三民街60號","city":"新竹縣","name":"蕭如松藝術園區","name_eng":"Hsiao Ju-sung Arts Park","type":"藝術與工藝","website":"","facebook":"","srcWebsite":"https://museums.moc.gov.tw/","source":"offline_l15","precision":"interpolated"}},{"type":"Feature","geometry":{"type":"Point","coordinates":[120.9323512,24.7941839]},"properties":{"id":"lcm_18cca8df02","address":"新竹市香山區牛埔南路372號","city":"新竹市","name":"春池綠能琉璃觀光工廠","name_eng":"spring pool glass","type":"藝術與工藝","website":"","facebook":"https://www.facebook.com/SPGtourismfactory","srcWebsite":"https://museums.moc.gov.tw/","source":"offline_l2","precision":"exact"}},{"type":"Feature","geometry":{"type":"Point","coordinates":[121.2279604,24.8755607]},"properties":{"id":"lcm_e41ece76d6","address":"桃園市桃園區成功路200號","city":"桃園市","name":"桃園忠烈祠暨神社文化園區","name_eng":"Martyrs' Shrine Agency, Taoyuan","type":"歷史與人文","website":"","facebook":"https://www.facebook.com/tycg.confuciustemple/","srcWebsite":"https://museums.moc.gov.tw/","source":"google","precision":"exact"}}]}