{"type":"FeatureCollection","features":[{"type":"Feature","geometry":{"type":"Point","coordinates":[121.512296,25.001618]},"properties":{"name":"國立臺灣圖書館","type":"公共圖書館","county":"新北市"}},{"type":"Feature","geometry":{"type":"Point","coordinates":[120.67032,24.127296]},"properties":{"name":"國立公共資訊圖書館","type":"公共圖書館","county":"臺中市"}},{"type":"Feature","geometry":{"type":"Point","coordinates":[120.632138,24.153334]},"properties":{"name":"國立公共資訊圖書館黎明分館","type":"公共圖書館","county":"臺中市"}},{"type":"Feature","geometry":{"type":"Point","coordinates":[120.693902,23.949923]},"properties":{"name":"國立公共資訊圖書館中興分館","type":"公共圖書館","county":"南投縣"}},{"type":"Feature","geometry":{"type":"Point","coordinates":[121.510441,25.025317]},"properties":{"name":"臺北市立圖書館古亭智慧圖書館","type":"公共圖書館","county":"臺北市"}},{"type":"Feature","geometry":{"type":"Point","coordinates":[121.530902,25.040352]},"properties":{"name":"臺北市立圖書館城中分館","type":"公共圖書館","county":"臺北市"}},{"type":"Feature","geometry":{"type":"Point","coordinates":[121.523776,25.022624]},"properties":{"name":"臺北市立圖書館王貫英先生紀念圖書館","type":"公共圖書館","county":"臺北市"}},{"type":"Feature","geometry":{"type":"Point","coordinates":[121.509076,25.04396]},"properties":{"name":"臺北市立圖書館西門智慧圖書館","type":"公共圖書館","county":"臺北市"}},{"type":"Feature","geometry":{"type":"Point","coordinates":[121.513563,25.074278]},"properties":{"name":"臺北市立圖書館大同分館","type":"公共圖書館","county":"臺北市"}},{"type":"Feature","geometry":{"type":"Point","coordinates":[121.512149,25.059257]},"properties":{"name":"臺北市立圖書館延平分館","type":"公共圖書館","county":"臺北市"}},{"type":"Feature","geometry":{"type":"Point","coordinates":[121.516089,25.056943]},"properties":{"name":"臺北市立圖書館建成分館","type":"公共圖書館","county":"臺北市"}},{"type":"Feature","geometry":{"type":"Point","coordinates":[121.515142,25.06602]},"properties":{"name":"臺北市立圖書館蘭州民眾閱覽室","type":"公共圖書館","county":"臺北市"}},{"type":"Feature","geometry":{"type":"Point","coordinates":[121.5335,25.064272]},"properties":{"name":"臺北市立圖書館中山分館","type":"公共圖書館","county":"臺北市"}},{"type":"Feature","geometry":{"type":"Point","coordinates":[121.546614,25.081856]},"properties":{"name":"臺北市立圖書館大直分館","type":"公共圖書館","county":"臺北市"}},{"type":"Feature","geometry":{"type":"Point","coordinates":[121.527201,25.063438]},"properties":{"name":"臺北市立圖書館恆安民眾閱覽室","type":"公共圖書館","county":"臺北市"}},{"type":"Feature","geometry":{"type":"Point","coordinates":[121.521201,25.050163]},"properties":{"name":"臺北市立圖書館長安分館","type":"公共圖書館","county":"臺北市"}},{"type":"Feature","geometry":{"type":"Point","coordinates":[121.562908,25.059288]},"properties":{"name":"臺北市立圖書館三民分館","type":"公共圖書館","county":"臺北市"}},{"type":"Feature","geometry":{"type":"Point","coordinates":[121.545169,25.048369]},"properties":{"name":"臺北市立圖書館中崙分館","type":"公共圖書館","county":"臺北市"}},{"type":"Feature","geometry":{"type":"Point","coordinates":[121.551476,25.054319]},"properties":{"name":"臺北市立圖書館啟明分館","type":"公共圖書館","county":"臺北市"}},{"type":"Feature","geometry":{"type":"Point","coordinates":[121.576883,25.049859]},"properties":{"name":"臺北市立圖書館松山分館","type":"公共圖書館","county":"臺北市"}},{"type":"Feature","geometry":{"type":"Point","coordinates":[121.55153,25.056993]},"properties":{"name":"臺北市立圖書館民生分館","type":"公共圖書館","county":"臺北市"}},{"type":"Feature","geometry":{"type":"Point","coordinates":[121.538199,25.029137]},"properties":{"name":"臺北市立圖書館","type":"公共圖書館","county":"臺北市"}},{"type":"Feature","geometry":{"type":"Point","coordinates":[121.551878,25.014785]},"properties":{"name":"臺北市立圖書館大安分館","type":"公共圖書館","county":"臺北市"}},{"type":"Feature","geometry":{"type":"Point","coordinates":[121.555161,25.036395]},"properties":{"name":"臺北市立圖書館延吉民眾閱覽室","type":"公共圖書館","county":"臺北市"}},{"type":"Feature","geometry":{"type":"Point","coordinates":[121.545281,25.025505]},"properties":{"name":"臺北市立圖書館成功民眾閱覽室","type":"公共圖書館","county":"臺北市"}},{"type":"Feature","geometry":{"type":"Point","coordinates":[121.544047,25.021574]},"properties":{"name":"臺北市立圖書館道藩分館","type":"公共圖書館","county":"臺北市"}},{"type":"Feature","geometry":{"type":"Point","coordinates":[121.52939,25.028501]},"properties":{"name":"臺北市立圖書館龍安民眾閱覽室","type":"公共圖書館","county":"臺北市"}},{"type":"Feature","geometry":{"type":"Point","coordinates":[121.498129,25.022612]},"properties":{"name":"臺北市立圖書館東園分館","type":"公共圖書館","county":"臺北市"}},{"type":"Feature","geometry":{"type":"Point","coordinates":[121.495473,25.036938]},"properties":{"name":"臺北市立圖書館柳鄉民眾閱覽室","type":"公共圖書館","county":"臺北市"}},{"type":"Feature","geometry":{"type":"Point","coordinates":[121.495667,25.027917]},"properties":{"name":"臺北市立圖書館萬華分館","type":"公共圖書館","county":"臺北市"}},{"type":"Feature","geometry":{"type":"Point","coordinates":[121.501721,25.032228]},"properties":{"name":"臺北市立圖書館西園分館","type":"公共圖書館","county":"臺北市"}},{"type":"Feature","geometry":{"type":"Point","coordinates":[121.502484,25.03858]},"properties":{"name":"臺北市立圖書館龍山分館","type":"公共圖書館","county":"臺北市"}},{"type":"Feature","geometry":{"type":"Point","coordinates":[121.561176,25.029014]},"properties":{"name":"臺北市立圖書館三興分館","type":"公共圖書館","county":"臺北市"}},{"type":"Feature","geometry":{"type":"Point","coordinates":[121.568794,25.024451]},"properties":{"name":"臺北市立圖書館六合分館","type":"公共圖書館","county":"臺北市"}},{"type":"Feature","geometry":{"type":"Point","coordinates":[121.577649,25.043017]},"properties":{"name":"臺北市立圖書館永春分館","type":"公共圖書館","county":"臺北市"}},{"type":"Feature","geometry":{"type":"Point","coordinates":[121.581973,25.037726]},"properties":{"name":"臺北市立圖館廣慈分館","type":"公共圖書館","county":"臺北市"}},{"type":"Feature","geometry":{"type":"Point","coordinates":[121.518346,25.095783]},"properties":{"name":"臺北市立圖書館士林分館","type":"公共圖書館","county":"臺北市"}},{"type":"Feature","geometry":{"type":"Point","coordinates":[121.532947,25.123448]},"properties":{"name":"臺北市立圖書館天母分館","type":"公共圖書館","county":"臺北市"}},{"type":"Feature","geometry":{"type":"Point","coordinates":[121.530603,25.095858]},"properties":{"name":"臺北市立圖書館李科永紀念圖書館","type":"公共圖書館","county":"臺北市"}},{"type":"Feature","geometry":{"type":"Point","coordinates":[121.51075,25.082284]},"properties":{"name":"臺北市立圖書館葫蘆堵分館","type":"公共圖書館","county":"臺北市"}},{"type":"Feature","geometry":{"type":"Point","coordinates":[121.506271,25.136355]},"properties":{"name":"臺北市立圖書館北投分館","type":"公共圖書館","county":"臺北市"}},{"type":"Feature","geometry":{"type":"Point","coordinates":[121.508395,25.119342]},"properties":{"name":"臺北市立圖書館吉利分館","type":"公共圖書館","county":"臺北市"}},{"type":"Feature","geometry":{"type":"Point","coordinates":[121.517585,25.11827]},"properties":{"name":"臺北市立圖書館永明民眾閱覽室","type":"公共圖書館","county":"臺北市"}},{"type":"Feature","geometry":{"type":"Point","coordinates":[121.50721,25.127758]},"properties":{"name":"臺北市立圖書館清江分館","type":"公共圖書館","county":"臺北市"}},{"type":"Feature","geometry":{"type":"Point","coordinates":[121.522702,25.113163]},"properties":{"name":"臺北市立圖書館石牌分館","type":"公共圖書館","county":"臺北市"}},{"type":"Feature","geometry":{"type":"Point","coordinates":[121.493267,25.145566]},"properties":{"name":"臺北市立圖書館秀山民眾閱覽室","type":"公共圖書館","county":"臺北市"}},{"type":"Feature","geometry":{"type":"Point","coordinates":[121.489291,25.140914]},"properties":{"name":"臺北市立圖書館稻香分館","type":"公共圖書館","county":"臺北市"}},{"type":"Feature","geometry":{"type":"Point","coordinates":[121.588923,25.069226]},"properties":{"name":"臺北市立圖書館內湖分館","type":"公共圖書館","county":"臺北市"}},{"type":"Feature","geometry":{"type":"Point","coordinates":[121.612595,25.067565]},"properties":{"name":"臺北市立圖書館東湖分館","type":"公共圖書館","county":"臺北市"}},{"type":"Feature","geometry":{"type":"Point","coordinates":[121.566667,25.084825]},"properties":{"name":"臺北市立圖書館西中分館","type":"公共圖書館","county":"臺北市"}},{"type":"Feature","geometry":{"type":"Point","coordinates":[121.577261,25.078799]},"properties":{"name":"臺北市立圖書館西湖分館","type":"公共圖書館","county":"臺北市"}},{"type":"Feature","geometry":{"type":"Point","coordinates":[121.608261,25.05486]},"properties":{"name":"臺北市立圖書館南港分館","type":"公共圖書館","county":"臺北市"}},{"type":"Feature","geometry":{"type":"Point","coordinates":[121.619458,25.041346]},"properties":{"name":"臺北市立圖書館舊莊分館","type":"公共圖書館","county":"臺北市"}},{"type":"Feature","geometry":{"type":"Point","coordinates":[121.586998,25.047561]},"properties":{"name":"臺北市立圖書館龍華民眾閱覽室","type":"公共圖書館","county":"臺北市"}},{"type":"Feature","geometry":{"type":"Point","coordinates":[121.556273,24.979711]},"properties":{"name":"臺北市立圖書館力行分館","type":"公共圖書館","county":"臺北市"}},{"type":"Feature","geometry":{"type":"Point","coordinates":[121.560809,24.987767]},"properties":{"name":"臺北市立圖書館安康民眾閱覽室","type":"公共圖書館","county":"臺北市"}},{"type":"Feature","geometry":{"type":"Point","coordinates":[121.551407,25.00157]},"properties":{"name":"臺北市立圖書館文山分館","type":"公共圖書館","county":"臺北市"}},{"type":"Feature","geometry":{"type":"Point","coordinates":[121.541916,24.990001]},"properties":{"name":"臺北市立圖書館景新分館","type":"公共圖書館","county":"臺北市"}},{"type":"Feature","geometry":{"type":"Point","coordinates":[121.536554,25.003893]},"properties":{"name":"臺北市立圖書館景美分館","type":"公共圖書館","county":"臺北市"}},{"type":"Feature","geometry":{"type":"Point","coordinates":[121.569186,24.988496]},"properties":{"name":"臺北市立圖書館木柵分館","type":"公共圖書館","county":"臺北市"}},{"type":"Feature","geometry":{"type":"Point","coordinates":[121.550876,24.987719]},"properties":{"name":"臺北市立圖書館永建分館","type":"公共圖書館","county":"臺北市"}},{"type":"Feature","geometry":{"type":"Point","coordinates":[121.57651,24.988622]},"properties":{"name":"臺北市立圖書館萬興分館","type":"公共圖書館","county":"臺北市"}},{"type":"Feature","geometry":{"type":"Point","coordinates":[121.569271,25.00225]},"properties":{"name":"臺北市立圖書館萬芳民眾閱覽室","type":"公共圖書館","county":"臺北市"}},{"type":"Feature","geometry":{"type":"Point","coordinates":[121.455033,25.00154]},"properties":{"name":"新北市立圖書館","type":"公共圖書館","county":"新北市"}},{"type":"Feature","geometry":{"type":"Point","coordinates":[121.458199,25.010806]},"properties":{"name":"新北市立圖書館板橋分館","type":"公共圖書館","county":"新北市"}},{"type":"Feature","geometry":{"type":"Point","coordinates":[121.463635,25.024684]},"properties":{"name":"新北市立圖書館板橋四維分館","type":"公共圖書館","county":"新北市"}},{"type":"Feature","geometry":{"type":"Point","coordinates":[121.453538,25.020347]},"properties":{"name":"新北市立圖書館板橋國光圖書閱覽室","type":"公共圖書館","county":"新北市"}},{"type":"Feature","geometry":{"type":"Point","coordinates":[121.460104,24.997434]},"properties":{"name":"新北市立圖書館板橋忠孝分館","type":"公共圖書館","county":"新北市"}},{"type":"Feature","geometry":{"type":"Point","coordinates":[121.476056,25.013522]},"properties":{"name":"新北市立圖書館板橋民生圖書閱覽室","type":"公共圖書館","county":"新北市"}},{"type":"Feature","geometry":{"type":"Point","coordinates":[121.472256,25.025996]},"properties":{"name":"新北市立圖書館板橋江子翠分館","type":"公共圖書館","county":"新北市"}},{"type":"Feature","geometry":{"type":"Point","coordinates":[121.44539,25.000521]},"properties":{"name":"新北市立圖書館板橋浮洲圖書閱覽室","type":"公共圖書館","county":"新北市"}},{"type":"Feature","geometry":{"type":"Point","coordinates":[121.431579,24.990281]},"properties":{"name":"新北市立圖書館板橋溪北分館","type":"公共圖書館","county":"新北市"}},{"type":"Feature","geometry":{"type":"Point","coordinates":[121.472261,25.02231]},"properties":{"name":"新北市立圖書館板橋萬板親子圖書閱覽室","type":"公共圖書館","county":"新北市"}},{"type":"Feature","geometry":{"type":"Point","coordinates":[121.658977,25.063829]},"properties":{"name":"新北市立圖書館汐止分館","type":"公共圖書館","county":"新北市"}},{"type":"Feature","geometry":{"type":"Point","coordinates":[121.631708,25.063989]},"properties":{"name":"新北市立圖書館汐止北峰圖書閱覽室","type":"公共圖書館","county":"新北市"}},{"type":"Feature","geometry":{"type":"Point","coordinates":[121.659536,25.068168]},"properties":{"name":"新北市立圖書館汐止大同分館","type":"公共圖書館","county":"新北市"}},{"type":"Feature","geometry":{"type":"Point","coordinates":[121.620148,25.050522]},"properties":{"name":"新北市立圖書館汐止橫科圖書閱覽室","type":"公共圖書館","county":"新北市"}},{"type":"Feature","geometry":{"type":"Point","coordinates":[121.654495,25.070078]},"properties":{"name":"新北市立圖書館汐止江北分館","type":"公共圖書館","county":"新北市"}},{"type":"Feature","geometry":{"type":"Point","coordinates":[121.672036,25.069151]},"properties":{"name":"新北市立圖書館汐止茄苳分館","type":"公共圖書館","county":"新北市"}},{"type":"Feature","geometry":{"type":"Point","coordinates":[121.615966,25.002523]},"properties":{"name":"新北市立圖書館深坑分館","type":"公共圖書館","county":"新北市"}},{"type":"Feature","geometry":{"type":"Point","coordinates":[121.660075,24.991555]},"properties":{"name":"新北市立圖書館石碇分館","type":"公共圖書館","county":"新北市"}},{"type":"Feature","geometry":{"type":"Point","coordinates":[121.808852,25.107164]},"properties":{"name":"新北市立圖書館瑞芳分館","type":"公共圖書館","county":"新北市"}},{"type":"Feature","geometry":{"type":"Point","coordinates":[121.804286,25.106376]},"properties":{"name":"新北市立圖書館瑞芳東和圖書閱覽室","type":"公共圖書館","county":"新北市"}},{"type":"Feature","geometry":{"type":"Point","coordinates":[121.737185,25.024681]},"properties":{"name":"新北市立圖書館平溪分館","type":"公共圖書館","county":"新北市"}},{"type":"Feature","geometry":{"type":"Point","coordinates":[121.864705,25.035318]},"properties":{"name":"新北市立圖書館雙溪分館","type":"公共圖書館","county":"新北市"}},{"type":"Feature","geometry":{"type":"Point","coordinates":[121.926916,25.054775]},"properties":{"name":"新北市立圖書館貢寮分館","type":"公共圖書館","county":"新北市"}},{"type":"Feature","geometry":{"type":"Point","coordinates":[121.537331,24.970948]},"properties":{"name":"新北市立圖書館新店三民圖書閱覽室","type":"公共圖書館","county":"新北市"}},{"type":"Feature","geometry":{"type":"Point","coordinates":[121.527603,24.975446]},"properties":{"name":"新北市立圖書館新店中央圖書閱覽室","type":"公共圖書館","county":"新北市"}},{"type":"Feature","geometry":{"type":"Point","coordinates":[121.537238,24.973499]},"properties":{"name":"新北市立圖書館新店中正閱覽室","type":"公共圖書館","county":"新北市"}},{"type":"Feature","geometry":{"type":"Point","coordinates":[121.540702,24.975387]},"properties":{"name":"新北市立圖書館新店仁愛圖書閱覽室","type":"公共圖書館","county":"新北市"}},{"type":"Feature","geometry":{"type":"Point","coordinates":[121.541029,24.982169]},"properties":{"name":"新北市立圖書館新店分館","type":"公共圖書館","county":"新北市"}},{"type":"Feature","geometry":{"type":"Point","coordinates":[121.542372,24.968144]},"properties":{"name":"新北市立圖書館新店北新圖書閱覽室","type":"公共圖書館","county":"新北市"}},{"type":"Feature","geometry":{"type":"Point","coordinates":[121.534942,24.991423]},"properties":{"name":"新北市立圖書館新店大鵬圖書閱覽室","type":"公共圖書館","county":"新北市"}},{"type":"Feature","geometry":{"type":"Point","coordinates":[121.545762,24.981347]},"properties":{"name":"新北市立圖書館新店寶興圖書閱覽室","type":"公共圖書館","county":"新北市"}},{"type":"Feature","geometry":{"type":"Point","coordinates":[121.51657,24.967379]},"properties":{"name":"新北市立圖書館新店柴埕圖書閱覽室","type":"公共圖書館","county":"新北市"}},{"type":"Feature","geometry":{"type":"Point","coordinates":[121.537091,24.956646]},"properties":{"name":"新北市立圖書館新店碧潭圖書閱覽室","type":"公共圖書館","county":"新北市"}},{"type":"Feature","geometry":{"type":"Point","coordinates":[121.533259,24.97305]},"properties":{"name":"新北市立圖書館新店福民閱覽室","type":"公共圖書館","county":"新北市"}},{"type":"Feature","geometry":{"type":"Point","coordinates":[121.552014,24.903139]},"properties":{"name":"新北市立圖書館新店龜山圖書閱覽室","type":"公共圖書館","county":"新北市"}},{"type":"Feature","geometry":{"type":"Point","coordinates":[121.510777,24.959673]},"properties":{"name":"新北市青少年圖書館","type":"公共圖書館","county":"新北市"}},{"type":"Feature","geometry":{"type":"Point","coordinates":[121.712738,24.937042]},"properties":{"name":"新北市立圖書館坪林分館","type":"公共圖書館","county":"新北市"}},{"type":"Feature","geometry":{"type":"Point","coordinates":[121.505229,25.012968]},"properties":{"name":"新北市立圖書館永和保生分館","type":"公共圖書館","county":"新北市"}},{"type":"Feature","geometry":{"type":"Point","coordinates":[121.519933,25.008656]},"properties":{"name":"新北市立圖書館永和分館","type":"公共圖書館","county":"新北市"}},{"type":"Feature","geometry":{"type":"Point","coordinates":[121.515312,25.016856]},"properties":{"name":"新北市立圖書館永和忠孝圖書閱覽室","type":"公共圖書館","county":"新北市"}},{"type":"Feature","geometry":{"type":"Point","coordinates":[121.519921,24.998018]},"properties":{"name":"新北市立圖書館永和民權分館","type":"公共圖書館","county":"新北市"}},{"type":"Feature","geometry":{"type":"Point","coordinates":[121.508869,25.015394]},"properties":{"name":"新北市立圖書館永和親子圖書閱覽室","type":"公共圖書館","county":"新北市"}},{"type":"Feature","geometry":{"type":"Point","coordinates":[121.506503,24.989655]},"properties":{"name":"新北市立圖書館中和分館","type":"公共圖書館","county":"新北市"}},{"type":"Feature","geometry":{"type":"Point","coordinates":[121.474129,25.003573]},"properties":{"name":"新北市立圖書館中和員山分館","type":"公共圖書館","county":"新北市"}},{"type":"Feature","geometry":{"type":"Point","coordinates":[121.499668,24.996108]},"properties":{"name":"新北市立圖書館中和大同圖書閱覽室","type":"公共圖書館","county":"新北市"}},{"type":"Feature","geometry":{"type":"Point","coordinates":[121.44301,24.975074]},"properties":{"name":"新北市立圖書館土城分館","type":"公共圖書館","county":"新北市"}},{"type":"Feature","geometry":{"type":"Point","coordinates":[121.45197,24.987034]},"properties":{"name":"新北市立圖書館土城柑林埤圖書閱覽室","type":"公共圖書館","county":"新北市"}},{"type":"Feature","geometry":{"type":"Point","coordinates":[121.461454,24.983454]},"properties":{"name":"新北市立圖書館土城清水圖書閱覽室","type":"公共圖書館","county":"新北市"}},{"type":"Feature","geometry":{"type":"Point","coordinates":[121.411837,24.952716]},"properties":{"name":"新北市立圖書館土城祖田圖書閱覽室","type":"公共圖書館","county":"新北市"}},{"type":"Feature","geometry":{"type":"Point","coordinates":[121.415179,24.95816]},"properties":{"name":"新北市立圖書館土城親子分館","type":"公共圖書館","county":"新北市"}},{"type":"Feature","geometry":{"type":"Point","coordinates":[121.376455,24.929605]},"properties":{"name":"新北市立圖書館三峽分館","type":"公共圖書館","county":"新北市"}},{"type":"Feature","geometry":{"type":"Point","coordinates":[121.404343,25.016611]},"properties":{"name":"新北市立圖書館樹林三多圖書閱覽室","type":"公共圖書館","county":"新北市"}},{"type":"Feature","geometry":{"type":"Point","coordinates":[121.428524,24.99614]},"properties":{"name":"新北市立圖書館樹林分館","type":"公共圖書館","county":"新北市"}},{"type":"Feature","geometry":{"type":"Point","coordinates":[121.42094,24.996489]},"properties":{"name":"新北市立圖書館樹林大安圖書閱覽室","type":"公共圖書館","county":"新北市"}},{"type":"Feature","geometry":{"type":"Point","coordinates":[121.422187,24.979845]},"properties":{"name":"新北市立圖書館樹林彭厝圖書閱覽室","type":"公共圖書館","county":"新北市"}},{"type":"Feature","geometry":{"type":"Point","coordinates":[121.415188,24.984061]},"properties":{"name":"新北市立圖書館樹林東昇分館","type":"公共圖書館","county":"新北市"}},{"type":"Feature","geometry":{"type":"Point","coordinates":[121.386183,24.950831]},"properties":{"name":"新北市立圖書館樹林柑園圖書閱覽室","type":"公共圖書館","county":"新北市"}},{"type":"Feature","geometry":{"type":"Point","coordinates":[121.389858,24.973637]},"properties":{"name":"新北市立圖書館樹林樂山圖書閱覽室","type":"公共圖書館","county":"新北市"}},{"type":"Feature","geometry":{"type":"Point","coordinates":[121.338623,24.940009]},"properties":{"name":"新北市立圖書館鶯歌二甲圖書閱覽室","type":"公共圖書館","county":"新北市"}},{"type":"Feature","geometry":{"type":"Point","coordinates":[121.349518,24.957359]},"properties":{"name":"新北市立圖書館鶯歌分館","type":"公共圖書館","county":"新北市"}},{"type":"Feature","geometry":{"type":"Point","coordinates":[121.496095,25.080796]},"properties":{"name":"新北市立圖書館三重五常分館","type":"公共圖書館","county":"新北市"}},{"type":"Feature","geometry":{"type":"Point","coordinates":[121.495667,25.066248]},"properties":{"name":"新北市立圖書館三重分館","type":"公共圖書館","county":"新北市"}},{"type":"Feature","geometry":{"type":"Point","coordinates":[121.491359,25.057122]},"properties":{"name":"新北市立圖書館三重南區分館","type":"公共圖書館","county":"新北市"}},{"type":"Feature","geometry":{"type":"Point","coordinates":[121.485965,25.071509]},"properties":{"name":"新北市立圖書館三重培德分館","type":"公共圖書館","county":"新北市"}},{"type":"Feature","geometry":{"type":"Point","coordinates":[121.497317,25.074459]},"properties":{"name":"新北市立圖書館三重崇德分館","type":"公共圖書館","county":"新北市"}},{"type":"Feature","geometry":{"type":"Point","coordinates":[121.487662,25.08367]},"properties":{"name":"新北市立圖書館三重東區分館","type":"公共圖書館","county":"新北市"}},{"type":"Feature","geometry":{"type":"Point","coordinates":[121.483136,25.065538]},"properties":{"name":"新北市立圖書館三重田中分館","type":"公共圖書館","county":"新北市"}},{"type":"Feature","geometry":{"type":"Point","coordinates":[121.451967,25.046313]},"properties":{"name":"新北市立圖書館新莊中港分館","type":"公共圖書館","county":"新北市"}},{"type":"Feature","geometry":{"type":"Point","coordinates":[121.452248,25.036409]},"properties":{"name":"新北市立圖書館新莊分館","type":"公共圖書館","county":"新北市"}},{"type":"Feature","geometry":{"type":"Point","coordinates":[121.423752,25.024295]},"properties":{"name":"新北市立圖書館新莊福營分館","type":"公共圖書館","county":"新北市"}},{"type":"Feature","geometry":{"type":"Point","coordinates":[121.45597,25.04799]},"properties":{"name":"新北市立圖書館新莊聯合分館","type":"公共圖書館","county":"新北市"}},{"type":"Feature","geometry":{"type":"Point","coordinates":[121.41778,25.021885]},"properties":{"name":"新北市立圖書館新莊裕民分館","type":"公共圖書館","county":"新北市"}},{"type":"Feature","geometry":{"type":"Point","coordinates":[121.428004,25.017184]},"properties":{"name":"新北市立圖書館新莊西盛分館","type":"公共圖書館","county":"新北市"}},{"type":"Feature","geometry":{"type":"Point","coordinates":[121.459484,25.055184]},"properties":{"name":"新北市立圖書館新莊頭前智慧圖書館","type":"公共圖書館","county":"新北市"}},{"type":"Feature","geometry":{"type":"Point","coordinates":[121.433653,25.056131]},"properties":{"name":"新北市立圖書館泰山分館","type":"公共圖書館","county":"新北市"}},{"type":"Feature","geometry":{"type":"Point","coordinates":[121.434895,25.061662]},"properties":{"name":"新北市立圖書館泰山親子圖書閱覽室","type":"公共圖書館","county":"新北市"}},{"type":"Feature","geometry":{"type":"Point","coordinates":[121.423627,25.039866]},"properties":{"name":"新北市立圖書館泰山貴子分館","type":"公共圖書館","county":"新北市"}},{"type":"Feature","geometry":{"type":"Point","coordinates":[121.364058,25.069734]},"properties":{"name":"新北市立圖書館林口分館","type":"公共圖書館","county":"新北市"}},{"type":"Feature","geometry":{"type":"Point","coordinates":[121.377252,25.068777]},"properties":{"name":"新北市立圖書館林口東勢閱覽室","type":"公共圖書館","county":"新北市"}},{"type":"Feature","geometry":{"type":"Point","coordinates":[121.483695,25.085719]},"properties":{"name":"新北市立圖書館蘆洲兒童親子分館","type":"公共圖書館","county":"新北市"}},{"type":"Feature","geometry":{"type":"Point","coordinates":[121.462587,25.078589]},"properties":{"name":"新北市立圖書館蘆洲永安圖書閱覽室","type":"公共圖書館","county":"新北市"}},{"type":"Feature","geometry":{"type":"Point","coordinates":[121.459174,25.090359]},"properties":{"name":"新北市立圖書館蘆洲永平分館","type":"公共圖書館","county":"新北市"}},{"type":"Feature","geometry":{"type":"Point","coordinates":[121.46194,25.080733]},"properties":{"name":"新北市立圖書館蘆洲長安分館","type":"公共圖書館","county":"新北市"}},{"type":"Feature","geometry":{"type":"Point","coordinates":[121.481622,25.08483]},"properties":{"name":"新北市立圖書館蘆洲集賢分館","type":"公共圖書館","county":"新北市"}},{"type":"Feature","geometry":{"type":"Point","coordinates":[121.439817,25.082467]},"properties":{"name":"新北市立圖書館五股分館","type":"公共圖書館","county":"新北市"}},{"type":"Feature","geometry":{"type":"Point","coordinates":[121.446433,25.094598]},"properties":{"name":"新北市立圖書館五股成功分館","type":"公共圖書館","county":"新北市"}},{"type":"Feature","geometry":{"type":"Point","coordinates":[121.449355,25.098099]},"properties":{"name":"新北市立圖書館五股成州圖書閱覽室","type":"公共圖書館","county":"新北市"}},{"type":"Feature","geometry":{"type":"Point","coordinates":[121.457261,25.079366]},"properties":{"name":"新北市立圖書館五股更新圖書閱覽室","type":"公共圖書館","county":"新北市"}},{"type":"Feature","geometry":{"type":"Point","coordinates":[121.433452,25.071538]},"properties":{"name":"新北市立圖書館五股水碓分館","type":"公共圖書館","county":"新北市"}},{"type":"Feature","geometry":{"type":"Point","coordinates":[121.399865,25.146582]},"properties":{"name":"新北市立圖書館八里分館","type":"公共圖書館","county":"新北市"}},{"type":"Feature","geometry":{"type":"Point","coordinates":[121.437958,25.172808]},"properties":{"name":"新北市立圖書館淡水分館","type":"公共圖書館","county":"新北市"}},{"type":"Feature","geometry":{"type":"Point","coordinates":[121.444153,25.178033]},"properties":{"name":"新北市立圖書館淡水水碓分館","type":"公共圖書館","county":"新北市"}},{"type":"Feature","geometry":{"type":"Point","coordinates":[121.461355,25.13802]},"properties":{"name":"新北市立圖書館淡水竹圍分館","type":"公共圖書館","county":"新北市"}},{"type":"Feature","geometry":{"type":"Point","coordinates":[121.501179,25.259432]},"properties":{"name":"新北市立圖書館三芝分館","type":"公共圖書館","county":"新北市"}},{"type":"Feature","geometry":{"type":"Point","coordinates":[121.566842,25.292022]},"properties":{"name":"新北市立圖書館石門分館","type":"公共圖書館","county":"新北市"}},{"type":"Feature","geometry":{"type":"Point","coordinates":[121.225879,24.958854]},"properties":{"name":"桃園市立圖書館中壢分館","type":"公共圖書館","county":"桃園市"}},{"type":"Feature","geometry":{"type":"Point","coordinates":[121.235926,24.961893]},"properties":{"name":"桃園市立圖書館中華閱覽室","type":"公共圖書館","county":"桃園市"}},{"type":"Feature","geometry":{"type":"Point","coordinates":[121.258069,24.97792]},"properties":{"name":"桃園市立圖書館內壢分館","type":"公共圖書館","county":"桃園市"}},{"type":"Feature","geometry":{"type":"Point","coordinates":[121.258666,24.967933]},"properties":{"name":"桃園市立圖書館自強分館","type":"公共圖書館","county":"桃園市"}},{"type":"Feature","geometry":{"type":"Point","coordinates":[121.255788,24.937684]},"properties":{"name":"桃園市立圖書館龍岡分館","type":"公共圖書館","county":"桃園市"}},{"type":"Feature","geometry":{"type":"Point","coordinates":[121.213256,24.901318]},"properties":{"name":"桃園市立圖書館山仔頂分館","type":"公共圖書館","county":"桃園市"}},{"type":"Feature","geometry":{"type":"Point","coordinates":[121.217775,24.939761]},"properties":{"name":"桃園市立圖書館平鎮分館","type":"公共圖書館","county":"桃園市"}},{"type":"Feature","geometry":{"type":"Point","coordinates":[121.231453,24.910433]},"properties":{"name":"桃園市立圖書館東勢分館","type":"公共圖書館","county":"桃園市"}},{"type":"Feature","geometry":{"type":"Point","coordinates":[121.222325,24.871888]},"properties":{"name":"桃園市立圖書館龍潭分館","type":"公共圖書館","county":"桃園市"}},{"type":"Feature","geometry":{"type":"Point","coordinates":[121.21653,24.864041]},"properties":{"name":"桃園市立圖書館龍潭閱覽室","type":"公共圖書館","county":"桃園市"}},{"type":"Feature","geometry":{"type":"Point","coordinates":[121.186324,24.915135]},"properties":{"name":"桃園市立圖書館埔心分館","type":"公共圖書館","county":"桃園市"}},{"type":"Feature","geometry":{"type":"Point","coordinates":[121.081123,24.934777]},"properties":{"name":"桃園市立圖書館富岡分館","type":"公共圖書館","county":"桃園市"}},{"type":"Feature","geometry":{"type":"Point","coordinates":[121.145282,24.908228]},"properties":{"name":"桃園市立圖書館楊梅分館","type":"公共圖書館","county":"桃園市"}},{"type":"Feature","geometry":{"type":"Point","coordinates":[121.145352,24.905104]},"properties":{"name":"桃園市立圖書館紅梅分館","type":"公共圖書館","county":"桃園市"}},{"type":"Feature","geometry":{"type":"Point","coordinates":[121.10269,24.97076]},"properties":{"name":"桃園市立圖書館新屋分館","type":"公共圖書館","county":"桃園市"}},{"type":"Feature","geometry":{"type":"Point","coordinates":[121.132313,25.015702]},"properties":{"name":"桃園市立圖書館新坡分館","type":"公共圖書館","county":"桃園市"}},{"type":"Feature","geometry":{"type":"Point","coordinates":[121.146065,25.047938]},"properties":{"name":"桃園市立圖書館草漯分館","type":"公共圖書館","county":"桃園市"}},{"type":"Feature","geometry":{"type":"Point","coordinates":[121.082832,25.035359]},"properties":{"name":"桃園市立圖書館觀音分館","type":"公共圖書館","county":"桃園市"}},{"type":"Feature","geometry":{"type":"Point","coordinates":[121.291734,24.986517]},"properties":{"name":"桃園市立圖書館中路分館","type":"公共圖書館","county":"桃園市"}},{"type":"Feature","geometry":{"type":"Point","coordinates":[121.297491,25.023707]},"properties":{"name":"桃園市立圖書館埔子分館","type":"公共圖書館","county":"桃園市"}},{"type":"Feature","geometry":{"type":"Point","coordinates":[121.320805,24.977934]},"properties":{"name":"桃園市立圖書館大林分館","type":"公共圖書館","county":"桃園市"}},{"type":"Feature","geometry":{"type":"Point","coordinates":[121.313803,25.012712]},"properties":{"name":"桃園市立圖書館寶興閱覽室","type":"公共圖書館","county":"桃園市"}},{"type":"Feature","geometry":{"type":"Point","coordinates":[121.300333,24.99403]},"properties":{"name":"桃園市立圖書館文化局分館","type":"公共圖書館","county":"桃園市"}},{"type":"Feature","geometry":{"type":"Point","coordinates":[121.300359,25.018142]},"properties":{"name":"桃園市立圖書館新總館","type":"公共圖書館","county":"桃園市"}},{"type":"Feature","geometry":{"type":"Point","coordinates":[121.316237,25.000678]},"properties":{"name":"桃園市立圖書館會稽分館","type":"公共圖書館","county":"桃園市"}},{"type":"Feature","geometry":{"type":"Point","coordinates":[121.311394,24.990695]},"properties":{"name":"桃園市立圖書館桃園分館","type":"公共圖書館","county":"桃園市"}},{"type":"Feature","geometry":{"type":"Point","coordinates":[121.353607,25.049396]},"properties":{"name":"桃園市立圖書館大崗分館","type":"公共圖書館","county":"桃園市"}},{"type":"Feature","geometry":{"type":"Point","coordinates":[121.327123,24.992501]},"properties":{"name":"桃園市立圖書館山德分館","type":"公共圖書館","county":"桃園市"}},{"type":"Feature","geometry":{"type":"Point","coordinates":[121.408759,25.019581]},"properties":{"name":"桃園市立圖書館迴龍分館","type":"公共圖書館","county":"桃園市"}},{"type":"Feature","geometry":{"type":"Point","coordinates":[121.338484,24.992012]},"properties":{"name":"桃園市立圖書館龜山分館","type":"公共圖書館","county":"桃園市"}},{"type":"Feature","geometry":{"type":"Point","coordinates":[121.30121,24.956749]},"properties":{"name":"桃園市立圖書館兒童玩具圖書館","type":"公共圖書館","county":"桃園市"}},{"type":"Feature","geometry":{"type":"Point","coordinates":[121.284821,24.929059]},"properties":{"name":"桃園市立圖書館八德分館","type":"公共圖書館","county":"桃園市"}},{"type":"Feature","geometry":{"type":"Point","coordinates":[121.301911,24.956895]},"properties":{"name":"桃園市立圖書館大湳分館","type":"公共圖書館","county":"桃園市"}},{"type":"Feature","geometry":{"type":"Point","coordinates":[121.29874,24.957745]},"properties":{"name":"桃園市立圖書館建國閱覽室","type":"公共圖書館","county":"桃園市"}},{"type":"Feature","geometry":{"type":"Point","coordinates":[121.293982,24.959828]},"properties":{"name":"桃園市立圖書館景雲分館","type":"公共圖書館","county":"桃園市"}},{"type":"Feature","geometry":{"type":"Point","coordinates":[121.285976,24.880979]},"properties":{"name":"桃園市立圖書館大溪分館","type":"公共圖書館","county":"桃園市"}},{"type":"Feature","geometry":{"type":"Point","coordinates":[121.284103,24.904835]},"properties":{"name":"桃園市立圖書館崎頂分館","type":"公共圖書館","county":"桃園市"}},{"type":"Feature","geometry":{"type":"Point","coordinates":[121.28507,24.868948]},"properties":{"name":"桃園市立圖書館康莊分館","type":"公共圖書館","county":"桃園市"}},{"type":"Feature","geometry":{"type":"Point","coordinates":[121.258306,25.073071]},"properties":{"name":"桃園市立圖書館三和分館","type":"公共圖書館","county":"桃園市"}},{"type":"Feature","geometry":{"type":"Point","coordinates":[121.195436,25.064172]},"properties":{"name":"桃園市立圖書館大園分館","type":"公共圖書館","county":"桃園市"}},{"type":"Feature","geometry":{"type":"Point","coordinates":[121.296443,25.05321]},"properties":{"name":"桃園市立圖書館兒童文學館","type":"公共圖書館","county":"桃園市"}},{"type":"Feature","geometry":{"type":"Point","coordinates":[121.294964,25.046564]},"properties":{"name":"桃園市立圖書館南崁分館","type":"公共圖書館","county":"桃園市"}},{"type":"Feature","geometry":{"type":"Point","coordinates":[121.26155,25.018279]},"properties":{"name":"桃園市立圖書館大竹分館","type":"公共圖書館","county":"桃園市"}},{"type":"Feature","geometry":{"type":"Point","coordinates":[121.300556,25.081619]},"properties":{"name":"桃園市立圖書館山腳分館","type":"公共圖書館","county":"桃園市"}},{"type":"Feature","geometry":{"type":"Point","coordinates":[121.296443,25.05321]},"properties":{"name":"桃園市立圖書館蘆竹分館","type":"公共圖書館","county":"桃園市"}},{"type":"Feature","geometry":{"type":"Point","coordinates":[120.679527,24.143929]},"properties":{"name":"臺中市立圖書館中區分館","type":"公共圖書館","county":"臺中市"}},{"type":"Feature","geometry":{"type":"Point","coordinates":[120.689611,24.1294]},"properties":{"name":"臺中市立圖書館東區分館","type":"公共圖書館","county":"臺中市"}},{"type":"Feature","geometry":{"type":"Point","coordinates":[120.669748,24.120119]},"properties":{"name":"臺中市立圖書館南區分館","type":"公共圖書館","county":"臺中市"}},{"type":"Feature","geometry":{"type":"Point","coordinates":[120.665695,24.141523]},"properties":{"name":"臺中市立圖書館大墩分館","type":"公共圖書館","county":"臺中市"}},{"type":"Feature","geometry":{"type":"Point","coordinates":[120.654962,24.149327]},"properties":{"name":"臺中市立圖書館西區分館","type":"公共圖書館","county":"臺中市"}},{"type":"Feature","geometry":{"type":"Point","coordinates":[120.684744,24.145884]},"properties":{"name":"國立公共資訊圖書館精武分館(臺中市立圖書館營運)","type":"公共圖書館","county":"臺中市"}},{"type":"Feature","geometry":{"type":"Point","coordinates":[120.683172,24.158936]},"properties":{"name":"臺中市立圖書館北區分館","type":"公共圖書館","county":"臺中市"}},{"type":"Feature","geometry":{"type":"Point","coordinates":[120.694214,24.174471]},"properties":{"name":"臺中市立圖書館北屯分館","type":"公共圖書館","county":"臺中市"}},{"type":"Feature","geometry":{"type":"Point","coordinates":[120.680172,24.194919]},"properties":{"name":"臺中市立圖書館總館","type":"公共圖書館","county":"臺中市"}},{"type":"Feature","geometry":{"type":"Point","coordinates":[120.694577,24.169386]},"properties":{"name":"臺中市立圖書館興安分館","type":"公共圖書館","county":"臺中市"}},{"type":"Feature","geometry":{"type":"Point","coordinates":[120.625544,24.175643]},"properties":{"name":"臺中市立圖書館溪西分館","type":"公共圖書館","county":"臺中市"}},{"type":"Feature","geometry":{"type":"Point","coordinates":[120.648954,24.172841]},"properties":{"name":"臺中市立圖書館西屯分館","type":"公共圖書館","county":"臺中市"}},{"type":"Feature","geometry":{"type":"Point","coordinates":[120.645075,24.14963]},"properties":{"name":"臺中市立圖書館南屯分館","type":"公共圖書館","county":"臺中市"}},{"type":"Feature","geometry":{"type":"Point","coordinates":[120.626405,24.152045]},"properties":{"name":"臺中市立圖書館李科永紀念圖書分館","type":"公共圖書館","county":"臺中市"}},{"type":"Feature","geometry":{"type":"Point","coordinates":[120.721771,24.118883]},"properties":{"name":"臺中市立圖書館太平分館","type":"公共圖書館","county":"臺中市"}},{"type":"Feature","geometry":{"type":"Point","coordinates":[120.731354,24.14218]},"properties":{"name":"臺中市立圖書館太平坪林分館","type":"公共圖書館","county":"臺中市"}},{"type":"Feature","geometry":{"type":"Point","coordinates":[120.695662,24.087683]},"properties":{"name":"臺中市立圖書館大里分館","type":"公共圖書館","county":"臺中市"}},{"type":"Feature","geometry":{"type":"Point","coordinates":[120.678451,24.099651]},"properties":{"name":"臺中市立圖書館大里大新分館","type":"公共圖書館","county":"臺中市"}},{"type":"Feature","geometry":{"type":"Point","coordinates":[120.686173,24.108108]},"properties":{"name":"臺中市立圖書館大里德芳分館","type":"公共圖書館","county":"臺中市"}},{"type":"Feature","geometry":{"type":"Point","coordinates":[120.699267,24.061526]},"properties":{"name":"臺中市立圖書館霧峰以文分館","type":"公共圖書館","county":"臺中市"}},{"type":"Feature","geometry":{"type":"Point","coordinates":[120.637366,24.10934]},"properties":{"name":"臺中市立圖書館烏日分館","type":"公共圖書館","county":"臺中市"}},{"type":"Feature","geometry":{"type":"Point","coordinates":[120.730565,24.2525]},"properties":{"name":"臺中市立圖書館葫蘆墩分館","type":"公共圖書館","county":"臺中市"}},{"type":"Feature","geometry":{"type":"Point","coordinates":[120.717405,24.241135]},"properties":{"name":"臺中市立圖書館豐原分館","type":"公共圖書館","county":"臺中市"}},{"type":"Feature","geometry":{"type":"Point","coordinates":[120.74481,24.25485]},"properties":{"name":"臺中市立圖書館豐原南嵩分館","type":"公共圖書館","county":"臺中市"}},{"type":"Feature","geometry":{"type":"Point","coordinates":[120.715416,24.306886]},"properties":{"name":"臺中市立圖書館后里分館","type":"公共圖書館","county":"臺中市"}},{"type":"Feature","geometry":{"type":"Point","coordinates":[120.77587,24.273927]},"properties":{"name":"臺中市立圖書館石岡分館","type":"公共圖書館","county":"臺中市"}},{"type":"Feature","geometry":{"type":"Point","coordinates":[120.827851,24.258564]},"properties":{"name":"臺中市立圖書館東勢分館","type":"公共圖書館","county":"臺中市"}},{"type":"Feature","geometry":{"type":"Point","coordinates":[120.809513,24.240398]},"properties":{"name":"臺中市立圖書館新社分館","type":"公共圖書館","county":"臺中市"}},{"type":"Feature","geometry":{"type":"Point","coordinates":[120.705325,24.21493]},"properties":{"name":"臺中市立圖書館潭子分館","type":"公共圖書館","county":"臺中市"}},{"type":"Feature","geometry":{"type":"Point","coordinates":[120.666482,24.236934]},"properties":{"name":"臺中市立圖書館上楓分館","type":"公共圖書館","county":"臺中市"}},{"type":"Feature","geometry":{"type":"Point","coordinates":[120.650267,24.221822]},"properties":{"name":"臺中市立圖書館大雅分館","type":"公共圖書館","county":"臺中市"}},{"type":"Feature","geometry":{"type":"Point","coordinates":[120.660956,24.259063]},"properties":{"name":"臺中市立圖書館神岡分館","type":"公共圖書館","county":"臺中市"}},{"type":"Feature","geometry":{"type":"Point","coordinates":[120.540962,24.153804]},"properties":{"name":"臺中市立圖書館大肚分館","type":"公共圖書館","county":"臺中市"}},{"type":"Feature","geometry":{"type":"Point","coordinates":[120.568398,24.15846]},"properties":{"name":"臺中市立圖書館大肚瑞井分館","type":"公共圖書館","county":"臺中市"}},{"type":"Feature","geometry":{"type":"Point","coordinates":[120.562098,24.236289]},"properties":{"name":"臺中市立圖書館沙鹿文昌分館","type":"公共圖書館","county":"臺中市"}},{"type":"Feature","geometry":{"type":"Point","coordinates":[120.564458,24.233539]},"properties":{"name":"臺中市立圖書館沙鹿深波分館","type":"公共圖書館","county":"臺中市"}},{"type":"Feature","geometry":{"type":"Point","coordinates":[120.545106,24.192433]},"properties":{"name":"臺中市立圖書館龍井分館","type":"公共圖書館","county":"臺中市"}},{"type":"Feature","geometry":{"type":"Point","coordinates":[120.574808,24.182908]},"properties":{"name":"臺中市立圖書館龍井山頂分館","type":"公共圖書館","county":"臺中市"}},{"type":"Feature","geometry":{"type":"Point","coordinates":[120.523016,24.200892]},"properties":{"name":"臺中市立圖書館龍井龍津分館","type":"公共圖書館","county":"臺中市"}},{"type":"Feature","geometry":{"type":"Point","coordinates":[120.531513,24.2546]},"properties":{"name":"臺中市立圖書館梧棲分館","type":"公共圖書館","county":"臺中市"}},{"type":"Feature","geometry":{"type":"Point","coordinates":[120.533033,24.251865]},"properties":{"name":"臺中市立圖書館梧棲親子館","type":"公共圖書館","county":"臺中市"}},{"type":"Feature","geometry":{"type":"Point","coordinates":[120.5614,24.266628]},"properties":{"name":"臺中市立圖書館清水分館","type":"公共圖書館","county":"臺中市"}},{"type":"Feature","geometry":{"type":"Point","coordinates":[120.624547,24.350896]},"properties":{"name":"臺中市立圖書館大甲分館","type":"公共圖書館","county":"臺中市"}},{"type":"Feature","geometry":{"type":"Point","coordinates":[120.652269,24.332987]},"properties":{"name":"臺中市立圖書館外埔分館","type":"公共圖書館","county":"臺中市"}},{"type":"Feature","geometry":{"type":"Point","coordinates":[120.588887,24.345485]},"properties":{"name":"臺中市立圖書館大安分館","type":"公共圖書館","county":"臺中市"}},{"type":"Feature","geometry":{"type":"Point","coordinates":[120.20377,22.99156]},"properties":{"name":"臺南市中西區圖書館","type":"公共圖書館","county":"臺南市"}},{"type":"Feature","geometry":{"type":"Point","coordinates":[120.223125,22.986591]},"properties":{"name":"臺南市東區林森圖書館","type":"公共圖書館","county":"臺南市"}},{"type":"Feature","geometry":{"type":"Point","coordinates":[120.245317,22.98206]},"properties":{"name":"臺南市東區裕文圖書館","type":"公共圖書館","county":"臺南市"}},{"type":"Feature","geometry":{"type":"Point","coordinates":[120.17836,22.940384]},"properties":{"name":"臺南市南區喜樹圖書館","type":"公共圖書館","county":"臺南市"}},{"type":"Feature","geometry":{"type":"Point","coordinates":[120.187566,22.967195]},"properties":{"name":"臺南市鹽埕圖書館","type":"公共圖書館","county":"臺南市"}},{"type":"Feature","geometry":{"type":"Point","coordinates":[120.212445,23.004016]},"properties":{"name":"臺南市立圖書館(公園總館)","type":"公共圖書館","county":"臺南市"}},{"type":"Feature","geometry":{"type":"Point","coordinates":[120.168056,22.994821]},"properties":{"name":"臺南市安平區圖書館","type":"公共圖書館","county":"臺南市"}},{"type":"Feature","geometry":{"type":"Point","coordinates":[120.126709,23.066305]},"properties":{"name":"臺南市安南區土城圖書館","type":"公共圖書館","county":"臺南市"}},{"type":"Feature","geometry":{"type":"Point","coordinates":[120.184721,23.047322]},"properties":{"name":"臺南市安南區安南圖書館","type":"公共圖書館","county":"臺南市"}},{"type":"Feature","geometry":{"type":"Point","coordinates":[120.188246,23.046056]},"properties":{"name":"臺南市臺江文化中心圖書館","type":"公共圖書館","county":"臺南市"}},{"type":"Feature","geometry":{"type":"Point","coordinates":[120.25988,23.018985]},"properties":{"name":"臺南市永康區圖書館","type":"公共圖書館","county":"臺南市"}},{"type":"Feature","geometry":{"type":"Point","coordinates":[120.238004,23.024402]},"properties":{"name":"臺南市立圖書館(新總館)","type":"公共圖書館","county":"臺南市"}},{"type":"Feature","geometry":{"type":"Point","coordinates":[120.297439,22.971948]},"properties":{"name":"臺南市歸仁區圖書館","type":"公共圖書館","county":"臺南市"}},{"type":"Feature","geometry":{"type":"Point","coordinates":[120.310581,23.038089]},"properties":{"name":"臺南市新化區圖書館","type":"公共圖書館","county":"臺南市"}},{"type":"Feature","geometry":{"type":"Point","coordinates":[120.408727,23.056394]},"properties":{"name":"臺南市左鎮區圖書館","type":"公共圖書館","county":"臺南市"}},{"type":"Feature","geometry":{"type":"Point","coordinates":[120.468898,23.123307]},"properties":{"name":"臺南市玉井區圖書館","type":"公共圖書館","county":"臺南市"}},{"type":"Feature","geometry":{"type":"Point","coordinates":[120.487278,23.17279]},"properties":{"name":"臺南市楠西區圖書館","type":"公共圖書館","county":"臺南市"}},{"type":"Feature","geometry":{"type":"Point","coordinates":[120.480302,23.045724]},"properties":{"name":"臺南市南化區圖書館","type":"公共圖書館","county":"臺南市"}},{"type":"Feature","geometry":{"type":"Point","coordinates":[120.253105,22.972233]},"properties":{"name":"臺南市仁德區圖書館","type":"公共圖書館","county":"臺南市"}},{"type":"Feature","geometry":{"type":"Point","coordinates":[120.324204,22.960055]},"properties":{"name":"臺南市關廟區圖書館","type":"公共圖書館","county":"臺南市"}},{"type":"Feature","geometry":{"type":"Point","coordinates":[120.359274,22.964715]},"properties":{"name":"臺南市龍崎區圖書館","type":"公共圖書館","county":"臺南市"}},{"type":"Feature","geometry":{"type":"Point","coordinates":[120.314115,23.192648]},"properties":{"name":"臺南市官田區圖書館","type":"公共圖書館","county":"臺南市"}},{"type":"Feature","geometry":{"type":"Point","coordinates":[120.248463,23.182664]},"properties":{"name":"臺南市麻豆區圖書館","type":"公共圖書館","county":"臺南市"}},{"type":"Feature","geometry":{"type":"Point","coordinates":[120.177358,23.168819]},"properties":{"name":"臺南市佳里區圖書館","type":"公共圖書館","county":"臺南市"}},{"type":"Feature","geometry":{"type":"Point","coordinates":[120.180216,23.164031]},"properties":{"name":"臺南市蕭?兒童圖書館","type":"公共圖書館","county":"臺南市"}},{"type":"Feature","geometry":{"type":"Point","coordinates":[120.203326,23.123446]},"properties":{"name":"臺南市西港區圖書館","type":"公共圖書館","county":"臺南市"}},{"type":"Feature","geometry":{"type":"Point","coordinates":[120.13915,23.140356]},"properties":{"name":"臺南市七股區圖書館","type":"公共圖書館","county":"臺南市"}},{"type":"Feature","geometry":{"type":"Point","coordinates":[120.181923,23.230277]},"properties":{"name":"臺南市學甲區圖書館","type":"公共圖書館","county":"臺南市"}},{"type":"Feature","geometry":{"type":"Point","coordinates":[120.126366,23.276434]},"properties":{"name":"臺南市北門區圖書館","type":"公共圖書館","county":"臺南市"}},{"type":"Feature","geometry":{"type":"Point","coordinates":[120.273886,23.295201]},"properties":{"name":"臺南市新營區圖書館","type":"公共圖書館","county":"臺南市"}},{"type":"Feature","geometry":{"type":"Point","coordinates":[120.315842,23.30858]},"properties":{"name":"臺南市新營文化中心圖書館","type":"公共圖書館","county":"臺南市"}},{"type":"Feature","geometry":{"type":"Point","coordinates":[120.362289,23.366219]},"properties":{"name":"臺南市後壁區圖書館","type":"公共圖書館","county":"臺南市"}},{"type":"Feature","geometry":{"type":"Point","coordinates":[120.412269,23.352917]},"properties":{"name":"臺南市白河區圖書館","type":"公共圖書館","county":"臺南市"}},{"type":"Feature","geometry":{"type":"Point","coordinates":[120.40417,23.326158]},"properties":{"name":"臺南市東山區圖書館","type":"公共圖書館","county":"臺南市"}},{"type":"Feature","geometry":{"type":"Point","coordinates":[120.350171,23.22333]},"properties":{"name":"臺南市六甲區圖書館","type":"公共圖書館","county":"臺南市"}},{"type":"Feature","geometry":{"type":"Point","coordinates":[120.264393,23.235262]},"properties":{"name":"臺南市下營區圖書館","type":"公共圖書館","county":"臺南市"}},{"type":"Feature","geometry":{"type":"Point","coordinates":[120.311527,23.27839]},"properties":{"name":"臺南市柳營區圖書館","type":"公共圖書館","county":"臺南市"}},{"type":"Feature","geometry":{"type":"Point","coordinates":[120.2664,23.316356]},"properties":{"name":"臺南市鹽水區圖書館","type":"公共圖書館","county":"臺南市"}},{"type":"Feature","geometry":{"type":"Point","coordinates":[120.291606,23.132188]},"properties":{"name":"臺南市善化區圖書館","type":"公共圖書館","county":"臺南市"}},{"type":"Feature","geometry":{"type":"Point","coordinates":[120.357282,23.118916]},"properties":{"name":"臺南市大內區圖書館","type":"公共圖書館","county":"臺南市"}},{"type":"Feature","geometry":{"type":"Point","coordinates":[120.355209,23.101652]},"properties":{"name":"臺南市山上區圖書館","type":"公共圖書館","county":"臺南市"}},{"type":"Feature","geometry":{"type":"Point","coordinates":[120.29588,23.07972]},"properties":{"name":"臺南市新市區圖書館","type":"公共圖書館","county":"臺南市"}},{"type":"Feature","geometry":{"type":"Point","coordinates":[120.234156,23.114828]},"properties":{"name":"臺南市安定區圖書館","type":"公共圖書館","county":"臺南市"}},{"type":"Feature","geometry":{"type":"Point","coordinates":[120.310081,22.631074]},"properties":{"name":"高雄市立圖書館新興分館","type":"公共圖書館","county":"高雄市"}},{"type":"Feature","geometry":{"type":"Point","coordinates":[120.30679,22.626906]},"properties":{"name":"高雄市立圖書館新興民眾閱覽室","type":"公共圖書館","county":"高雄市"}},{"type":"Feature","geometry":{"type":"Point","coordinates":[120.298451,22.625664]},"properties":{"name":"高雄市立圖書館李科永紀念圖書館","type":"公共圖書館","county":"高雄市"}},{"type":"Feature","geometry":{"type":"Point","coordinates":[120.298013,22.62556]},"properties":{"name":"高雄市立圖書館高雄文學館","type":"公共圖書館","county":"高雄市"}},{"type":"Feature","geometry":{"type":"Point","coordinates":[120.298245,22.618486]},"properties":{"name":"高雄市立圖書館苓雅分館","type":"公共圖書館","county":"高雄市"}},{"type":"Feature","geometry":{"type":"Point","coordinates":[120.317016,22.628248]},"properties":{"name":"高雄市立圖書館高雄市文化中心分館","type":"公共圖書館","county":"高雄市"}},{"type":"Feature","geometry":{"type":"Point","coordinates":[120.281842,22.626659]},"properties":{"name":"高雄市立圖書館鹽埕分館","type":"公共圖書館","county":"高雄市"}},{"type":"Feature","geometry":{"type":"Point","coordinates":[120.273011,22.623287]},"properties":{"name":"高雄市立圖書館南鼓山分館","type":"公共圖書館","county":"高雄市"}},{"type":"Feature","geometry":{"type":"Point","coordinates":[120.275617,22.653388]},"properties":{"name":"高雄市立圖書館鼓山分館","type":"公共圖書館","county":"高雄市"}},{"type":"Feature","geometry":{"type":"Point","coordinates":[120.271311,22.609781]},"properties":{"name":"高雄市立圖書館旗津分館","type":"公共圖書館","county":"高雄市"}},{"type":"Feature","geometry":{"type":"Point","coordinates":[120.301783,22.610275]},"properties":{"name":"高雄市立圖書館","type":"公共圖書館","county":"高雄市"}},{"type":"Feature","geometry":{"type":"Point","coordinates":[120.33321,22.602397]},"properties":{"name":"高雄市立圖書館前鎮分館","type":"公共圖書館","county":"高雄市"}},{"type":"Feature","geometry":{"type":"Point","coordinates":[120.321031,22.583367]},"properties":{"name":"高雄市立圖書館草衙分館","type":"公共圖書館","county":"高雄市"}},{"type":"Feature","geometry":{"type":"Point","coordinates":[120.305256,22.645974]},"properties":{"name":"高雄市立圖書館三民分館","type":"公共圖書館","county":"高雄市"}},{"type":"Feature","geometry":{"type":"Point","coordinates":[120.325014,22.649315]},"properties":{"name":"高雄市立圖書館寶珠分館","type":"公共圖書館","county":"高雄市"}},{"type":"Feature","geometry":{"type":"Point","coordinates":[120.315486,22.663455]},"properties":{"name":"高雄市立圖書館河堤分館","type":"公共圖書館","county":"高雄市"}},{"type":"Feature","geometry":{"type":"Point","coordinates":[120.342424,22.643336]},"properties":{"name":"高雄市立圖書館陽明分館","type":"公共圖書館","county":"高雄市"}},{"type":"Feature","geometry":{"type":"Point","coordinates":[120.290645,22.715624]},"properties":{"name":"高雄市立圖書館右昌分館","type":"公共圖書館","county":"高雄市"}},{"type":"Feature","geometry":{"type":"Point","coordinates":[120.328366,22.732233]},"properties":{"name":"高雄市立圖書館楠仔坑分館","type":"公共圖書館","county":"高雄市"}},{"type":"Feature","geometry":{"type":"Point","coordinates":[120.302159,22.726779]},"properties":{"name":"高雄市立圖書館翠屏分館","type":"公共圖書館","county":"高雄市"}},{"type":"Feature","geometry":{"type":"Point","coordinates":[120.370583,22.560445]},"properties":{"name":"高雄市立圖書館小港分館","type":"公共圖書館","county":"高雄市"}},{"type":"Feature","geometry":{"type":"Point","coordinates":[120.306927,22.6778]},"properties":{"name":"高雄市立圖書館左新分館","type":"公共圖書館","county":"高雄市"}},{"type":"Feature","geometry":{"type":"Point","coordinates":[120.285668,22.67309]},"properties":{"name":"高雄市立圖書館左營分館","type":"公共圖書館","county":"高雄市"}},{"type":"Feature","geometry":{"type":"Point","coordinates":[120.347803,22.701133]},"properties":{"name":"高雄市立圖書館仁武分館","type":"公共圖書館","county":"高雄市"}},{"type":"Feature","geometry":{"type":"Point","coordinates":[120.345492,22.680244]},"properties":{"name":"高雄市立圖書館澄觀分館","type":"公共圖書館","county":"高雄市"}},{"type":"Feature","geometry":{"type":"Point","coordinates":[120.347083,22.731619]},"properties":{"name":"高雄市立圖書館大社分館","type":"公共圖書館","county":"高雄市"}},{"type":"Feature","geometry":{"type":"Point","coordinates":[120.292337,22.797354]},"properties":{"name":"高雄市立圖書館岡山分館","type":"公共圖書館","county":"高雄市"}},{"type":"Feature","geometry":{"type":"Point","coordinates":[120.298468,22.782689]},"properties":{"name":"高雄市立圖書館岡山文化中心分館","type":"公共圖書館","county":"高雄市"}},{"type":"Feature","geometry":{"type":"Point","coordinates":[120.258265,22.855898]},"properties":{"name":"高雄市立圖書館路竹分館","type":"公共圖書館","county":"高雄市"}},{"type":"Feature","geometry":{"type":"Point","coordinates":[120.33348,22.879762]},"properties":{"name":"高雄市立圖書館阿蓮分館","type":"公共圖書館","county":"高雄市"}},{"type":"Feature","geometry":{"type":"Point","coordinates":[120.359139,22.869828]},"properties":{"name":"高雄市立圖書館田寮分館","type":"公共圖書館","county":"高雄市"}},{"type":"Feature","geometry":{"type":"Point","coordinates":[120.362075,22.793378]},"properties":{"name":"高雄市立圖書館燕巢分館","type":"公共圖書館","county":"高雄市"}},{"type":"Feature","geometry":{"type":"Point","coordinates":[120.306334,22.757751]},"properties":{"name":"高雄市立圖書館橋頭分館","type":"公共圖書館","county":"高雄市"}},{"type":"Feature","geometry":{"type":"Point","coordinates":[120.266886,22.760444]},"properties":{"name":"高雄市立圖書館梓官分館","type":"公共圖書館","county":"高雄市"}},{"type":"Feature","geometry":{"type":"Point","coordinates":[120.249034,22.738895]},"properties":{"name":"高雄市立圖書館梓官赤東分館","type":"公共圖書館","county":"高雄市"}},{"type":"Feature","geometry":{"type":"Point","coordinates":[120.246203,22.785526]},"properties":{"name":"高雄市立圖書館彌陀公園分館","type":"公共圖書館","county":"高雄市"}},{"type":"Feature","geometry":{"type":"Point","coordinates":[120.244399,22.763302]},"properties":{"name":"高雄市立圖書館彌陀分館","type":"公共圖書館","county":"高雄市"}},{"type":"Feature","geometry":{"type":"Point","coordinates":[120.224539,22.815448]},"properties":{"name":"高雄市立圖書館永安分館","type":"公共圖書館","county":"高雄市"}},{"type":"Feature","geometry":{"type":"Point","coordinates":[120.22352,22.906515]},"properties":{"name":"高雄市立圖書館湖內分館","type":"公共圖書館","county":"高雄市"}},{"type":"Feature","geometry":{"type":"Point","coordinates":[120.363443,22.624978]},"properties":{"name":"高雄市大東藝術圖書館","type":"公共圖書館","county":"高雄市"}},{"type":"Feature","geometry":{"type":"Point","coordinates":[120.354725,22.596977]},"properties":{"name":"高雄市立圖書館中崙分館","type":"公共圖書館","county":"高雄市"}},{"type":"Feature","geometry":{"type":"Point","coordinates":[120.327175,22.58918]},"properties":{"name":"高雄市立圖書館鳳山二館","type":"公共圖書館","county":"高雄市"}},{"type":"Feature","geometry":{"type":"Point","coordinates":[120.357144,22.62708]},"properties":{"name":"高雄市立圖書館鳳山曹公分館","type":"公共圖書館","county":"高雄市"}},{"type":"Feature","geometry":{"type":"Point","coordinates":[120.401844,22.636416]},"properties":{"name":"高雄市立圖書館中庄分館","type":"公共圖書館","county":"高雄市"}},{"type":"Feature","geometry":{"type":"Point","coordinates":[120.393394,22.604057]},"properties":{"name":"高雄市立圖書館大寮分館","type":"公共圖書館","county":"高雄市"}},{"type":"Feature","geometry":{"type":"Point","coordinates":[120.394981,22.487169]},"properties":{"name":"高雄市立圖書館林園二館","type":"公共圖書館","county":"高雄市"}},{"type":"Feature","geometry":{"type":"Point","coordinates":[120.394292,22.510417]},"properties":{"name":"高雄市立圖書館林園分館","type":"公共圖書館","county":"高雄市"}},{"type":"Feature","geometry":{"type":"Point","coordinates":[120.362492,22.663145]},"properties":{"name":"高雄市立圖書館鳥松分館","type":"公共圖書館","county":"高雄市"}},{"type":"Feature","geometry":{"type":"Point","coordinates":[120.445065,22.72991]},"properties":{"name":"高雄市立圖書館大樹三館","type":"公共圖書館","county":"高雄市"}},{"type":"Feature","geometry":{"type":"Point","coordinates":[120.418255,22.65774]},"properties":{"name":"高雄市立圖書館大樹二館","type":"公共圖書館","county":"高雄市"}},{"type":"Feature","geometry":{"type":"Point","coordinates":[120.430907,22.691215]},"properties":{"name":"高雄市立圖書館大樹分館","type":"公共圖書館","county":"高雄市"}},{"type":"Feature","geometry":{"type":"Point","coordinates":[120.481321,22.881407]},"properties":{"name":"高雄市立圖書館旗山分館","type":"公共圖書館","county":"高雄市"}},{"type":"Feature","geometry":{"type":"Point","coordinates":[120.542457,22.900246]},"properties":{"name":"高雄市立圖書館美濃分館","type":"公共圖書館","county":"高雄市"}},{"type":"Feature","geometry":{"type":"Point","coordinates":[120.634573,22.99615]},"properties":{"name":"高雄市立圖書館六龜分館","type":"公共圖書館","county":"高雄市"}},{"type":"Feature","geometry":{"type":"Point","coordinates":[120.46194,22.936988]},"properties":{"name":"高雄市立圖書館內門內埔分館","type":"公共圖書館","county":"高雄市"}},{"type":"Feature","geometry":{"type":"Point","coordinates":[120.455393,22.917152]},"properties":{"name":"高雄市立圖書館內門分館","type":"公共圖書館","county":"高雄市"}},{"type":"Feature","geometry":{"type":"Point","coordinates":[120.467861,22.975346]},"properties":{"name":"高雄市立圖書館內門木柵分館","type":"公共圖書館","county":"高雄市"}},{"type":"Feature","geometry":{"type":"Point","coordinates":[120.499921,22.981983]},"properties":{"name":"高雄市立圖書館內門溝坪分館","type":"公共圖書館","county":"高雄市"}},{"type":"Feature","geometry":{"type":"Point","coordinates":[120.541247,22.974523]},"properties":{"name":"高雄市立圖書館杉林分館","type":"公共圖書館","county":"高雄市"}},{"type":"Feature","geometry":{"type":"Point","coordinates":[120.587765,23.083964]},"properties":{"name":"高雄市立圖書館甲仙分館","type":"公共圖書館","county":"高雄市"}},{"type":"Feature","geometry":{"type":"Point","coordinates":[120.18039,22.906213]},"properties":{"name":"高雄市立圖書館茄萣分館","type":"公共圖書館","county":"高雄市"}},{"type":"Feature","geometry":{"type":"Point","coordinates":[121.744172,25.131255]},"properties":{"name":"基隆市文化局圖書館","type":"公共圖書館","county":"基隆市"}},{"type":"Feature","geometry":{"type":"Point","coordinates":[119.950313,26.156551]},"properties":{"name":"連江縣政府文化處中正圖書館","type":"公共圖書館","county":"連江縣"}},{"type":"Feature","geometry":{"type":"Point","coordinates":[119.918322,26.158272]},"properties":{"name":"連江縣政府文化處馬祖圖書館","type":"公共圖書館","county":"連江縣"}},{"type":"Feature","geometry":{"type":"Point","coordinates":[121.744848,24.748958]},"properties":{"name":"宜蘭縣政府文化局圖書館","type":"公共圖書館","county":"宜蘭縣"}},{"type":"Feature","geometry":{"type":"Point","coordinates":[120.97941,24.800145]},"properties":{"name":"新竹市文化局圖書館動物園分館","type":"公共圖書館","county":"新竹市"}},{"type":"Feature","geometry":{"type":"Point","coordinates":[120.934714,24.840791]},"properties":{"name":"新竹市文化局圖書館南寮分館","type":"公共圖書館","county":"新竹市"}},{"type":"Feature","geometry":{"type":"Point","coordinates":[120.965332,24.802657]},"properties":{"name":"新竹市文化局圖書館西門自修室","type":"公共圖書館","county":"新竹市"}},{"type":"Feature","geometry":{"type":"Point","coordinates":[121.021764,24.780158]},"properties":{"name":"新竹市文化局圖書館金山分館","type":"公共圖書館","county":"新竹市"}},{"type":"Feature","geometry":{"type":"Point","coordinates":[120.970675,24.805927]},"properties":{"name":"新竹市文化局圖書館青少年分館","type":"公共圖書館","county":"新竹市"}},{"type":"Feature","geometry":{"type":"Point","coordinates":[120.942218,24.796883]},"properties":{"name":"新竹市文化局圖書館香山分館","type":"公共圖書館","county":"新竹市"}},{"type":"Feature","geometry":{"type":"Point","coordinates":[121.010208,24.781862]},"properties":{"name":"新竹市文化局圖書館龍山分館","type":"公共圖書館","county":"新竹市"}},{"type":"Feature","geometry":{"type":"Point","coordinates":[120.969881,24.806234]},"properties":{"name":"新竹市稅務局圖書館","type":"公共圖書館","county":"新竹市"}},{"type":"Feature","geometry":{"type":"Point","coordinates":[121.012496,24.830096]},"properties":{"name":"新竹縣政府文化局圖書館","type":"公共圖書館","county":"新竹縣"}},{"type":"Feature","geometry":{"type":"Point","coordinates":[120.81988,24.565443]},"properties":{"name":"苗栗縣立圖書館","type":"公共圖書館","county":"苗栗縣"}},{"type":"Feature","geometry":{"type":"Point","coordinates":[120.545298,24.078678]},"properties":{"name":"彰化縣立圖書館","type":"公共圖書館","county":"彰化縣"}},{"type":"Feature","geometry":{"type":"Point","coordinates":[120.691351,23.903144]},"properties":{"name":"南投縣政府文化局圖書館","type":"公共圖書館","county":"南投縣"}},{"type":"Feature","geometry":{"type":"Point","coordinates":[120.44949,23.49614]},"properties":{"name":"嘉義市世賢圖書館","type":"公共圖書館","county":"嘉義市"}},{"type":"Feature","geometry":{"type":"Point","coordinates":[120.45253,23.48768]},"properties":{"name":"嘉義市政府文化局圖書館","type":"公共圖書館","county":"嘉義市"}},{"type":"Feature","geometry":{"type":"Point","coordinates":[120.4502,23.47672]},"properties":{"name":"嘉義市黃賓紀念圖書館","type":"公共圖書館","county":"嘉義市"}},{"type":"Feature","geometry":{"type":"Point","coordinates":[120.249663,23.466081]},"properties":{"name":"嘉義縣圖書館","type":"公共圖書館","county":"嘉義縣"}},{"type":"Feature","geometry":{"type":"Point","coordinates":[120.5249,23.695433]},"properties":{"name":"雲林縣政府文化處圖書館","type":"公共圖書館","county":"雲林縣"}},{"type":"Feature","geometry":{"type":"Point","coordinates":[119.577639,23.570061]},"properties":{"name":"澎湖縣圖書館","type":"公共圖書館","county":"澎湖縣"}},{"type":"Feature","geometry":{"type":"Point","coordinates":[119.602225,23.528906]},"properties":{"name":"澎湖縣政府文化局澎南圖書分館","type":"公共圖書館","county":"澎湖縣"}},{"type":"Feature","geometry":{"type":"Point","coordinates":[118.323018,24.441014]},"properties":{"name":"金門縣文化局圖書館","type":"公共圖書館","county":"金門縣"}},{"type":"Feature","geometry":{"type":"Point","coordinates":[120.499322,22.679154]},"properties":{"name":"屏東縣政府文化處圖書館","type":"公共圖書館","county":"屏東縣"}},{"type":"Feature","geometry":{"type":"Point","coordinates":[121.144774,22.756401]},"properties":{"name":"臺東縣政府文化處圖書館","type":"公共圖書館","county":"臺東縣"}},{"type":"Feature","geometry":{"type":"Point","coordinates":[121.628926,23.990156]},"properties":{"name":"花蓮縣文化局圖書館","type":"公共圖書館","county":"花蓮縣"}},{"type":"Feature","geometry":{"type":"Point","coordinates":[121.736712,25.125216]},"properties":{"name":"基隆市仁愛區圖書館","type":"公共圖書館","county":"基隆市"}},{"type":"Feature","geometry":{"type":"Point","coordinates":[121.751276,25.129481]},"properties":{"name":"基隆市信義區圖書館","type":"公共圖書館","county":"基隆市"}},{"type":"Feature","geometry":{"type":"Point","coordinates":[121.759176,25.140942]},"properties":{"name":"基隆市中正區圖書館","type":"公共圖書館","county":"基隆市"}},{"type":"Feature","geometry":{"type":"Point","coordinates":[121.796435,25.143259]},"properties":{"name":"基隆市中正區圖書館杜萬全館","type":"公共圖書館","county":"基隆市"}},{"type":"Feature","geometry":{"type":"Point","coordinates":[121.73225,25.137119]},"properties":{"name":"基隆市中山區圖書館","type":"公共圖書館","county":"基隆市"}},{"type":"Feature","geometry":{"type":"Point","coordinates":[121.723205,25.121029]},"properties":{"name":"基隆市安樂區圖書館","type":"公共圖書館","county":"基隆市"}},{"type":"Feature","geometry":{"type":"Point","coordinates":[121.736015,25.100186]},"properties":{"name":"基隆市暖暖區圖書館","type":"公共圖書館","county":"基隆市"}},{"type":"Feature","geometry":{"type":"Point","coordinates":[121.716535,25.097515]},"properties":{"name":"基隆市七堵區永平圖書館","type":"公共圖書館","county":"基隆市"}},{"type":"Feature","geometry":{"type":"Point","coordinates":[121.697739,25.083949]},"properties":{"name":"基隆市七堵區百福圖書館","type":"公共圖書館","county":"基隆市"}},{"type":"Feature","geometry":{"type":"Point","coordinates":[119.997214,26.223427]},"properties":{"name":"連江縣北竿鄉圖書館","type":"公共圖書館","county":"連江縣"}},{"type":"Feature","geometry":{"type":"Point","coordinates":[119.932885,25.97172]},"properties":{"name":"連江縣莒光鄉圖書館","type":"公共圖書館","county":"連江縣"}},{"type":"Feature","geometry":{"type":"Point","coordinates":[119.973072,25.959468]},"properties":{"name":"連江縣莒光鄉圖書館東莒分館","type":"公共圖書館","county":"連江縣"}},{"type":"Feature","geometry":{"type":"Point","coordinates":[120.48864,26.367505]},"properties":{"name":"連江縣東引鄉圖書館","type":"公共圖書館","county":"連江縣"}},{"type":"Feature","geometry":{"type":"Point","coordinates":[121.760228,24.748954]},"properties":{"name":"宜蘭縣宜蘭市立圖書館","type":"公共圖書館","county":"宜蘭縣"}},{"type":"Feature","geometry":{"type":"Point","coordinates":[121.821468,24.854769]},"properties":{"name":"宜蘭縣頭城鎮立圖書館","type":"公共圖書館","county":"宜蘭縣"}},{"type":"Feature","geometry":{"type":"Point","coordinates":[121.767935,24.817692]},"properties":{"name":"宜蘭縣礁溪鄉立圖書館","type":"公共圖書館","county":"宜蘭縣"}},{"type":"Feature","geometry":{"type":"Point","coordinates":[121.787536,24.748921]},"properties":{"name":"宜蘭縣壯圍鄉立圖書館","type":"公共圖書館","county":"宜蘭縣"}},{"type":"Feature","geometry":{"type":"Point","coordinates":[121.722598,24.745129]},"properties":{"name":"宜蘭縣員山鄉立圖書館","type":"公共圖書館","county":"宜蘭縣"}},{"type":"Feature","geometry":{"type":"Point","coordinates":[121.765342,24.669899]},"properties":{"name":"宜蘭縣羅東鎮立圖書館","type":"公共圖書館","county":"宜蘭縣"}},{"type":"Feature","geometry":{"type":"Point","coordinates":[121.760765,24.694992]},"properties":{"name":"宜蘭縣羅東鎮立圖書館仁愛館","type":"公共圖書館","county":"宜蘭縣"}},{"type":"Feature","geometry":{"type":"Point","coordinates":[121.768906,24.675905]},"properties":{"name":"宜蘭縣羅東鎮立圖書館兒童美語館","type":"公共圖書館","county":"宜蘭縣"}},{"type":"Feature","geometry":{"type":"Point","coordinates":[121.649939,24.667218]},"properties":{"name":"宜蘭縣三星鄉立圖書館","type":"公共圖書館","county":"宜蘭縣"}},{"type":"Feature","geometry":{"type":"Point","coordinates":[121.608573,24.678148]},"properties":{"name":"宜蘭縣大同鄉立圖書館","type":"公共圖書館","county":"宜蘭縣"}},{"type":"Feature","geometry":{"type":"Point","coordinates":[121.79834,24.684306]},"properties":{"name":"宜蘭縣五結鄉立圖書館","type":"公共圖書館","county":"宜蘭縣"}},{"type":"Feature","geometry":{"type":"Point","coordinates":[121.79428,24.633172]},"properties":{"name":"宜蘭縣冬山鄉立圖書館-冬山館","type":"公共圖書館","county":"宜蘭縣"}},{"type":"Feature","geometry":{"type":"Point","coordinates":[121.763408,24.654931]},"properties":{"name":"宜蘭縣冬山鄉立圖書館-順安館","type":"公共圖書館","county":"宜蘭縣"}},{"type":"Feature","geometry":{"type":"Point","coordinates":[121.836236,24.594691]},"properties":{"name":"宜蘭縣蘇澳鎮立圖書館","type":"公共圖書館","county":"宜蘭縣"}},{"type":"Feature","geometry":{"type":"Point","coordinates":[121.803745,24.466072]},"properties":{"name":"宜蘭縣南澳鄉立圖書館","type":"公共圖書館","county":"宜蘭縣"}},{"type":"Feature","geometry":{"type":"Point","coordinates":[121.009118,24.835603]},"properties":{"name":"新竹縣竹北市立圖書館","type":"公共圖書館","county":"新竹縣"}},{"type":"Feature","geometry":{"type":"Point","coordinates":[121.038077,24.901727]},"properties":{"name":"新竹縣湖口鄉立圖書館","type":"公共圖書館","county":"新竹縣"}},{"type":"Feature","geometry":{"type":"Point","coordinates":[120.988407,24.88625]},"properties":{"name":"新竹縣新豐鄉立圖書館","type":"公共圖書館","county":"新竹縣"}},{"type":"Feature","geometry":{"type":"Point","coordinates":[121.079791,24.827164]},"properties":{"name":"新竹縣新埔鎮立圖書館","type":"公共圖書館","county":"新竹縣"}},{"type":"Feature","geometry":{"type":"Point","coordinates":[121.17333,24.791841]},"properties":{"name":"新竹縣關西鎮立圖書館","type":"公共圖書館","county":"新竹縣"}},{"type":"Feature","geometry":{"type":"Point","coordinates":[121.082373,24.774565]},"properties":{"name":"新竹縣芎林鄉立圖書館","type":"公共圖書館","county":"新竹縣"}},{"type":"Feature","geometry":{"type":"Point","coordinates":[120.992572,24.765217]},"properties":{"name":"新竹縣寶山鄉立圖書館","type":"公共圖書館","county":"新竹縣"}},{"type":"Feature","geometry":{"type":"Point","coordinates":[121.083972,24.733452]},"properties":{"name":"新竹縣竹東鎮立圖書館","type":"公共圖書館","county":"新竹縣"}},{"type":"Feature","geometry":{"type":"Point","coordinates":[121.119633,24.632065]},"properties":{"name":"新竹縣五峰鄉立圖書館","type":"公共圖書館","county":"新竹縣"}},{"type":"Feature","geometry":{"type":"Point","coordinates":[121.142277,24.715778]},"properties":{"name":"新竹縣橫山鄉立圖書館","type":"公共圖書館","county":"新竹縣"}},{"type":"Feature","geometry":{"type":"Point","coordinates":[121.202321,24.705108]},"properties":{"name":"新竹縣尖石鄉立圖書館","type":"公共圖書館","county":"新竹縣"}},{"type":"Feature","geometry":{"type":"Point","coordinates":[121.055515,24.700553]},"properties":{"name":"新竹縣北埔鄉立圖書館","type":"公共圖書館","county":"新竹縣"}},{"type":"Feature","geometry":{"type":"Point","coordinates":[121.020109,24.688953]},"properties":{"name":"新竹縣峨眉鄉立圖書館","type":"公共圖書館","county":"新竹縣"}},{"type":"Feature","geometry":{"type":"Point","coordinates":[120.886045,24.689128]},"properties":{"name":"苗栗縣竹南鎮李科永紀念圖書館","type":"公共圖書館","county":"苗栗縣"}},{"type":"Feature","geometry":{"type":"Point","coordinates":[120.873829,24.683849]},"properties":{"name":"苗栗縣竹南鎮立圖書館","type":"公共圖書館","county":"苗栗縣"}},{"type":"Feature","geometry":{"type":"Point","coordinates":[120.911474,24.687979]},"properties":{"name":"苗栗縣頭份市立圖書館","type":"公共圖書館","county":"苗栗縣"}},{"type":"Feature","geometry":{"type":"Point","coordinates":[120.956862,24.652867]},"properties":{"name":"苗栗縣三灣鄉立圖書館","type":"公共圖書館","county":"苗栗縣"}},{"type":"Feature","geometry":{"type":"Point","coordinates":[121.000915,24.604678]},"properties":{"name":"苗栗縣南庄鄉立圖書館","type":"公共圖書館","county":"苗栗縣"}},{"type":"Feature","geometry":{"type":"Point","coordinates":[120.921562,24.540947]},"properties":{"name":"苗栗縣獅潭鄉立圖書館","type":"公共圖書館","county":"苗栗縣"}},{"type":"Feature","geometry":{"type":"Point","coordinates":[120.791847,24.614092]},"properties":{"name":"苗栗縣後龍鎮立圖書館","type":"公共圖書館","county":"苗栗縣"}},{"type":"Feature","geometry":{"type":"Point","coordinates":[120.683518,24.490533]},"properties":{"name":"苗栗縣通霄鎮立圖書館","type":"公共圖書館","county":"苗栗縣"}},{"type":"Feature","geometry":{"type":"Point","coordinates":[120.653078,24.439381]},"properties":{"name":"苗栗縣苑裡鎮立圖書館","type":"公共圖書館","county":"苗栗縣"}},{"type":"Feature","geometry":{"type":"Point","coordinates":[120.815156,24.552307]},"properties":{"name":"苗栗縣苗栗市立圖書館","type":"公共圖書館","county":"苗栗縣"}},{"type":"Feature","geometry":{"type":"Point","coordinates":[120.877187,24.63852]},"properties":{"name":"苗栗縣造橋鄉立圖書館","type":"公共圖書館","county":"苗栗縣"}},{"type":"Feature","geometry":{"type":"Point","coordinates":[120.852094,24.577128]},"properties":{"name":"苗栗縣頭屋鄉立圖書館","type":"公共圖書館","county":"苗栗縣"}},{"type":"Feature","geometry":{"type":"Point","coordinates":[120.826489,24.499836]},"properties":{"name":"苗栗縣公館鄉立圖書館","type":"公共圖書館","county":"苗栗縣"}},{"type":"Feature","geometry":{"type":"Point","coordinates":[120.869978,24.423204]},"properties":{"name":"苗栗縣大湖鄉立圖書館","type":"公共圖書館","county":"苗栗縣"}},{"type":"Feature","geometry":{"type":"Point","coordinates":[120.908122,24.447244]},"properties":{"name":"苗栗縣泰安鄉立圖書館","type":"公共圖書館","county":"苗栗縣"}},{"type":"Feature","geometry":{"type":"Point","coordinates":[120.788735,24.485319]},"properties":{"name":"苗栗縣銅鑼鄉立圖書館","type":"公共圖書館","county":"苗栗縣"}},{"type":"Feature","geometry":{"type":"Point","coordinates":[120.773251,24.41437]},"properties":{"name":"苗栗縣三義鄉立圖書館","type":"公共圖書館","county":"苗栗縣"}},{"type":"Feature","geometry":{"type":"Point","coordinates":[120.757901,24.558978]},"properties":{"name":"苗栗縣西湖鄉立圖書館","type":"公共圖書館","county":"苗栗縣"}},{"type":"Feature","geometry":{"type":"Point","coordinates":[120.824783,24.312207]},"properties":{"name":"苗栗縣卓蘭鎮立圖書館","type":"公共圖書館","county":"苗栗縣"}},{"type":"Feature","geometry":{"type":"Point","coordinates":[120.545835,24.078106]},"properties":{"name":"彰化縣彰化市立圖書館","type":"公共圖書館","county":"彰化縣"}},{"type":"Feature","geometry":{"type":"Point","coordinates":[120.62808,24.012008]},"properties":{"name":"彰化縣芬園鄉立圖書館","type":"公共圖書館","county":"彰化縣"}},{"type":"Feature","geometry":{"type":"Point","coordinates":[120.545546,24.027655]},"properties":{"name":"彰化縣花壇鄉立圖書館","type":"公共圖書館","county":"彰化縣"}},{"type":"Feature","geometry":{"type":"Point","coordinates":[120.50297,24.035423]},"properties":{"name":"彰化縣秀水鄉立圖書館","type":"公共圖書館","county":"彰化縣"}},{"type":"Feature","geometry":{"type":"Point","coordinates":[120.431413,24.054814]},"properties":{"name":"彰化縣鹿港鎮立圖書館","type":"公共圖書館","county":"彰化縣"}},{"type":"Feature","geometry":{"type":"Point","coordinates":[120.443849,24.047951]},"properties":{"name":"彰化縣福興鄉立圖書館","type":"公共圖書館","county":"彰化縣"}},{"type":"Feature","geometry":{"type":"Point","coordinates":[120.47095,24.130471]},"properties":{"name":"彰化縣線西鄉立圖書館","type":"公共圖書館","county":"彰化縣"}},{"type":"Feature","geometry":{"type":"Point","coordinates":[120.496669,24.107911]},"properties":{"name":"彰化縣和美鎮立圖書館","type":"公共圖書館","county":"彰化縣"}},{"type":"Feature","geometry":{"type":"Point","coordinates":[120.485282,24.144641]},"properties":{"name":"彰化縣伸港鄉立圖書館","type":"公共圖書館","county":"彰化縣"}},{"type":"Feature","geometry":{"type":"Point","coordinates":[120.574922,23.959057]},"properties":{"name":"彰化縣員林市立圖書館","type":"公共圖書館","county":"彰化縣"}},{"type":"Feature","geometry":{"type":"Point","coordinates":[120.574363,23.95958]},"properties":{"name":"彰化縣員林市立圖書館(二館)","type":"公共圖書館","county":"彰化縣"}},{"type":"Feature","geometry":{"type":"Point","coordinates":[120.589624,23.897483]},"properties":{"name":"彰化縣社頭鄉立圖書館","type":"公共圖書館","county":"彰化縣"}},{"type":"Feature","geometry":{"type":"Point","coordinates":[120.54602,23.921135]},"properties":{"name":"彰化縣永靖鄉立圖書館","type":"公共圖書館","county":"彰化縣"}},{"type":"Feature","geometry":{"type":"Point","coordinates":[120.544343,23.953161]},"properties":{"name":"彰化縣埔心鄉立圖書館","type":"公共圖書館","county":"彰化縣"}},{"type":"Feature","geometry":{"type":"Point","coordinates":[120.47854,23.962843]},"properties":{"name":"彰化縣溪湖鎮立圖書館","type":"公共圖書館","county":"彰化縣"}},{"type":"Feature","geometry":{"type":"Point","coordinates":[120.547603,23.997174]},"properties":{"name":"彰化縣大村鄉立圖書館","type":"公共圖書館","county":"彰化縣"}},{"type":"Feature","geometry":{"type":"Point","coordinates":[120.463235,24.000519]},"properties":{"name":"彰化縣埔鹽鄉立圖書館","type":"公共圖書館","county":"彰化縣"}},{"type":"Feature","geometry":{"type":"Point","coordinates":[120.590194,23.8572]},"properties":{"name":"彰化縣田中鎮立圖書館","type":"公共圖書館","county":"彰化縣"}},{"type":"Feature","geometry":{"type":"Point","coordinates":[120.523481,23.877521]},"properties":{"name":"彰化縣北斗鎮立圖書館","type":"公共圖書館","county":"彰化縣"}},{"type":"Feature","geometry":{"type":"Point","coordinates":[120.525667,23.89192]},"properties":{"name":"彰化縣田尾鄉立圖書館","type":"公共圖書館","county":"彰化縣"}},{"type":"Feature","geometry":{"type":"Point","coordinates":[120.458739,23.893272]},"properties":{"name":"彰化縣埤頭鄉立圖書館","type":"公共圖書館","county":"彰化縣"}},{"type":"Feature","geometry":{"type":"Point","coordinates":[120.528559,23.829093]},"properties":{"name":"彰化縣溪州鄉立圖書館","type":"公共圖書館","county":"彰化縣"}},{"type":"Feature","geometry":{"type":"Point","coordinates":[120.427788,23.860592]},"properties":{"name":"彰化縣竹塘鄉立圖書館","type":"公共圖書館","county":"彰化縣"}},{"type":"Feature","geometry":{"type":"Point","coordinates":[120.374875,23.899955]},"properties":{"name":"彰化縣二林鎮立圖書館","type":"公共圖書館","county":"彰化縣"}},{"type":"Feature","geometry":{"type":"Point","coordinates":[120.321148,23.852636]},"properties":{"name":"彰化縣大城鄉立圖書館","type":"公共圖書館","county":"彰化縣"}},{"type":"Feature","geometry":{"type":"Point","coordinates":[120.319906,23.924419]},"properties":{"name":"彰化縣芳苑鄉立圖書館","type":"公共圖書館","county":"彰化縣"}},{"type":"Feature","geometry":{"type":"Point","coordinates":[120.616648,23.809951]},"properties":{"name":"彰化縣二水鄉立圖書館","type":"公共圖書館","county":"彰化縣"}},{"type":"Feature","geometry":{"type":"Point","coordinates":[120.68101,23.914618]},"properties":{"name":"南投縣南投市立圖書館","type":"公共圖書館","county":"南投縣"}},{"type":"Feature","geometry":{"type":"Point","coordinates":[120.766154,23.87947]},"properties":{"name":"南投縣中寮鄉立圖書館","type":"公共圖書館","county":"南投縣"}},{"type":"Feature","geometry":{"type":"Point","coordinates":[120.680781,23.973928]},"properties":{"name":"南投縣草屯鎮立圖書館","type":"公共圖書館","county":"南投縣"}},{"type":"Feature","geometry":{"type":"Point","coordinates":[120.857517,24.039872]},"properties":{"name":"南投縣國姓鄉立圖書館","type":"公共圖書館","county":"南投縣"}},{"type":"Feature","geometry":{"type":"Point","coordinates":[120.971301,23.970112]},"properties":{"name":"南投縣埔里鎮立圖書館","type":"公共圖書館","county":"南投縣"}},{"type":"Feature","geometry":{"type":"Point","coordinates":[121.131981,24.022477]},"properties":{"name":"南投縣仁愛鄉立圖書館","type":"公共圖書館","county":"南投縣"}},{"type":"Feature","geometry":{"type":"Point","coordinates":[120.702939,23.83855]},"properties":{"name":"南投縣名間鄉立圖書館","type":"公共圖書館","county":"南投縣"}},{"type":"Feature","geometry":{"type":"Point","coordinates":[120.84914,23.809881]},"properties":{"name":"南投縣水里鄉立圖書館","type":"公共圖書館","county":"南投縣"}},{"type":"Feature","geometry":{"type":"Point","coordinates":[120.935991,23.895473]},"properties":{"name":"南投縣魚池鄉立圖書館","type":"公共圖書館","county":"南投縣"}},{"type":"Feature","geometry":{"type":"Point","coordinates":[120.854528,23.69684]},"properties":{"name":"南投縣信義鄉立圖書館","type":"公共圖書館","county":"南投縣"}},{"type":"Feature","geometry":{"type":"Point","coordinates":[120.671969,23.759021]},"properties":{"name":"南投縣竹山鎮立親子館","type":"公共圖書館","county":"南投縣"}},{"type":"Feature","geometry":{"type":"Point","coordinates":[120.764297,23.735569]},"properties":{"name":"南投縣鹿谷鄉立圖書館","type":"公共圖書館","county":"南投縣"}},{"type":"Feature","geometry":{"type":"Point","coordinates":[120.553823,23.463887]},"properties":{"name":"嘉義縣番路鄉立圖書館","type":"公共圖書館","county":"嘉義縣"}},{"type":"Feature","geometry":{"type":"Point","coordinates":[120.55405,23.464336]},"properties":{"name":"嘉義縣番路鄉立圖書館分館","type":"公共圖書館","county":"嘉義縣"}},{"type":"Feature","geometry":{"type":"Point","coordinates":[120.557767,23.577944]},"properties":{"name":"嘉義縣梅山鄉立圖書館","type":"公共圖書館","county":"嘉義縣"}},{"type":"Feature","geometry":{"type":"Point","coordinates":[120.547936,23.523104]},"properties":{"name":"嘉義縣竹崎鄉立圖書館","type":"公共圖書館","county":"嘉義縣"}},{"type":"Feature","geometry":{"type":"Point","coordinates":[120.749778,23.454084]},"properties":{"name":"嘉義縣阿里山鄉立圖書館","type":"公共圖書館","county":"嘉義縣"}},{"type":"Feature","geometry":{"type":"Point","coordinates":[120.523365,23.426226]},"properties":{"name":"嘉義縣中埔鄉立圖書館","type":"公共圖書館","county":"嘉義縣"}},{"type":"Feature","geometry":{"type":"Point","coordinates":[120.593162,23.294963]},"properties":{"name":"嘉義縣大埔鄉立圖書館","type":"公共圖書館","county":"嘉義縣"}},{"type":"Feature","geometry":{"type":"Point","coordinates":[120.415443,23.434914]},"properties":{"name":"嘉義縣水上鄉立圖書館","type":"公共圖書館","county":"嘉義縣"}},{"type":"Feature","geometry":{"type":"Point","coordinates":[120.307571,23.409428]},"properties":{"name":"嘉義縣鹿草鄉立圖書館","type":"公共圖書館","county":"嘉義縣"}},{"type":"Feature","geometry":{"type":"Point","coordinates":[120.331562,23.455121]},"properties":{"name":"嘉義縣太保市立圖書館","type":"公共圖書館","county":"嘉義縣"}},{"type":"Feature","geometry":{"type":"Point","coordinates":[120.246864,23.465413]},"properties":{"name":"嘉義縣朴子市金臻圖書館","type":"公共圖書館","county":"嘉義縣"}},{"type":"Feature","geometry":{"type":"Point","coordinates":[120.154142,23.458995]},"properties":{"name":"嘉義縣東石鄉立圖書館","type":"公共圖書館","county":"嘉義縣"}},{"type":"Feature","geometry":{"type":"Point","coordinates":[120.290765,23.494055]},"properties":{"name":"嘉義縣六腳鄉立圖書館","type":"公共圖書館","county":"嘉義縣"}},{"type":"Feature","geometry":{"type":"Point","coordinates":[120.347114,23.551868]},"properties":{"name":"嘉義縣新港鄉立圖書館","type":"公共圖書館","county":"嘉義縣"}},{"type":"Feature","geometry":{"type":"Point","coordinates":[120.428791,23.555415]},"properties":{"name":"嘉義縣民雄鄉立圖書館","type":"公共圖書館","county":"嘉義縣"}},{"type":"Feature","geometry":{"type":"Point","coordinates":[120.453837,23.603477]},"properties":{"name":"嘉義縣大林鎮立圖書館","type":"公共圖書館","county":"嘉義縣"}},{"type":"Feature","geometry":{"type":"Point","coordinates":[120.393351,23.603454]},"properties":{"name":"嘉義縣溪口鄉立圖書館","type":"公共圖書館","county":"嘉義縣"}},{"type":"Feature","geometry":{"type":"Point","coordinates":[120.243442,23.335803]},"properties":{"name":"嘉義縣義竹鄉立圖書館","type":"公共圖書館","county":"嘉義縣"}},{"type":"Feature","geometry":{"type":"Point","coordinates":[120.169871,23.376069]},"properties":{"name":"嘉義縣布袋鎮立圖書館","type":"公共圖書館","county":"嘉義縣"}},{"type":"Feature","geometry":{"type":"Point","coordinates":[120.478713,23.679056]},"properties":{"name":"雲林縣斗南鎮立圖書館","type":"公共圖書館","county":"雲林縣"}},{"type":"Feature","geometry":{"type":"Point","coordinates":[120.431943,23.645151]},"properties":{"name":"雲林縣大埤鄉立圖書館","type":"公共圖書館","county":"雲林縣"}},{"type":"Feature","geometry":{"type":"Point","coordinates":[120.447013,23.706915]},"properties":{"name":"雲林縣虎尾鎮立圖書館","type":"公共圖書館","county":"雲林縣"}},{"type":"Feature","geometry":{"type":"Point","coordinates":[120.389163,23.675159]},"properties":{"name":"雲林縣土庫鎮立圖書館","type":"公共圖書館","county":"雲林縣"}},{"type":"Feature","geometry":{"type":"Point","coordinates":[120.351348,23.706607]},"properties":{"name":"雲林縣土庫鎮立圖書館馬光分館","type":"公共圖書館","county":"雲林縣"}},{"type":"Feature","geometry":{"type":"Point","coordinates":[120.311738,23.700701]},"properties":{"name":"雲林縣褒忠鄉立圖書館","type":"公共圖書館","county":"雲林縣"}},{"type":"Feature","geometry":{"type":"Point","coordinates":[120.255691,23.674208]},"properties":{"name":"雲林縣東勢鄉立圖書館","type":"公共圖書館","county":"雲林縣"}},{"type":"Feature","geometry":{"type":"Point","coordinates":[120.202798,23.717546]},"properties":{"name":"雲林縣臺西鄉立圖書館","type":"公共圖書館","county":"雲林縣"}},{"type":"Feature","geometry":{"type":"Point","coordinates":[120.353018,23.758693]},"properties":{"name":"雲林縣崙背鄉立圖書館","type":"公共圖書館","county":"雲林縣"}},{"type":"Feature","geometry":{"type":"Point","coordinates":[120.25169,23.753867]},"properties":{"name":"雲林縣麥寮鄉立圖書館","type":"公共圖書館","county":"雲林縣"}},{"type":"Feature","geometry":{"type":"Point","coordinates":[120.54073,23.708268]},"properties":{"name":"雲林縣斗六市立圖書館中山分館","type":"公共圖書館","county":"雲林縣"}},{"type":"Feature","geometry":{"type":"Point","coordinates":[120.549588,23.703922]},"properties":{"name":"雲林縣斗六市繪本圖書館","type":"公共圖書館","county":"雲林縣"}},{"type":"Feature","geometry":{"type":"Point","coordinates":[120.61297,23.756152]},"properties":{"name":"雲林縣林內鄉立圖書館","type":"公共圖書館","county":"雲林縣"}},{"type":"Feature","geometry":{"type":"Point","coordinates":[120.561357,23.641941]},"properties":{"name":"雲林縣古坑鄉立圖書館","type":"公共圖書館","county":"雲林縣"}},{"type":"Feature","geometry":{"type":"Point","coordinates":[120.502266,23.760981]},"properties":{"name":"雲林縣莿桐鄉立圖書館","type":"公共圖書館","county":"雲林縣"}},{"type":"Feature","geometry":{"type":"Point","coordinates":[120.529994,23.771991]},"properties":{"name":"雲林縣莿桐鄉立圖書館麻園分館","type":"公共圖書館","county":"雲林縣"}},{"type":"Feature","geometry":{"type":"Point","coordinates":[120.457904,23.798944]},"properties":{"name":"雲林縣西螺鎮立圖書館","type":"公共圖書館","county":"雲林縣"}},{"type":"Feature","geometry":{"type":"Point","coordinates":[120.412849,23.771493]},"properties":{"name":"雲林縣二崙鄉立圖書館","type":"公共圖書館","county":"雲林縣"}},{"type":"Feature","geometry":{"type":"Point","coordinates":[120.30353,23.57706]},"properties":{"name":"雲林縣北港鎮立圖書館","type":"公共圖書館","county":"雲林縣"}},{"type":"Feature","geometry":{"type":"Point","coordinates":[120.246328,23.575039]},"properties":{"name":"雲林縣水林鄉立圖書館","type":"公共圖書館","county":"雲林縣"}},{"type":"Feature","geometry":{"type":"Point","coordinates":[120.18668,23.580459]},"properties":{"name":"雲林縣口湖鄉立鄭豐喜紀念圖書館","type":"公共圖書館","county":"雲林縣"}},{"type":"Feature","geometry":{"type":"Point","coordinates":[120.222669,23.638125]},"properties":{"name":"雲林縣四湖鄉立圖書館","type":"公共圖書館","county":"雲林縣"}},{"type":"Feature","geometry":{"type":"Point","coordinates":[120.314883,23.649672]},"properties":{"name":"雲林縣元長鄉立圖書館","type":"公共圖書館","county":"雲林縣"}},{"type":"Feature","geometry":{"type":"Point","coordinates":[119.506627,23.58333]},"properties":{"name":"澎湖縣西嶼鄉立圖書館","type":"公共圖書館","county":"澎湖縣"}},{"type":"Feature","geometry":{"type":"Point","coordinates":[119.499911,23.357347]},"properties":{"name":"澎湖縣望安鄉立圖書館","type":"公共圖書館","county":"澎湖縣"}},{"type":"Feature","geometry":{"type":"Point","coordinates":[119.430038,23.204605]},"properties":{"name":"澎湖縣七美鄉立圖書館","type":"公共圖書館","county":"澎湖縣"}},{"type":"Feature","geometry":{"type":"Point","coordinates":[119.598487,23.666366]},"properties":{"name":"澎湖縣白沙鄉立圖書館","type":"公共圖書館","county":"澎湖縣"}},{"type":"Feature","geometry":{"type":"Point","coordinates":[119.65194,23.583574]},"properties":{"name":"澎湖縣湖西鄉立圖書館","type":"公共圖書館","county":"澎湖縣"}},{"type":"Feature","geometry":{"type":"Point","coordinates":[118.41425,24.491471]},"properties":{"name":"金門縣金沙鎮圖書館","type":"公共圖書館","county":"金門縣"}},{"type":"Feature","geometry":{"type":"Point","coordinates":[118.417695,24.441381]},"properties":{"name":"金門縣金湖鎮立圖書館","type":"公共圖書館","county":"金門縣"}},{"type":"Feature","geometry":{"type":"Point","coordinates":[118.242898,24.42899]},"properties":{"name":"金門縣烈嶼鄉圖書館","type":"公共圖書館","county":"金門縣"}},{"type":"Feature","geometry":{"type":"Point","coordinates":[120.481069,22.660328]},"properties":{"name":"屏東縣屏東市立復興圖書館","type":"公共圖書館","county":"屏東縣"}},{"type":"Feature","geometry":{"type":"Point","coordinates":[120.654138,22.716373]},"properties":{"name":"屏東縣三地門鄉立圖書館","type":"公共圖書館","county":"屏東縣"}},{"type":"Feature","geometry":{"type":"Point","coordinates":[120.72836,22.749003]},"properties":{"name":"屏東縣霧臺鄉立圖書館","type":"公共圖書館","county":"屏東縣"}},{"type":"Feature","geometry":{"type":"Point","coordinates":[120.648402,22.709584]},"properties":{"name":"屏東縣瑪家鄉立圖書館","type":"公共圖書館","county":"屏東縣"}},{"type":"Feature","geometry":{"type":"Point","coordinates":[120.489576,22.734404]},"properties":{"name":"屏東縣九如鄉立圖書館","type":"公共圖書館","county":"屏東縣"}},{"type":"Feature","geometry":{"type":"Point","coordinates":[120.494014,22.780184]},"properties":{"name":"屏東縣里港鄉立圖書館","type":"公共圖書館","county":"屏東縣"}},{"type":"Feature","geometry":{"type":"Point","coordinates":[120.600724,22.82636]},"properties":{"name":"屏東縣高樹鄉立圖書館","type":"公共圖書館","county":"屏東縣"}},{"type":"Feature","geometry":{"type":"Point","coordinates":[120.551797,22.742428]},"properties":{"name":"屏東縣鹽埔鄉立圖書館","type":"公共圖書館","county":"屏東縣"}},{"type":"Feature","geometry":{"type":"Point","coordinates":[120.526455,22.676623]},"properties":{"name":"屏東縣長治鄉立圖書館","type":"公共圖書館","county":"屏東縣"}},{"type":"Feature","geometry":{"type":"Point","coordinates":[120.584771,22.697483]},"properties":{"name":"屏東縣長治鄉立圖書館繁華分館","type":"公共圖書館","county":"屏東縣"}},{"type":"Feature","geometry":{"type":"Point","coordinates":[120.527235,22.650686]},"properties":{"name":"屏東縣麟洛鄉立圖書館","type":"公共圖書館","county":"屏東縣"}},{"type":"Feature","geometry":{"type":"Point","coordinates":[120.543113,22.586609]},"properties":{"name":"屏東縣竹田鄉立圖書館","type":"公共圖書館","county":"屏東縣"}},{"type":"Feature","geometry":{"type":"Point","coordinates":[120.569412,22.611029]},"properties":{"name":"屏東縣內埔鄉立圖書館","type":"公共圖書館","county":"屏東縣"}},{"type":"Feature","geometry":{"type":"Point","coordinates":[120.484902,22.589019]},"properties":{"name":"屏東縣萬丹鄉立圖書館","type":"公共圖書館","county":"屏東縣"}},{"type":"Feature","geometry":{"type":"Point","coordinates":[120.551309,22.545485]},"properties":{"name":"屏東縣潮州鎮立圖書館","type":"公共圖書館","county":"屏東縣"}},{"type":"Feature","geometry":{"type":"Point","coordinates":[120.631959,22.591958]},"properties":{"name":"屏東縣泰武鄉立圖書館","type":"公共圖書館","county":"屏東縣"}},{"type":"Feature","geometry":{"type":"Point","coordinates":[120.631554,22.526193]},"properties":{"name":"屏東縣來義鄉立圖書館","type":"公共圖書館","county":"屏東縣"}},{"type":"Feature","geometry":{"type":"Point","coordinates":[120.567446,22.572303]},"properties":{"name":"屏東縣萬巒鄉立圖書館","type":"公共圖書館","county":"屏東縣"}},{"type":"Feature","geometry":{"type":"Point","coordinates":[120.606254,22.562533]},"properties":{"name":"屏東縣萬巒鄉立圖書館佳佐分館","type":"公共圖書館","county":"屏東縣"}},{"type":"Feature","geometry":{"type":"Point","coordinates":[120.506571,22.514996]},"properties":{"name":"屏東縣崁頂鄉立圖書館","type":"公共圖書館","county":"屏東縣"}},{"type":"Feature","geometry":{"type":"Point","coordinates":[120.550371,22.470265]},"properties":{"name":"屏東縣新埤鄉立圖書館","type":"公共圖書館","county":"屏東縣"}},{"type":"Feature","geometry":{"type":"Point","coordinates":[120.508025,22.488167]},"properties":{"name":"屏東縣南州鄉立圖書館","type":"公共圖書館","county":"屏東縣"}},{"type":"Feature","geometry":{"type":"Point","coordinates":[120.519654,22.441156]},"properties":{"name":"屏東縣林邊鄉立圖書館","type":"公共圖書館","county":"屏東縣"}},{"type":"Feature","geometry":{"type":"Point","coordinates":[120.45425,22.467106]},"properties":{"name":"屏東縣東港鎮立圖書館","type":"公共圖書館","county":"屏東縣"}},{"type":"Feature","geometry":{"type":"Point","coordinates":[120.378262,22.348289]},"properties":{"name":"屏東縣琉球鄉立圖書館","type":"公共圖書館","county":"屏東縣"}},{"type":"Feature","geometry":{"type":"Point","coordinates":[120.553154,22.416095]},"properties":{"name":"屏東縣佳冬鄉立圖書館","type":"公共圖書館","county":"屏東縣"}},{"type":"Feature","geometry":{"type":"Point","coordinates":[120.461547,22.544642]},"properties":{"name":"屏東縣新園鄉立圖書館","type":"公共圖書館","county":"屏東縣"}},{"type":"Feature","geometry":{"type":"Point","coordinates":[120.438522,22.478854]},"properties":{"name":"屏東縣新園鄉立圖書館共和分館","type":"公共圖書館","county":"屏東縣"}},{"type":"Feature","geometry":{"type":"Point","coordinates":[120.593468,22.365463]},"properties":{"name":"屏東縣枋寮鄉立圖書館","type":"公共圖書館","county":"屏東縣"}},{"type":"Feature","geometry":{"type":"Point","coordinates":[120.689547,22.192965]},"properties":{"name":"屏東縣枋山鄉立圖書館","type":"公共圖書館","county":"屏東縣"}},{"type":"Feature","geometry":{"type":"Point","coordinates":[120.62938,22.370883]},"properties":{"name":"屏東縣春日鄉圖書資訊館","type":"公共圖書館","county":"屏東縣"}},{"type":"Feature","geometry":{"type":"Point","coordinates":[120.722336,22.20501]},"properties":{"name":"屏東縣獅子鄉立圖書館","type":"公共圖書館","county":"屏東縣"}},{"type":"Feature","geometry":{"type":"Point","coordinates":[120.714417,22.078298]},"properties":{"name":"屏東縣車城鄉立圖書館","type":"公共圖書館","county":"屏東縣"}},{"type":"Feature","geometry":{"type":"Point","coordinates":[120.773622,22.1254]},"properties":{"name":"屏東縣牡丹鄉立圖書館","type":"公共圖書館","county":"屏東縣"}},{"type":"Feature","geometry":{"type":"Point","coordinates":[120.746936,22.003796]},"properties":{"name":"屏東縣恆春鎮立圖書館","type":"公共圖書館","county":"屏東縣"}},{"type":"Feature","geometry":{"type":"Point","coordinates":[120.837735,22.024311]},"properties":{"name":"屏東縣滿州鄉立圖書館","type":"公共圖書館","county":"屏東縣"}},{"type":"Feature","geometry":{"type":"Point","coordinates":[121.46899,22.668884]},"properties":{"name":"臺東縣綠島鄉立圖書館","type":"公共圖書館","county":"臺東縣"}},{"type":"Feature","geometry":{"type":"Point","coordinates":[121.511839,22.051337]},"properties":{"name":"臺東縣蘭嶼鄉立圖書館","type":"公共圖書館","county":"臺東縣"}},{"type":"Feature","geometry":{"type":"Point","coordinates":[121.084336,22.902922]},"properties":{"name":"臺東縣延平鄉立圖書館","type":"公共圖書館","county":"臺東縣"}},{"type":"Feature","geometry":{"type":"Point","coordinates":[121.088375,22.781975]},"properties":{"name":"臺東縣卑南鄉立圖書館","type":"公共圖書館","county":"臺東縣"}},{"type":"Feature","geometry":{"type":"Point","coordinates":[121.135972,22.914121]},"properties":{"name":"臺東縣鹿野鄉立圖書館","type":"公共圖書館","county":"臺東縣"}},{"type":"Feature","geometry":{"type":"Point","coordinates":[121.161356,23.044866]},"properties":{"name":"臺東縣關山鎮立圖書館","type":"公共圖書館","county":"臺東縣"}},{"type":"Feature","geometry":{"type":"Point","coordinates":[121.21468,23.120501]},"properties":{"name":"臺東縣池上鄉立圖書館","type":"公共圖書館","county":"臺東縣"}},{"type":"Feature","geometry":{"type":"Point","coordinates":[121.228334,22.872552]},"properties":{"name":"臺東縣東河鄉立圖書館","type":"公共圖書館","county":"臺東縣"}},{"type":"Feature","geometry":{"type":"Point","coordinates":[121.375234,23.100101]},"properties":{"name":"臺東縣成功鎮立圖書館","type":"公共圖書館","county":"臺東縣"}},{"type":"Feature","geometry":{"type":"Point","coordinates":[121.465315,23.33455]},"properties":{"name":"臺東縣長濱鄉立圖書館","type":"公共圖書館","county":"臺東縣"}},{"type":"Feature","geometry":{"type":"Point","coordinates":[121.007563,22.615629]},"properties":{"name":"臺東縣太麻里鄉立圖書館","type":"公共圖書館","county":"臺東縣"}},{"type":"Feature","geometry":{"type":"Point","coordinates":[120.995869,22.605993]},"properties":{"name":"臺東縣金峰鄉立圖書館","type":"公共圖書館","county":"臺東縣"}},{"type":"Feature","geometry":{"type":"Point","coordinates":[120.889762,22.339786]},"properties":{"name":"臺東縣大武鄉立圖書館","type":"公共圖書館","county":"臺東縣"}},{"type":"Feature","geometry":{"type":"Point","coordinates":[120.886452,22.294838]},"properties":{"name":"臺東縣達仁鄉立圖書館","type":"公共圖書館","county":"臺東縣"}},{"type":"Feature","geometry":{"type":"Point","coordinates":[121.601207,23.990214]},"properties":{"name":"花蓮縣花蓮市立圖書館","type":"公共圖書館","county":"花蓮縣"}},{"type":"Feature","geometry":{"type":"Point","coordinates":[121.605997,23.987499]},"properties":{"name":"花蓮縣花蓮市立圖書館兒童館","type":"公共圖書館","county":"花蓮縣"}},{"type":"Feature","geometry":{"type":"Point","coordinates":[121.596804,23.968789]},"properties":{"name":"花蓮縣花蓮市立圖書館樂齡館","type":"公共圖書館","county":"花蓮縣"}},{"type":"Feature","geometry":{"type":"Point","coordinates":[121.604217,24.039943]},"properties":{"name":"花蓮縣新城鄉立圖書館","type":"公共圖書館","county":"花蓮縣"}},{"type":"Feature","geometry":{"type":"Point","coordinates":[121.652384,24.128678]},"properties":{"name":"花蓮縣秀林鄉立圖書館","type":"公共圖書館","county":"花蓮縣"}},{"type":"Feature","geometry":{"type":"Point","coordinates":[121.577981,23.972966]},"properties":{"name":"花蓮縣吉安鄉立圖書館","type":"公共圖書館","county":"花蓮縣"}},{"type":"Feature","geometry":{"type":"Point","coordinates":[121.507755,23.87109]},"properties":{"name":"花蓮縣壽豐鄉立圖書館","type":"公共圖書館","county":"花蓮縣"}},{"type":"Feature","geometry":{"type":"Point","coordinates":[121.452803,23.746315]},"properties":{"name":"花蓮縣鳳林鎮立圖書館","type":"公共圖書館","county":"花蓮縣"}},{"type":"Feature","geometry":{"type":"Point","coordinates":[121.423727,23.663646]},"properties":{"name":"花蓮縣光復鄉立圖書館","type":"公共圖書館","county":"花蓮縣"}},{"type":"Feature","geometry":{"type":"Point","coordinates":[121.521944,23.601598]},"properties":{"name":"花蓮縣豐濱鄉立圖書館","type":"公共圖書館","county":"花蓮縣"}},{"type":"Feature","geometry":{"type":"Point","coordinates":[121.390474,23.493776]},"properties":{"name":"花蓮縣瑞穗鄉立圖書館","type":"公共圖書館","county":"花蓮縣"}},{"type":"Feature","geometry":{"type":"Point","coordinates":[121.410439,23.714907]},"properties":{"name":"花蓮縣萬榮鄉立圖書館","type":"公共圖書館","county":"花蓮縣"}},{"type":"Feature","geometry":{"type":"Point","coordinates":[121.315911,23.336197]},"properties":{"name":"花蓮縣玉里鎮立圖書館","type":"公共圖書館","county":"花蓮縣"}},{"type":"Feature","geometry":{"type":"Point","coordinates":[121.303212,23.344233]},"properties":{"name":"花蓮縣卓溪鄉立圖書館","type":"公共圖書館","county":"花蓮縣"}},{"type":"Feature","geometry":{"type":"Point","coordinates":[121.249742,23.172756]},"properties":{"name":"花蓮縣富里鄉立圖書館","type":"公共圖書館","county":"花蓮縣"}},{"type":"Feature","geometry":{"type":"Point","coordinates":[121.551198,24.863485]},"properties":{"name":"新北市立圖書館烏來分館","type":"公共圖書館","county":"新北市"}},{"type":"Feature","geometry":{"type":"Point","coordinates":[121.350789,24.818462]},"properties":{"name":"桃園市復興區立圖書館","type":"公共圖書館","county":"桃園市"}},{"type":"Feature","geometry":{"type":"Point","coordinates":[120.883649,24.175149]},"properties":{"name":"臺中市和平區立圖書館","type":"公共圖書館","county":"臺中市"}},{"type":"Feature","geometry":{"type":"Point","coordinates":[120.764509,23.158869]},"properties":{"name":"高雄市桃源區立圖書館","type":"公共圖書館","county":"高雄市"}},{"type":"Feature","geometry":{"type":"Point","coordinates":[120.719829,23.276979]},"properties":{"name":"高雄市那瑪夏區立圖書館","type":"公共圖書館","county":"高雄市"}},{"type":"Feature","geometry":{"type":"Point","coordinates":[120.664369,22.886479]},"properties":{"name":"高雄市茂林區立圖書館","type":"公共圖書館","county":"高雄市"}},{"type":"Feature","geometry":{"type":"Point","coordinates":[120.526842,22.654809]},"properties":{"name":"麟洛成功圖書館","type":"公共圖書館","county":"屏東縣"}},{"type":"Feature","geometry":{"type":"Point","coordinates":[121.52681,25.04047]},"properties":{"name":"帝門藝術教育基金會藝術圖書館","type":"專門圖書館, 公共圖書館","county":"臺北市"}},{"type":"Feature","geometry":{"type":"Point","coordinates":[121.576463,25.045063]},"properties":{"name":"財團法人國泰建設文化教育基金會附設名人霖園圖書館","type":"專門圖書館, 公共圖書館","county":"臺北市"}},{"type":"Feature","geometry":{"type":"Point","coordinates":[121.567625,24.99071]},"properties":{"name":"財團法人臺北市私立周卿圖書館","type":"專門圖書館, 公共圖書館","county":"臺北市"}},{"type":"Feature","geometry":{"type":"Point","coordinates":[121.785195,25.135567]},"properties":{"name":"基隆市巴賽隆納社區圖書館","type":"專門圖書館, 公共圖書館","county":"基隆市"}},{"type":"Feature","geometry":{"type":"Point","coordinates":[121.730203,25.130157]},"properties":{"name":"基隆市永康社區圖書館","type":"專門圖書館, 公共圖書館","county":"基隆市"}},{"type":"Feature","geometry":{"type":"Point","coordinates":[121.480253,25.015922]},"properties":{"name":"財團法人國泰建設文化教育基金會附設板橋霖園圖書館","type":"專門圖書館, 公共圖書館","county":"新北市"}},{"type":"Feature","geometry":{"type":"Point","coordinates":[121.418368,24.987683]},"properties":{"name":"財團法人新北市樹林健民協會圖書館","type":"專門圖書館, 公共圖書館","county":"新北市"}},{"type":"Feature","geometry":{"type":"Point","coordinates":[121.475554,25.068814]},"properties":{"name":"財團法人國泰建設文化教育基金會附設三重霖園圖書館","type":"專門圖書館, 公共圖書館","county":"新北市"}},{"type":"Feature","geometry":{"type":"Point","coordinates":[121.461657,25.039252]},"properties":{"name":"財團法人劉戀文化基金會貓頭鷹圖書館","type":"專門圖書館, 公共圖書館","county":"新北市"}},{"type":"Feature","geometry":{"type":"Point","coordinates":[121.445786,25.037338]},"properties":{"name":"財團法人國泰建設文化教育基金會附設新莊霖園圖書館","type":"專門圖書館, 公共圖書館","county":"新北市"}},{"type":"Feature","geometry":{"type":"Point","coordinates":[121.469906,25.088521]},"properties":{"name":"財團法人林建生紀念圖書館","type":"專門圖書館, 公共圖書館","county":"新北市"}},{"type":"Feature","geometry":{"type":"Point","coordinates":[120.966665,24.7968]},"properties":{"name":"華婉兒童圖書館","type":"專門圖書館, 公共圖書館","county":"新竹市"}},{"type":"Feature","geometry":{"type":"Point","coordinates":[121.30359,25.002911]},"properties":{"name":"善品書舍社區公益圖書館","type":"專門圖書館, 公共圖書館","county":"桃園市"}},{"type":"Feature","geometry":{"type":"Point","coordinates":[120.675402,24.168922]},"properties":{"name":"財團法人國泰建設文化教育基金會附設曉明霖園圖書館","type":"專門圖書館, 公共圖書館","county":"臺中市"}},{"type":"Feature","geometry":{"type":"Point","coordinates":[120.230394,22.988388]},"properties":{"name":"財團法人國泰建設文化教育基金會附設裕農霖園圖書館","type":"專門圖書館, 公共圖書館","county":"臺南市"}},{"type":"Feature","geometry":{"type":"Point","coordinates":[120.31795,22.623708]},"properties":{"name":"財團法人國泰建設文化教育基金會附設苓雅霖園圖書館","type":"專門圖書館, 公共圖書館","county":"高雄市"}},{"type":"Feature","geometry":{"type":"Point","coordinates":[120.282041,22.666395]},"properties":{"name":"財團法人國泰建設文化教育基金會附設內惟霖園圖書館","type":"專門圖書館, 公共圖書館","county":"高雄市"}},{"type":"Feature","geometry":{"type":"Point","coordinates":[120.2949,22.664195]},"properties":{"name":"財團法人國泰建設文化教育基金會附設華園霖園圖書館","type":"專門圖書館, 公共圖書館","county":"高雄市"}},{"type":"Feature","geometry":{"type":"Point","coordinates":[120.364197,22.628809]},"properties":{"name":"財團法人張王恨女士紀念圖書館基金會附設慈恩紀念圖書館","type":"專門圖書館, 公共圖書館","county":"高雄市"}},{"type":"Feature","geometry":{"type":"Point","coordinates":[119.612797,23.741614]},"properties":{"name":"澎湖縣白沙鄉立吉貝社區圖書館","type":"專門圖書館, 公共圖書館","county":"澎湖縣"}},{"type":"Feature","geometry":{"type":"Point","coordinates":[120.534244,22.695608]},"properties":{"name":"屏東縣長治鄉德榮村向日葵圖書館","type":"專門圖書館, 公共圖書館","county":"屏東縣"}},{"type":"Feature","geometry":{"type":"Point","coordinates":[120.540859,22.586627]},"properties":{"name":"財團法人泰美教育基金會泰美親子圖書館","type":"專門圖書館, 公共圖書館","county":"屏東縣"}},{"type":"Feature","geometry":{"type":"Point","coordinates":[121.601261,23.975895]},"properties":{"name":"財團法人花蓮新象社區交流協會繪本圖書館","type":"專門圖書館, 公共圖書館","county":"花蓮縣"}},{"type":"Feature","geometry":{"type":"Point","coordinates":[121.547693,25.053842]},"properties":{"name":"財團法人臺北行天宮附設玄空圖書館(敦化本館)","type":"專門圖書館, 公共圖書館","county":"臺北市"}},{"type":"Feature","geometry":{"type":"Point","coordinates":[121.478264,25.136746]},"properties":{"name":"財團法人臺北行天宮附設玄空圖書館(北投分館)","type":"專門圖書館, 公共圖書館","county":"臺北市"}},{"type":"Feature","geometry":{"type":"Point","coordinates":[121.424951,24.995271]},"properties":{"name":"財團法人臺灣省新北市樹林區鎮南宮附設圖書館","type":"專門圖書館, 公共圖書館","county":"新北市"}},{"type":"Feature","geometry":{"type":"Point","coordinates":[121.45677,25.038092]},"properties":{"name":"新莊地藏庵附設大眾圖書館","type":"專門圖書館, 公共圖書館","county":"新北市"}},{"type":"Feature","geometry":{"type":"Point","coordinates":[120.981055,24.810767]},"properties":{"name":"財團法人無量壽圖書館","type":"專門圖書館, 公共圖書館","county":"新竹市"}},{"type":"Feature","geometry":{"type":"Point","coordinates":[121.194624,25.002087]},"properties":{"name":"圓光寺妙果圖書館","type":"專門圖書館, 公共圖書館","county":"桃園市"}},{"type":"Feature","geometry":{"type":"Point","coordinates":[120.676294,24.142247]},"properties":{"name":"財團法人臺中市私立慈光圖書館","type":"專門圖書館, 公共圖書館","county":"臺中市"}},{"type":"Feature","geometry":{"type":"Point","coordinates":[120.683353,24.162599]},"properties":{"name":"財團法人臺中市行聖宮圖書館","type":"專門圖書館, 公共圖書館","county":"臺中市"}},{"type":"Feature","geometry":{"type":"Point","coordinates":[120.639501,24.137595]},"properties":{"name":"財團法人臺中市萬和宮附設圖書館","type":"專門圖書館, 公共圖書館","county":"臺中市"}},{"type":"Feature","geometry":{"type":"Point","coordinates":[120.300939,22.63395]},"properties":{"name":"高雄新興基督長老教會彭清約紀念圖書館","type":"專門圖書館, 公共圖書館","county":"高雄市"}},{"type":"Feature","geometry":{"type":"Point","coordinates":[120.319329,22.622686]},"properties":{"name":"財團法人淨心文教基金會高雄圖書館","type":"專門圖書館, 公共圖書館","county":"高雄市"}}]}