{"type":"FeatureCollection","features":[{"type":"Feature","geometry":{"type":"Point","coordinates":[121.45786,25.023526]},"properties":{"id":"atf_ec34114e","name":"新北市立聯合醫院（板橋院區）","county":"新北市","town":"板橋區","address":"新北市板橋區英士路198號","phone":"02-2982-9111#6070","service_hours":null,"geocode_precision":"exact","category_label":"酒癮治療機構","facility_type":"hospital","facility_type_label":"醫院","service_type_label":"酒癮治療指定機構、酒癮治療費用補助方案、酒駕防制教育及治療（酒駕評估）","is_alcohol_designated":true,"in_subsidy_program":true,"is_dui_assessment":true,"also_drug_treatment":true,"source_org":"衛生福利部心理健康司（酒癮治療費用補助方案機構及酒駕酒癮評估機構名單）","source_url":"https://dep.mohw.gov.tw/DOMHAOH/cp-4382-46834-107.html","license":"來源頁未標示授權","source_tier":null,"fetched_at":"2026-10-06","vintage":"2026-08-07"}},{"type":"Feature","geometry":{"type":"Point","coordinates":[121.49084,25.060869]},"properties":{"id":"atf_c923f84a","name":"新北市立聯合醫院（三重院區）","county":"新北市","town":"三重區","address":"新北市三重區新北大道一段3號","phone":"02-2982-9111#6070","service_hours":null,"geocode_precision":"cached","category_label":"酒癮治療機構","facility_type":"hospital","facility_type_label":"醫院","service_type_label":"酒癮治療指定機構、酒癮治療費用補助方案、酒駕防制教育及治療（酒駕評估）","is_alcohol_designated":true,"in_subsidy_program":true,"is_dui_assessment":true,"also_drug_treatment":true,"source_org":"衛生福利部心理健康司（酒癮治療費用補助方案機構及酒駕酒癮評估機構名單）","source_url":"https://dep.mohw.gov.tw/DOMHAOH/cp-4382-46834-107.html","license":"來源頁未標示授權","source_tier":null,"fetched_at":"2026-10-06","vintage":"2026-08-07"}},{"type":"Feature","geometry":{"type":"Point","coordinates":[121.452312,24.997313]},"properties":{"id":"atf_8ee17c8c","name":"醫療財團法人徐元智先生醫藥基金會亞東紀念醫院","county":"新北市","town":"板橋區","address":"新北市板橋區南雅南路二段21號","phone":"02-7728-2885","service_hours":null,"geocode_precision":"cached","category_label":"酒癮治療機構","facility_type":"hospital","facility_type_label":"醫院","service_type_label":"酒癮治療指定機構、酒癮治療費用補助方案、酒駕防制教育及治療（酒駕評估）","is_alcohol_designated":true,"in_subsidy_program":true,"is_dui_assessment":true,"also_drug_treatment":true,"source_org":"衛生福利部心理健康司（酒癮治療費用補助方案機構及酒駕酒癮評估機構名單）","source_url":"https://dep.mohw.gov.tw/DOMHAOH/cp-4382-46834-107.html","license":"來源頁未標示授權","source_tier":null,"fetched_at":"2026-10-06","vintage":"2026-08-07"}},{"type":"Feature","geometry":{"type":"Point","coordinates":[121.661084,25.072872]},"properties":{"id":"atf_da6ed1c0","name":"國泰醫療財團法人汐止國泰綜合醫院","county":"新北市","town":"汐止區","address":"新北市汐止區建成路59巷2號","phone":"02-2648-2121#3618","service_hours":null,"geocode_precision":"cached","category_label":"酒癮治療機構","facility_type":"hospital","facility_type_label":"醫院","service_type_label":"酒癮治療指定機構、酒癮治療費用補助方案、酒駕防制教育及治療（酒駕評估）","is_alcohol_designated":true,"in_subsidy_program":true,"is_dui_assessment":true,"also_drug_treatment":true,"source_org":"衛生福利部心理健康司（酒癮治療費用補助方案機構及酒駕酒癮評估機構名單）","source_url":"https://dep.mohw.gov.tw/DOMHAOH/cp-4382-46834-107.html","license":"來源頁未標示授權","source_tier":null,"fetched_at":"2026-10-06","vintage":"2026-08-07"}},{"type":"Feature","geometry":{"type":"Point","coordinates":[121.535808,24.985781]},"properties":{"id":"atf_c8ed1673","name":"佛教慈濟醫療財團法人臺北慈濟醫院","county":"新北市","town":"新店區","address":"新北市新店區建國路289號","phone":"02-6628-9779#3868","service_hours":null,"geocode_precision":"cached","category_label":"酒癮治療機構","facility_type":"hospital","facility_type_label":"醫院","service_type_label":"酒癮治療指定機構、酒癮治療費用補助方案、酒駕防制教育及治療（酒駕評估）","is_alcohol_designated":true,"in_subsidy_program":true,"is_dui_assessment":true,"also_drug_treatment":true,"source_org":"衛生福利部心理健康司（酒癮治療費用補助方案機構及酒駕酒癮評估機構名單）","source_url":"https://dep.mohw.gov.tw/DOMHAOH/cp-4382-46834-107.html","license":"來源頁未標示授權","source_tier":null,"fetched_at":"2026-10-06","vintage":"2026-08-07"}},{"type":"Feature","geometry":{"type":"Point","coordinates":[121.535619,24.976084]},"properties":{"id":"atf_1ee39e84","name":"天主教耕莘醫療財團法人耕莘醫院","county":"新北市","town":"新店區","address":"新北市新店區中正路362號","phone":"02-2219-3391#66908","service_hours":null,"geocode_precision":"cached","category_label":"酒癮治療機構","facility_type":"hospital","facility_type_label":"醫院","service_type_label":"酒癮治療指定機構、酒癮治療費用補助方案、酒駕防制教育及治療（酒駕評估）","is_alcohol_designated":true,"in_subsidy_program":true,"is_dui_assessment":true,"also_drug_treatment":true,"source_org":"衛生福利部心理健康司（酒癮治療費用補助方案機構及酒駕酒癮評估機構名單）","source_url":"https://dep.mohw.gov.tw/DOMHAOH/cp-4382-46834-107.html","license":"來源頁未標示授權","source_tier":null,"fetched_at":"2026-10-06","vintage":"2026-08-07"}},{"type":"Feature","geometry":{"type":"Point","coordinates":[121.494082,24.993746]},"properties":{"id":"atf_910b5891","name":"衛生福利部雙和醫院（委託臺北醫學大學興建經營）","county":"新北市","town":"中和區","address":"新北市中和區中正路291號","phone":"02-2249-0088","service_hours":null,"geocode_precision":"cached","category_label":"酒癮治療機構","facility_type":"hospital","facility_type_label":"醫院","service_type_label":"酒癮治療指定機構、酒癮治療費用補助方案、酒駕防制教育及治療（酒駕評估）","is_alcohol_designated":true,"in_subsidy_program":true,"is_dui_assessment":true,"also_drug_treatment":true,"source_org":"衛生福利部心理健康司（酒癮治療費用補助方案機構及酒駕酒癮評估機構名單）","source_url":"https://dep.mohw.gov.tw/DOMHAOH/cp-4382-46834-107.html","license":"來源頁未標示授權","source_tier":null,"fetched_at":"2026-10-06","vintage":"2026-08-07"}},{"type":"Feature","geometry":{"type":"Point","coordinates":[121.460152,24.989546]},"properties":{"id":"atf_67d86e22","name":"衛生福利部八里療養院(土城門診)","county":"新北市","town":"土城區","address":"新北市土城區青雲路6號1樓","phone":"02-2274-5250","service_hours":null,"geocode_precision":"exact","category_label":"酒癮治療機構","facility_type":"hospital","facility_type_label":"醫院","service_type_label":"酒癮治療指定機構、酒癮治療費用補助方案、酒駕防制教育及治療（酒駕評估）","is_alcohol_designated":true,"in_subsidy_program":true,"is_dui_assessment":true,"also_drug_treatment":true,"source_org":"衛生福利部心理健康司（酒癮治療費用補助方案機構及酒駕酒癮評估機構名單）","source_url":"https://dep.mohw.gov.tw/DOMHAOH/cp-4382-46834-107.html","license":"來源頁未標示授權","source_tier":null,"fetched_at":"2026-10-06","vintage":"2026-08-07"}},{"type":"Feature","geometry":{"type":"Point","coordinates":[121.430799,25.039676]},"properties":{"id":"atf_ef779488","name":"天主教輔仁大學附設醫院","county":"新北市","town":"泰山區","address":"新北市泰山區貴子路69號","phone":"02-8512-8888#25269","service_hours":null,"geocode_precision":"cached","category_label":"酒癮治療機構","facility_type":"hospital","facility_type_label":"醫院","service_type_label":"酒癮治療指定機構、酒癮治療費用補助方案、酒駕防制教育及治療（酒駕評估）","is_alcohol_designated":true,"in_subsidy_program":true,"is_dui_assessment":true,"also_drug_treatment":false,"source_org":"衛生福利部心理健康司（酒癮治療費用補助方案機構及酒駕酒癮評估機構名單）","source_url":"https://dep.mohw.gov.tw/DOMHAOH/cp-4382-46834-107.html","license":"來源頁未標示授權","source_tier":null,"fetched_at":"2026-10-06","vintage":"2026-08-07"}},{"type":"Feature","geometry":{"type":"Point","coordinates":[121.459813,25.139179]},"properties":{"id":"atf_a17edd99","name":"臺灣基督長老教會馬偕醫療財團法人淡水馬偕紀念醫院","county":"新北市","town":"淡水區","address":"新北市淡水區民權路47號","phone":"02-2809-4661#2727","service_hours":null,"geocode_precision":"exact","category_label":"酒癮治療機構","facility_type":"hospital","facility_type_label":"醫院","service_type_label":"酒癮治療指定機構、酒癮治療費用補助方案","is_alcohol_designated":true,"in_subsidy_program":true,"is_dui_assessment":false,"also_drug_treatment":true,"source_org":"衛生福利部心理健康司（酒癮治療費用補助方案機構及酒駕酒癮評估機構名單）","source_url":"https://dep.mohw.gov.tw/DOMHAOH/cp-4382-46834-107.html","license":"來源頁未標示授權","source_tier":null,"fetched_at":"2026-10-06","vintage":"2026-08-07"}},{"type":"Feature","geometry":{"type":"Point","coordinates":[121.547304,24.975276]},"properties":{"id":"atf_f6fefae4","name":"楊聰才診所","county":"新北市","town":"新店區","address":"新北市新店區中興路2段239號2樓","phone":null,"service_hours":null,"geocode_precision":"cached","category_label":"酒癮治療機構","facility_type":"clinic","facility_type_label":"診所","service_type_label":"酒癮治療指定機構、酒癮治療費用補助方案","is_alcohol_designated":true,"in_subsidy_program":true,"is_dui_assessment":false,"also_drug_treatment":false,"source_org":"衛生福利部心理健康司（酒癮治療費用補助方案機構及酒駕酒癮評估機構名單）","source_url":"https://dep.mohw.gov.tw/DOMHAOH/cp-4382-46834-107.html","license":"來源頁未標示授權","source_tier":null,"fetched_at":"2026-10-06","vintage":"2026-08-07"}},{"type":"Feature","geometry":{"type":"Point","coordinates":[121.491693,25.059789]},"properties":{"id":"atf_3f495f2f","name":"安興精神科診所","county":"新北市","town":"三重區","address":"新北市三重區重新路三段132號","phone":"02-2974-3029","service_hours":null,"geocode_precision":"cached","category_label":"酒癮治療機構","facility_type":"clinic","facility_type_label":"診所","service_type_label":"酒癮治療指定機構、酒癮治療費用補助方案","is_alcohol_designated":true,"in_subsidy_program":true,"is_dui_assessment":false,"also_drug_treatment":true,"source_org":"衛生福利部心理健康司（酒癮治療費用補助方案機構及酒駕酒癮評估機構名單）","source_url":"https://dep.mohw.gov.tw/DOMHAOH/cp-4382-46834-107.html","license":"來源頁未標示授權","source_tier":null,"fetched_at":"2026-10-06","vintage":"2026-08-07"}},{"type":"Feature","geometry":{"type":"Point","coordinates":[121.46089,25.049341]},"properties":{"id":"atf_2a671227","name":"恆友精神科診所","county":"新北市","town":"新莊區","address":"新北市新莊區幸福東路135號","phone":"02-2990-7909","service_hours":null,"geocode_precision":"cached","category_label":"酒癮治療機構","facility_type":"clinic","facility_type_label":"診所","service_type_label":"酒癮治療指定機構、酒癮治療費用補助方案","is_alcohol_designated":true,"in_subsidy_program":true,"is_dui_assessment":false,"also_drug_treatment":true,"source_org":"衛生福利部心理健康司（酒癮治療費用補助方案機構及酒駕酒癮評估機構名單）","source_url":"https://dep.mohw.gov.tw/DOMHAOH/cp-4382-46834-107.html","license":"來源頁未標示授權","source_tier":null,"fetched_at":"2026-10-06","vintage":"2026-08-07"}},{"type":"Feature","geometry":{"type":"Point","coordinates":[121.522558,25.058884]},"properties":{"id":"atf_fe43e4bf","name":"臺灣基督長老教會馬偕醫療財團法人馬偕紀念醫院","county":"臺北市","town":"中山區","address":"臺北市中山區中山北路二段92號","phone":"02-2543-3535#3683","service_hours":null,"geocode_precision":"cached","category_label":"酒癮治療機構","facility_type":"hospital","facility_type_label":"醫院","service_type_label":"酒癮治療指定機構、酒癮治療費用補助方案、酒駕防制教育及治療（酒駕評估）","is_alcohol_designated":true,"in_subsidy_program":true,"is_dui_assessment":true,"also_drug_treatment":false,"source_org":"衛生福利部心理健康司（酒癮治療費用補助方案機構及酒駕酒癮評估機構名單）","source_url":"https://dep.mohw.gov.tw/DOMHAOH/cp-4382-46834-107.html","license":"來源頁未標示授權","source_tier":null,"fetched_at":"2026-10-06","vintage":"2026-08-07"}},{"type":"Feature","geometry":{"type":"Point","coordinates":[121.549618,25.055508]},"properties":{"id":"atf_d4b596b3","name":"長庚醫療財團法人臺北長庚紀念醫院","county":"臺北市","town":"松山區","address":"臺北市松山區敦化北路199號","phone":"03-328-1200#5102","service_hours":null,"geocode_precision":"cached","category_label":"酒癮治療機構","facility_type":"hospital","facility_type_label":"醫院","service_type_label":"酒癮治療指定機構、酒癮治療費用補助方案、酒駕防制教育及治療（酒駕評估）","is_alcohol_designated":true,"in_subsidy_program":true,"is_dui_assessment":true,"also_drug_treatment":false,"source_org":"衛生福利部心理健康司（酒癮治療費用補助方案機構及酒駕酒癮評估機構名單）","source_url":"https://dep.mohw.gov.tw/DOMHAOH/cp-4382-46834-107.html","license":"來源頁未標示授權","source_tier":null,"fetched_at":"2026-10-06","vintage":"2026-08-07"}},{"type":"Feature","geometry":{"type":"Point","coordinates":[121.553093,25.036948]},"properties":{"id":"atf_d01bc28c","name":"國泰醫療財團法人國泰綜合醫院","county":"臺北市","town":null,"address":"臺北市仁愛路四段280號","phone":"02-2648-2121#3618","service_hours":null,"geocode_precision":"exact","category_label":"酒癮治療機構","facility_type":"hospital","facility_type_label":"醫院","service_type_label":"酒癮治療指定機構、酒癮治療費用補助方案、酒駕防制教育及治療（酒駕評估）","is_alcohol_designated":true,"in_subsidy_program":true,"is_dui_assessment":true,"also_drug_treatment":true,"source_org":"衛生福利部心理健康司（酒癮治療費用補助方案機構及酒駕酒癮評估機構名單）","source_url":"https://dep.mohw.gov.tw/DOMHAOH/cp-4382-46834-107.html","license":"來源頁未標示授權","source_tier":null,"fetched_at":"2026-10-06","vintage":"2026-08-07"}},{"type":"Feature","geometry":{"type":"Point","coordinates":[121.563638,25.026638]},"properties":{"id":"atf_a54a56ce","name":"臺北醫學大學附設醫院","county":"臺北市","town":"信義區","address":"臺北市信義區吳興街252號","phone":"02-2737-2181#1315","service_hours":null,"geocode_precision":"cached","category_label":"酒癮治療機構","facility_type":"hospital","facility_type_label":"醫院","service_type_label":"酒癮治療指定機構、酒癮治療費用補助方案、酒駕防制教育及治療（酒駕評估）","is_alcohol_designated":true,"in_subsidy_program":true,"is_dui_assessment":true,"also_drug_treatment":true,"source_org":"衛生福利部心理健康司（酒癮治療費用補助方案機構及酒駕酒癮評估機構名單）","source_url":"https://dep.mohw.gov.tw/DOMHAOH/cp-4382-46834-107.html","license":"來源頁未標示授權","source_tier":null,"fetched_at":"2026-10-06","vintage":"2026-08-07"}},{"type":"Feature","geometry":{"type":"Point","coordinates":[121.574885,25.03048]},"properties":{"id":"atf_7e8ef23a","name":"臺北市立聯合醫院（松德院區）","county":"臺北市","town":"信義區","address":"臺北市信義區松德路309號","phone":"02-2728-5791","service_hours":null,"geocode_precision":"cached","category_label":"酒癮治療機構","facility_type":"hospital","facility_type_label":"醫院","service_type_label":"酒癮治療指定機構、酒癮治療費用補助方案、酒駕防制教育及治療（酒駕評估）","is_alcohol_designated":true,"in_subsidy_program":true,"is_dui_assessment":true,"also_drug_treatment":true,"source_org":"衛生福利部心理健康司（酒癮治療費用補助方案機構及酒駕酒癮評估機構名單）","source_url":"https://dep.mohw.gov.tw/DOMHAOH/cp-4382-46834-107.html","license":"來源頁未標示授權","source_tier":null,"fetched_at":"2026-10-06","vintage":"2026-08-07"}},{"type":"Feature","geometry":{"type":"Point","coordinates":[121.519166,25.119182]},"properties":{"id":"atf_9ae16b61","name":"臺北榮民總醫院","county":"臺北市","town":"北投區","address":"臺北市北投區石牌路二段201號","phone":"02-5570-4013","service_hours":null,"geocode_precision":"cached","category_label":"酒癮治療機構","facility_type":"hospital","facility_type_label":"醫院","service_type_label":"酒癮治療指定機構、酒癮治療費用補助方案、酒駕防制教育及治療（酒駕評估）","is_alcohol_designated":true,"in_subsidy_program":true,"is_dui_assessment":true,"also_drug_treatment":false,"source_org":"衛生福利部心理健康司（酒癮治療費用補助方案機構及酒駕酒癮評估機構名單）","source_url":"https://dep.mohw.gov.tw/DOMHAOH/cp-4382-46834-107.html","license":"來源頁未標示授權","source_tier":null,"fetched_at":"2026-10-06","vintage":"2026-08-07"}},{"type":"Feature","geometry":{"type":"Point","coordinates":[121.466358,25.120188]},"properties":{"id":"atf_a1a86a15","name":"臺北市立關渡醫院─委託臺北榮民總醫院經營","county":"臺北市","town":"北投區","address":"臺北市北投區知行路225巷12號","phone":"02-2858-7151","service_hours":null,"geocode_precision":"cached","category_label":"酒癮治療機構","facility_type":"hospital","facility_type_label":"醫院","service_type_label":"酒癮治療指定機構、酒癮治療費用補助方案、酒駕防制教育及治療（酒駕評估）","is_alcohol_designated":true,"in_subsidy_program":true,"is_dui_assessment":true,"also_drug_treatment":false,"source_org":"衛生福利部心理健康司（酒癮治療費用補助方案機構及酒駕酒癮評估機構名單）","source_url":"https://dep.mohw.gov.tw/DOMHAOH/cp-4382-46834-107.html","license":"來源頁未標示授權","source_tier":null,"fetched_at":"2026-10-06","vintage":"2026-08-07"}},{"type":"Feature","geometry":{"type":"Point","coordinates":[121.55833,25.000306]},"properties":{"id":"atf_c79b4e6b","name":"臺北市立萬芳醫院-委託臺北醫學大學辦理","county":"臺北市","town":"文山區","address":"臺北市文山區興隆路三段111號","phone":"02-2930-7930#1281","service_hours":null,"geocode_precision":"cached","category_label":"酒癮治療機構","facility_type":"hospital","facility_type_label":"醫院","service_type_label":"酒癮治療指定機構、酒癮治療費用補助方案、酒駕防制教育及治療（酒駕評估）","is_alcohol_designated":true,"in_subsidy_program":true,"is_dui_assessment":true,"also_drug_treatment":true,"source_org":"衛生福利部心理健康司（酒癮治療費用補助方案機構及酒駕酒癮評估機構名單）","source_url":"https://dep.mohw.gov.tw/DOMHAOH/cp-4382-46834-107.html","license":"來源頁未標示授權","source_tier":null,"fetched_at":"2026-10-06","vintage":"2026-08-07"}},{"type":"Feature","geometry":{"type":"Point","coordinates":[121.520289,25.096241]},"properties":{"id":"atf_293c5e1c","name":"新光醫療財團法人新光吳火獅紀念醫院","county":"臺北市","town":"士林區","address":"臺北市士林區文昌路95號","phone":"02-2833-2211#8466","service_hours":null,"geocode_precision":"cached","category_label":"酒癮治療機構","facility_type":"hospital","facility_type_label":"醫院","service_type_label":"酒癮治療指定機構、酒癮治療費用補助方案、酒駕防制教育及治療（酒駕評估）","is_alcohol_designated":true,"in_subsidy_program":true,"is_dui_assessment":true,"also_drug_treatment":true,"source_org":"衛生福利部心理健康司（酒癮治療費用補助方案機構及酒駕酒癮評估機構名單）","source_url":"https://dep.mohw.gov.tw/DOMHAOH/cp-4382-46834-107.html","license":"來源頁未標示授權","source_tier":null,"fetched_at":"2026-10-06","vintage":"2026-08-07"}},{"type":"Feature","geometry":{"type":"Point","coordinates":[121.591982,25.0718]},"properties":{"id":"atf_72e62358","name":"三軍總醫院附設民眾診療服務處","county":"臺北市","town":"內湖區","address":"臺北市內湖區成功路二段325號","phone":"02-8792-3311#17398","service_hours":null,"geocode_precision":"cached","category_label":"酒癮治療機構","facility_type":"hospital","facility_type_label":"醫院","service_type_label":"酒癮治療指定機構、酒癮治療費用補助方案、酒駕防制教育及治療（酒駕評估）","is_alcohol_designated":true,"in_subsidy_program":true,"is_dui_assessment":true,"also_drug_treatment":true,"source_org":"衛生福利部心理健康司（酒癮治療費用補助方案機構及酒駕酒癮評估機構名單）","source_url":"https://dep.mohw.gov.tw/DOMHAOH/cp-4382-46834-107.html","license":"來源頁未標示授權","source_tier":null,"fetched_at":"2026-10-06","vintage":"2026-08-07"}},{"type":"Feature","geometry":{"type":"Point","coordinates":[121.518558,25.040776]},"properties":{"id":"atf_e2db328a","name":"國立臺灣大學醫學院附設醫院","county":"臺北市","town":"中正區","address":"臺北市中正區中山南路7號","phone":"02-2312-3456","service_hours":null,"geocode_precision":"cached","category_label":"酒癮治療機構","facility_type":"hospital","facility_type_label":"醫院","service_type_label":"酒癮治療指定機構、酒癮治療費用補助方案","is_alcohol_designated":true,"in_subsidy_program":true,"is_dui_assessment":false,"also_drug_treatment":true,"source_org":"衛生福利部心理健康司（酒癮治療費用補助方案機構及酒駕酒癮評估機構名單）","source_url":"https://dep.mohw.gov.tw/DOMHAOH/cp-4382-46834-107.html","license":"來源頁未標示授權","source_tier":null,"fetched_at":"2026-10-06","vintage":"2026-08-07"}},{"type":"Feature","geometry":{"type":"Point","coordinates":[121.563836,25.056503]},"properties":{"id":"atf_918f8046","name":"李政洋身心診所","county":"臺北市","town":"松山區","address":"臺北市松山區三民路84號","phone":"02-27620086","service_hours":null,"geocode_precision":"cached","category_label":"酒癮治療機構","facility_type":"clinic","facility_type_label":"診所","service_type_label":"酒癮治療指定機構、酒癮治療費用補助方案","is_alcohol_designated":true,"in_subsidy_program":true,"is_dui_assessment":false,"also_drug_treatment":false,"source_org":"衛生福利部心理健康司（酒癮治療費用補助方案機構及酒駕酒癮評估機構名單）","source_url":"https://dep.mohw.gov.tw/DOMHAOH/cp-4382-46834-107.html","license":"來源頁未標示授權","source_tier":null,"fetched_at":"2026-10-06","vintage":"2026-08-07"}},{"type":"Feature","geometry":{"type":"Point","coordinates":[121.549612,25.033457]},"properties":{"id":"atf_01a7d42f","name":"交感身心診所","county":"臺北市","town":"大安區","address":"臺北市大安區信義路四段143號4樓","phone":"02-77306840","service_hours":null,"geocode_precision":"cached","category_label":"酒癮治療機構","facility_type":"clinic","facility_type_label":"診所","service_type_label":"酒癮治療指定機構、酒癮治療費用補助方案","is_alcohol_designated":true,"in_subsidy_program":true,"is_dui_assessment":false,"also_drug_treatment":true,"source_org":"衛生福利部心理健康司（酒癮治療費用補助方案機構及酒駕酒癮評估機構名單）","source_url":"https://dep.mohw.gov.tw/DOMHAOH/cp-4382-46834-107.html","license":"來源頁未標示授權","source_tier":null,"fetched_at":"2026-10-06","vintage":"2026-08-07"}},{"type":"Feature","geometry":{"type":"Point","coordinates":[121.51108,25.113566]},"properties":{"id":"atf_9221f7b9","name":"石牌鄭身心醫學診所","county":"臺北市","town":"北投區","address":"臺北市北投區石牌路一段69號1樓","phone":"02-2822-7660","service_hours":null,"geocode_precision":"cached","category_label":"酒癮治療機構","facility_type":"clinic","facility_type_label":"診所","service_type_label":"酒癮治療指定機構","is_alcohol_designated":true,"in_subsidy_program":false,"is_dui_assessment":false,"also_drug_treatment":false,"source_org":"衛生福利部心理健康司（酒癮治療費用補助方案機構及酒駕酒癮評估機構名單）","source_url":"https://dep.mohw.gov.tw/DOMHAOH/cp-4382-46834-107.html","license":"來源頁未標示授權","source_tier":null,"fetched_at":"2026-10-06","vintage":"2026-08-07"}},{"type":"Feature","geometry":{"type":"Point","coordinates":[121.510944,25.113659]},"properties":{"id":"atf_d4b463cc","name":"天母愛舒眠心理治療所","county":"臺北市","town":"北投區","address":"臺北市北投區石牌路一段71巷3弄3號1樓","phone":"02-2823-5600","service_hours":null,"geocode_precision":"exact","category_label":"酒癮治療機構","facility_type":"clinic","facility_type_label":"診所","service_type_label":"酒癮治療指定機構","is_alcohol_designated":true,"in_subsidy_program":false,"is_dui_assessment":false,"also_drug_treatment":false,"source_org":"衛生福利部心理健康司（酒癮治療費用補助方案機構及酒駕酒癮評估機構名單）","source_url":"https://dep.mohw.gov.tw/DOMHAOH/cp-4382-46834-107.html","license":"來源頁未標示授權","source_tier":null,"fetched_at":"2026-10-06","vintage":"2026-08-07"}},{"type":"Feature","geometry":{"type":"Point","coordinates":[121.559257,24.988601]},"properties":{"id":"atf_1437129c","name":"利伯他茲心理諮商所","county":"臺北市","town":"文山區","address":"臺北市文山區木柵路二段62號2樓","phone":"02-2936-1183","service_hours":null,"geocode_precision":"exact","category_label":"酒癮治療機構","facility_type":"clinic","facility_type_label":"診所","service_type_label":"酒癮治療指定機構、酒癮治療費用補助方案","is_alcohol_designated":true,"in_subsidy_program":true,"is_dui_assessment":false,"also_drug_treatment":true,"source_org":"衛生福利部心理健康司（酒癮治療費用補助方案機構及酒駕酒癮評估機構名單）","source_url":"https://dep.mohw.gov.tw/DOMHAOH/cp-4382-46834-107.html","license":"來源頁未標示授權","source_tier":null,"fetched_at":"2026-10-06","vintage":"2026-08-07"}},{"type":"Feature","geometry":{"type":"Point","coordinates":[121.530532,25.060903]},"properties":{"id":"atf_df9399b7","name":"以賽亞心理諮商所","county":"臺北市","town":"中山區","address":"臺北市中山區吉林路231號3樓","phone":null,"service_hours":null,"geocode_precision":"exact","category_label":"酒癮治療機構","facility_type":"clinic","facility_type_label":"診所","service_type_label":"酒癮治療指定機構、酒癮治療費用補助方案","is_alcohol_designated":true,"in_subsidy_program":true,"is_dui_assessment":false,"also_drug_treatment":true,"source_org":"衛生福利部心理健康司（酒癮治療費用補助方案機構及酒駕酒癮評估機構名單）","source_url":"https://dep.mohw.gov.tw/DOMHAOH/cp-4382-46834-107.html","license":"來源頁未標示授權","source_tier":null,"fetched_at":"2026-10-06","vintage":"2026-08-07"}},{"type":"Feature","geometry":{"type":"Point","coordinates":[121.535562,25.041727]},"properties":{"id":"atf_c0e5e9d2","name":"中崙諮商中心心理諮商所","county":"臺北市","town":"大安區","address":"臺北市大安區忠孝東路三段54號4樓-1","phone":"02-2731-9731","service_hours":null,"geocode_precision":"cached","category_label":"酒癮治療機構","facility_type":"clinic","facility_type_label":"診所","service_type_label":"酒癮治療指定機構、酒癮治療費用補助方案","is_alcohol_designated":true,"in_subsidy_program":true,"is_dui_assessment":false,"also_drug_treatment":false,"source_org":"衛生福利部心理健康司（酒癮治療費用補助方案機構及酒駕酒癮評估機構名單）","source_url":"https://dep.mohw.gov.tw/DOMHAOH/cp-4382-46834-107.html","license":"來源頁未標示授權","source_tier":null,"fetched_at":"2026-10-06","vintage":"2026-08-07"}},{"type":"Feature","geometry":{"type":"Point","coordinates":[121.268177,24.979272]},"properties":{"id":"atf_e665e824","name":"衛生福利部桃園療養院","county":"桃園市","town":"桃園區","address":"桃園市桃園區龍壽街71號","phone":"03-369-8553#3003","service_hours":null,"geocode_precision":"cached","category_label":"酒癮治療機構","facility_type":"hospital","facility_type_label":"醫院","service_type_label":"酒癮治療指定機構、酒癮治療費用補助方案、酒駕防制教育及治療（酒駕評估）","is_alcohol_designated":true,"in_subsidy_program":true,"is_dui_assessment":true,"also_drug_treatment":true,"source_org":"衛生福利部心理健康司（酒癮治療費用補助方案機構及酒駕酒癮評估機構名單）","source_url":"https://dep.mohw.gov.tw/DOMHAOH/cp-4382-46834-107.html","license":"來源頁未標示授權","source_tier":null,"fetched_at":"2026-10-06","vintage":"2026-08-07"}},{"type":"Feature","geometry":{"type":"Point","coordinates":[121.268093,24.977705]},"properties":{"id":"atf_5c253452","name":"衛生福利部桃園醫院","county":"桃園市","town":"桃園區","address":"桃園市桃園區中山路1492號","phone":"03-369-9721#1315","service_hours":null,"geocode_precision":"cached","category_label":"酒癮治療機構","facility_type":"hospital","facility_type_label":"醫院","service_type_label":"酒癮治療指定機構、酒癮治療費用補助方案、酒駕防制教育及治療（酒駕評估）","is_alcohol_designated":true,"in_subsidy_program":true,"is_dui_assessment":true,"also_drug_treatment":true,"source_org":"衛生福利部心理健康司（酒癮治療費用補助方案機構及酒駕酒癮評估機構名單）","source_url":"https://dep.mohw.gov.tw/DOMHAOH/cp-4382-46834-107.html","license":"來源頁未標示授權","source_tier":null,"fetched_at":"2026-10-06","vintage":"2026-08-07"}},{"type":"Feature","geometry":{"type":"Point","coordinates":[121.325315,25.003741]},"properties":{"id":"atf_54cdac99","name":"臺北榮民總醫院桃園分院","county":"桃園市","town":"桃園區","address":"桃園市桃園區成功路三段100號","phone":"03-338-4889#2006","service_hours":null,"geocode_precision":"cached","category_label":"酒癮治療機構","facility_type":"hospital","facility_type_label":"醫院","service_type_label":"酒癮治療指定機構、酒癮治療費用補助方案、酒駕防制教育及治療（酒駕評估）","is_alcohol_designated":true,"in_subsidy_program":true,"is_dui_assessment":true,"also_drug_treatment":true,"source_org":"衛生福利部心理健康司（酒癮治療費用補助方案機構及酒駕酒癮評估機構名單）","source_url":"https://dep.mohw.gov.tw/DOMHAOH/cp-4382-46834-107.html","license":"來源頁未標示授權","source_tier":null,"fetched_at":"2026-10-06","vintage":"2026-08-07"}},{"type":"Feature","geometry":{"type":"Point","coordinates":[121.367317,25.061318]},"properties":{"id":"atf_c39be060","name":"長庚醫療財團法人林口長庚紀念醫院","county":"桃園市","town":"龜山區","address":"桃園市龜山區復興街5號","phone":"03-328-1200#5102","service_hours":null,"geocode_precision":"cached","category_label":"酒癮治療機構","facility_type":"hospital","facility_type_label":"醫院","service_type_label":"酒癮治療指定機構、酒癮治療費用補助方案、酒駕防制教育及治療（酒駕評估）","is_alcohol_designated":true,"in_subsidy_program":true,"is_dui_assessment":true,"also_drug_treatment":true,"source_org":"衛生福利部心理健康司（酒癮治療費用補助方案機構及酒駕酒癮評估機構名單）","source_url":"https://dep.mohw.gov.tw/DOMHAOH/cp-4382-46834-107.html","license":"來源頁未標示授權","source_tier":null,"fetched_at":"2026-10-06","vintage":"2026-08-07"}},{"type":"Feature","geometry":{"type":"Point","coordinates":[121.165643,25.058697]},"properties":{"id":"atf_dd4b0074","name":"居善醫院","county":"桃園市","town":"大園區","address":"桃園市大園區大觀路910號","phone":"03-386-6511#1707","service_hours":null,"geocode_precision":"cached","category_label":"酒癮治療機構","facility_type":"hospital","facility_type_label":"醫院","service_type_label":"酒癮治療指定機構、酒癮治療費用補助方案、酒駕防制教育及治療（酒駕評估）","is_alcohol_designated":true,"in_subsidy_program":true,"is_dui_assessment":true,"also_drug_treatment":true,"source_org":"衛生福利部心理健康司（酒癮治療費用補助方案機構及酒駕酒癮評估機構名單）","source_url":"https://dep.mohw.gov.tw/DOMHAOH/cp-4382-46834-107.html","license":"來源頁未標示授權","source_tier":null,"fetched_at":"2026-10-06","vintage":"2026-08-07"}},{"type":"Feature","geometry":{"type":"Point","coordinates":[121.317082,25.015546]},"properties":{"id":"atf_9359d47b","name":"廢墟花園心理諮商所","county":"桃園市","town":"桃園區","address":"桃園市桃園區大有路632號2F","phone":"03-333-4889","service_hours":null,"geocode_precision":"interpolated","category_label":"酒癮治療機構","facility_type":"clinic","facility_type_label":"診所","service_type_label":"酒癮治療指定機構","is_alcohol_designated":true,"in_subsidy_program":false,"is_dui_assessment":false,"also_drug_treatment":false,"source_org":"衛生福利部心理健康司（酒癮治療費用補助方案機構及酒駕酒癮評估機構名單）","source_url":"https://dep.mohw.gov.tw/DOMHAOH/cp-4382-46834-107.html","license":"來源頁未標示授權","source_tier":null,"fetched_at":"2026-10-06","vintage":"2026-08-07"}},{"type":"Feature","geometry":{"type":"Point","coordinates":[120.655282,24.11934]},"properties":{"id":"atf_541acd56","name":"宏恩醫院龍安分院","county":"臺中市","town":"南區","address":"臺中市南區德富路145巷2號","phone":"04-3701-7188#109","service_hours":null,"geocode_precision":"cached","category_label":"酒癮治療機構","facility_type":"hospital","facility_type_label":"醫院","service_type_label":"酒癮治療指定機構、酒癮治療費用補助方案、酒駕防制教育及治療（酒駕評估）","is_alcohol_designated":true,"in_subsidy_program":true,"is_dui_assessment":true,"also_drug_treatment":false,"source_org":"衛生福利部心理健康司（酒癮治療費用補助方案機構及酒駕酒癮評估機構名單）","source_url":"https://dep.mohw.gov.tw/DOMHAOH/cp-4382-46834-107.html","license":"來源頁未標示授權","source_tier":null,"fetched_at":"2026-10-06","vintage":"2026-08-07"}},{"type":"Feature","geometry":{"type":"Point","coordinates":[120.6499,24.121754]},"properties":{"id":"atf_a73369e1","name":"中山醫學大學附設醫院","county":"臺中市","town":"南區","address":"臺中市南區建國北路一段110號","phone":"04-3609-5999#296476","service_hours":null,"geocode_precision":"cached","category_label":"酒癮治療機構","facility_type":"hospital","facility_type_label":"醫院","service_type_label":"酒癮治療指定機構、酒癮治療費用補助方案、酒駕防制教育及治療（酒駕評估）","is_alcohol_designated":true,"in_subsidy_program":true,"is_dui_assessment":true,"also_drug_treatment":true,"source_org":"衛生福利部心理健康司（酒癮治療費用補助方案機構及酒駕酒癮評估機構名單）","source_url":"https://dep.mohw.gov.tw/DOMHAOH/cp-4382-46834-107.html","license":"來源頁未標示授權","source_tier":null,"fetched_at":"2026-10-06","vintage":"2026-08-07"}},{"type":"Feature","geometry":{"type":"Point","coordinates":[120.661562,24.152169]},"properties":{"id":"atf_a76056f2","name":"衛生福利部臺中醫院","county":"臺中市","town":"西區","address":"臺中市西區三民一段199號","phone":"04-2229-4411#2881","service_hours":null,"geocode_precision":"exact","category_label":"酒癮治療機構","facility_type":"hospital","facility_type_label":"醫院","service_type_label":"酒癮治療指定機構、酒癮治療費用補助方案、酒駕防制教育及治療（酒駕評估）","is_alcohol_designated":true,"in_subsidy_program":true,"is_dui_assessment":true,"also_drug_treatment":true,"source_org":"衛生福利部心理健康司（酒癮治療費用補助方案機構及酒駕酒癮評估機構名單）","source_url":"https://dep.mohw.gov.tw/DOMHAOH/cp-4382-46834-107.html","license":"來源頁未標示授權","source_tier":null,"fetched_at":"2026-10-06","vintage":"2026-08-07"}},{"type":"Feature","geometry":{"type":"Point","coordinates":[120.671732,24.157434]},"properties":{"id":"atf_6b110bfc","name":"維新醫療社團法人臺中維新醫院","county":"臺中市","town":"北區","address":"臺中市北區育德路185號","phone":"04-2203-8585#2002","service_hours":null,"geocode_precision":"interpolated","category_label":"酒癮治療機構","facility_type":"hospital","facility_type_label":"醫院","service_type_label":"酒癮治療指定機構、酒癮治療費用補助方案、酒駕防制教育及治療（酒駕評估）","is_alcohol_designated":true,"in_subsidy_program":true,"is_dui_assessment":true,"also_drug_treatment":true,"source_org":"衛生福利部心理健康司（酒癮治療費用補助方案機構及酒駕酒癮評估機構名單）","source_url":"https://dep.mohw.gov.tw/DOMHAOH/cp-4382-46834-107.html","license":"來源頁未標示授權","source_tier":null,"fetched_at":"2026-10-06","vintage":"2026-08-07"}},{"type":"Feature","geometry":{"type":"Point","coordinates":[120.68005,24.157212]},"properties":{"id":"atf_a77236b8","name":"中國醫藥大學附設醫院","county":"臺中市","town":"北區","address":"臺中市北區育德路2號","phone":"04-2205-2121#11173","service_hours":null,"geocode_precision":"cached","category_label":"酒癮治療機構","facility_type":"hospital","facility_type_label":"醫院","service_type_label":"酒癮治療指定機構、酒癮治療費用補助方案、酒駕防制教育及治療（酒駕評估）","is_alcohol_designated":true,"in_subsidy_program":true,"is_dui_assessment":true,"also_drug_treatment":true,"source_org":"衛生福利部心理健康司（酒癮治療費用補助方案機構及酒駕酒癮評估機構名單）","source_url":"https://dep.mohw.gov.tw/DOMHAOH/cp-4382-46834-107.html","license":"來源頁未標示授權","source_tier":null,"fetched_at":"2026-10-06","vintage":"2026-08-07"}},{"type":"Feature","geometry":{"type":"Point","coordinates":[120.604647,24.184299]},"properties":{"id":"atf_ff432873","name":"臺中榮民總醫院","county":"臺中市","town":"西屯區","address":"臺中市西屯區台灣大道四段1650號","phone":"04-2359-2525#3413","service_hours":null,"geocode_precision":"cached","category_label":"酒癮治療機構","facility_type":"hospital","facility_type_label":"醫院","service_type_label":"酒癮治療指定機構、酒癮治療費用補助方案、酒駕防制教育及治療（酒駕評估）","is_alcohol_designated":true,"in_subsidy_program":true,"is_dui_assessment":true,"also_drug_treatment":true,"source_org":"衛生福利部心理健康司（酒癮治療費用補助方案機構及酒駕酒癮評估機構名單）","source_url":"https://dep.mohw.gov.tw/DOMHAOH/cp-4382-46834-107.html","license":"來源頁未標示授權","source_tier":null,"fetched_at":"2026-10-06","vintage":"2026-08-07"}},{"type":"Feature","geometry":{"type":"Point","coordinates":[120.659837,24.1336]},"properties":{"id":"atf_fb34e7c5","name":"財團法人臺灣省私立臺中仁愛之家附設靜和醫院","county":"臺中市","town":"西區","address":"臺中市西區南屯路一段158號","phone":"04-2371-1129#1024","service_hours":null,"geocode_precision":"exact","category_label":"酒癮治療機構","facility_type":"hospital","facility_type_label":"醫院","service_type_label":"酒癮治療指定機構、酒癮治療費用補助方案、酒駕防制教育及治療（酒駕評估）","is_alcohol_designated":true,"in_subsidy_program":true,"is_dui_assessment":true,"also_drug_treatment":true,"source_org":"衛生福利部心理健康司（酒癮治療費用補助方案機構及酒駕酒癮評估機構名單）","source_url":"https://dep.mohw.gov.tw/DOMHAOH/cp-4382-46834-107.html","license":"來源頁未標示授權","source_tier":null,"fetched_at":"2026-10-06","vintage":"2026-08-07"}},{"type":"Feature","geometry":{"type":"Point","coordinates":[120.617033,24.182853]},"properties":{"id":"atf_c728106c","name":"澄清綜合醫院中港分院","county":"臺中市","town":"西屯區","address":"臺中市西屯區台灣大道四段966號","phone":"04-2463-2000#32577","service_hours":null,"geocode_precision":"cached","category_label":"酒癮治療機構","facility_type":"hospital","facility_type_label":"醫院","service_type_label":"酒癮治療指定機構、酒癮治療費用補助方案、酒駕防制教育及治療（酒駕評估）","is_alcohol_designated":true,"in_subsidy_program":true,"is_dui_assessment":true,"also_drug_treatment":true,"source_org":"衛生福利部心理健康司（酒癮治療費用補助方案機構及酒駕酒癮評估機構名單）","source_url":"https://dep.mohw.gov.tw/DOMHAOH/cp-4382-46834-107.html","license":"來源頁未標示授權","source_tier":null,"fetched_at":"2026-10-06","vintage":"2026-08-07"}},{"type":"Feature","geometry":{"type":"Point","coordinates":[120.714087,24.145092]},"properties":{"id":"atf_f4a8b793","name":"賢德醫院","county":"臺中市","town":"太平區","address":"臺中市太平區宜昌路420號","phone":"04-2273-2551#187","service_hours":null,"geocode_precision":"cached","category_label":"酒癮治療機構","facility_type":"hospital","facility_type_label":"醫院","service_type_label":"酒癮治療指定機構、酒癮治療費用補助方案、酒駕防制教育及治療（酒駕評估）","is_alcohol_designated":true,"in_subsidy_program":true,"is_dui_assessment":true,"also_drug_treatment":true,"source_org":"衛生福利部心理健康司（酒癮治療費用補助方案機構及酒駕酒癮評估機構名單）","source_url":"https://dep.mohw.gov.tw/DOMHAOH/cp-4382-46834-107.html","license":"來源頁未標示授權","source_tier":null,"fetched_at":"2026-10-06","vintage":"2026-08-07"}},{"type":"Feature","geometry":{"type":"Point","coordinates":[120.725292,24.242707]},"properties":{"id":"atf_14a1eef1","name":"衛生福利部豐原醫院","county":"臺中市","town":"豐原區","address":"臺中市豐原區安康路100號","phone":"04-2527-1180#1103","service_hours":null,"geocode_precision":"cached","category_label":"酒癮治療機構","facility_type":"hospital","facility_type_label":"醫院","service_type_label":"酒癮治療指定機構、酒癮治療費用補助方案、酒駕防制教育及治療（酒駕評估）","is_alcohol_designated":true,"in_subsidy_program":true,"is_dui_assessment":true,"also_drug_treatment":true,"source_org":"衛生福利部心理健康司（酒癮治療費用補助方案機構及酒駕酒癮評估機構名單）","source_url":"https://dep.mohw.gov.tw/DOMHAOH/cp-4382-46834-107.html","license":"來源頁未標示授權","source_tier":null,"fetched_at":"2026-10-06","vintage":"2026-08-07"}},{"type":"Feature","geometry":{"type":"Point","coordinates":[120.772712,24.271833]},"properties":{"id":"atf_d44d9e32","name":"清海醫院","county":"臺中市","town":"石岡區","address":"臺中市石岡區金星里下坑巷41-2號","phone":"04-2572-1694#132","service_hours":null,"geocode_precision":"interpolated","category_label":"酒癮治療機構","facility_type":"hospital","facility_type_label":"醫院","service_type_label":"酒癮治療指定機構、酒癮治療費用補助方案、酒駕防制教育及治療（酒駕評估）","is_alcohol_designated":true,"in_subsidy_program":true,"is_dui_assessment":true,"also_drug_treatment":true,"source_org":"衛生福利部心理健康司（酒癮治療費用補助方案機構及酒駕酒癮評估機構名單）","source_url":"https://dep.mohw.gov.tw/DOMHAOH/cp-4382-46834-107.html","license":"來源頁未標示授權","source_tier":null,"fetched_at":"2026-10-06","vintage":"2026-08-07"}},{"type":"Feature","geometry":{"type":"Point","coordinates":[120.560577,24.242944]},"properties":{"id":"atf_bab49687","name":"童綜合醫療社團法人童綜合醫院","county":"臺中市","town":"沙鹿區","address":"臺中市沙鹿區成功西街8號","phone":"04-2662-6161#56112","service_hours":null,"geocode_precision":"exact","category_label":"酒癮治療機構","facility_type":"hospital","facility_type_label":"醫院","service_type_label":"酒癮治療指定機構、酒癮治療費用補助方案、酒駕防制教育及治療（酒駕評估）","is_alcohol_designated":true,"in_subsidy_program":true,"is_dui_assessment":true,"also_drug_treatment":true,"source_org":"衛生福利部心理健康司（酒癮治療費用補助方案機構及酒駕酒癮評估機構名單）","source_url":"https://dep.mohw.gov.tw/DOMHAOH/cp-4382-46834-107.html","license":"來源頁未標示授權","source_tier":null,"fetched_at":"2026-10-06","vintage":"2026-08-07"}},{"type":"Feature","geometry":{"type":"Point","coordinates":[120.548884,24.283123]},"properties":{"id":"atf_76efcb31","name":"清濱醫院","county":"臺中市","town":"清水區","address":"臺中市清水區港埠路四段195號","phone":"04-2628-3995#115","service_hours":null,"geocode_precision":"cached","category_label":"酒癮治療機構","facility_type":"hospital","facility_type_label":"醫院","service_type_label":"酒癮治療指定機構、酒癮治療費用補助方案、酒駕防制教育及治療（酒駕評估）","is_alcohol_designated":true,"in_subsidy_program":true,"is_dui_assessment":true,"also_drug_treatment":false,"source_org":"衛生福利部心理健康司（酒癮治療費用補助方案機構及酒駕酒癮評估機構名單）","source_url":"https://dep.mohw.gov.tw/DOMHAOH/cp-4382-46834-107.html","license":"來源頁未標示授權","source_tier":null,"fetched_at":"2026-10-06","vintage":"2026-08-07"}},{"type":"Feature","geometry":{"type":"Point","coordinates":[120.616657,24.346578]},"properties":{"id":"atf_3eb4c5c3","name":"光田醫療社團法人光田綜合醫院（大甲院區）","county":"臺中市","town":"大甲區","address":"臺中市大甲區經國路321號","phone":"04-2688-5599#1126或1131","service_hours":null,"geocode_precision":"cached","category_label":"酒癮治療機構","facility_type":"hospital","facility_type_label":"醫院","service_type_label":"酒癮治療指定機構、酒癮治療費用補助方案、酒駕防制教育及治療（酒駕評估）","is_alcohol_designated":true,"in_subsidy_program":true,"is_dui_assessment":true,"also_drug_treatment":true,"source_org":"衛生福利部心理健康司（酒癮治療費用補助方案機構及酒駕酒癮評估機構名單）","source_url":"https://dep.mohw.gov.tw/DOMHAOH/cp-4382-46834-107.html","license":"來源頁未標示授權","source_tier":null,"fetched_at":"2026-10-06","vintage":"2026-08-07"}},{"type":"Feature","geometry":{"type":"Point","coordinates":[120.665308,24.156364]},"properties":{"id":"atf_6aaf1b63","name":"廖慈凰身心診所","county":"臺中市","town":"西區","address":"臺中市西區博館路115號2樓","phone":"04-2325-5018","service_hours":null,"geocode_precision":"cached","category_label":"酒癮治療機構","facility_type":"clinic","facility_type_label":"診所","service_type_label":"酒癮治療指定機構、酒癮治療費用補助方案","is_alcohol_designated":true,"in_subsidy_program":true,"is_dui_assessment":false,"also_drug_treatment":true,"source_org":"衛生福利部心理健康司（酒癮治療費用補助方案機構及酒駕酒癮評估機構名單）","source_url":"https://dep.mohw.gov.tw/DOMHAOH/cp-4382-46834-107.html","license":"來源頁未標示授權","source_tier":null,"fetched_at":"2026-10-06","vintage":"2026-08-07"}},{"type":"Feature","geometry":{"type":"Point","coordinates":[120.221897,23.020606]},"properties":{"id":"atf_f69f4881","name":"奇美醫療財團法人奇美醫院(本院)","county":"臺南市","town":"永康區","address":"臺南市永康區中華路901號","phone":"06-222-8118#58703","service_hours":null,"geocode_precision":"cached","category_label":"酒癮治療機構","facility_type":"hospital","facility_type_label":"醫院","service_type_label":"酒癮治療指定機構、酒癮治療費用補助方案、酒駕防制教育及治療（酒駕評估）","is_alcohol_designated":true,"in_subsidy_program":true,"is_dui_assessment":true,"also_drug_treatment":false,"source_org":"衛生福利部心理健康司（酒癮治療費用補助方案機構及酒駕酒癮評估機構名單）","source_url":"https://dep.mohw.gov.tw/DOMHAOH/cp-4382-46834-107.html","license":"來源頁未標示授權","source_tier":null,"fetched_at":"2026-10-06","vintage":"2026-08-07"}},{"type":"Feature","geometry":{"type":"Point","coordinates":[120.196404,22.986436]},"properties":{"id":"atf_3f1b3831","name":"奇美醫療財團法人奇美醫院(樹林院區)","county":"臺南市","town":"南區","address":"臺南市南區樹林街二段442號","phone":"06-222-8118#58703","service_hours":null,"geocode_precision":"interpolated","category_label":"酒癮治療機構","facility_type":"hospital","facility_type_label":"醫院","service_type_label":"酒癮治療指定機構、酒癮治療費用補助方案、酒駕防制教育及治療（酒駕評估）","is_alcohol_designated":true,"in_subsidy_program":true,"is_dui_assessment":true,"also_drug_treatment":true,"source_org":"衛生福利部心理健康司（酒癮治療費用補助方案機構及酒駕酒癮評估機構名單）","source_url":"https://dep.mohw.gov.tw/DOMHAOH/cp-4382-46834-107.html","license":"來源頁未標示授權","source_tier":null,"fetched_at":"2026-10-06","vintage":"2026-08-07"}},{"type":"Feature","geometry":{"type":"Point","coordinates":[120.21923,23.00221]},"properties":{"id":"atf_ec01318f","name":"國立成功大學醫學院附設醫院","county":"臺南市","town":"北區","address":"臺南市北區勝利路138號","phone":"06-235-3535#4362","service_hours":null,"geocode_precision":"cached","category_label":"酒癮治療機構","facility_type":"hospital","facility_type_label":"醫院","service_type_label":"酒癮治療指定機構、酒癮治療費用補助方案、酒駕防制教育及治療（酒駕評估）","is_alcohol_designated":true,"in_subsidy_program":true,"is_dui_assessment":true,"also_drug_treatment":true,"source_org":"衛生福利部心理健康司（酒癮治療費用補助方案機構及酒駕酒癮評估機構名單）","source_url":"https://dep.mohw.gov.tw/DOMHAOH/cp-4382-46834-107.html","license":"來源頁未標示授權","source_tier":null,"fetched_at":"2026-10-06","vintage":"2026-08-07"}},{"type":"Feature","geometry":{"type":"Point","coordinates":[120.241951,22.976718]},"properties":{"id":"atf_953496a2","name":"衛生福利部嘉南療養院","county":"臺南市","town":"仁德區","address":"臺南市仁德區裕忠路539號","phone":"06-279-5019#3597","service_hours":null,"geocode_precision":"cached","category_label":"酒癮治療機構","facility_type":"hospital","facility_type_label":"醫院","service_type_label":"酒癮治療指定機構、酒癮治療費用補助方案、酒駕防制教育及治療（酒駕評估）","is_alcohol_designated":true,"in_subsidy_program":true,"is_dui_assessment":true,"also_drug_treatment":true,"source_org":"衛生福利部心理健康司（酒癮治療費用補助方案機構及酒駕酒癮評估機構名單）","source_url":"https://dep.mohw.gov.tw/DOMHAOH/cp-4382-46834-107.html","license":"來源頁未標示授權","source_tier":null,"fetched_at":"2026-10-06","vintage":"2026-08-07"}},{"type":"Feature","geometry":{"type":"Point","coordinates":[120.324705,23.289269]},"properties":{"id":"atf_420beaec","name":"奇美醫療財團法人柳營奇美醫院","county":"臺南市","town":"柳營區","address":"臺南市柳營區太康里201號","phone":"06-622-6999#77405","service_hours":null,"geocode_precision":"cached","category_label":"酒癮治療機構","facility_type":"hospital","facility_type_label":"醫院","service_type_label":"酒癮治療指定機構、酒癮治療費用補助方案","is_alcohol_designated":true,"in_subsidy_program":true,"is_dui_assessment":false,"also_drug_treatment":true,"source_org":"衛生福利部心理健康司（酒癮治療費用補助方案機構及酒駕酒癮評估機構名單）","source_url":"https://dep.mohw.gov.tw/DOMHAOH/cp-4382-46834-107.html","license":"來源頁未標示授權","source_tier":null,"fetched_at":"2026-10-06","vintage":"2026-08-07"}},{"type":"Feature","geometry":{"type":"Point","coordinates":[120.223192,23.064232]},"properties":{"id":"atf_ebc5463f","name":"臺南市立安南醫院-委託中國醫藥大學興建經營","county":"臺南市","town":"安南區","address":"臺南市安南區長和路二段66號","phone":"06-355-3111","service_hours":null,"geocode_precision":"cached","category_label":"酒癮治療機構","facility_type":"hospital","facility_type_label":"醫院","service_type_label":"酒癮治療指定機構","is_alcohol_designated":true,"in_subsidy_program":false,"is_dui_assessment":false,"also_drug_treatment":true,"source_org":"衛生福利部心理健康司（酒癮治療費用補助方案機構及酒駕酒癮評估機構名單）","source_url":"https://dep.mohw.gov.tw/DOMHAOH/cp-4382-46834-107.html","license":"來源頁未標示授權","source_tier":null,"fetched_at":"2026-10-06","vintage":"2026-08-07"}},{"type":"Feature","geometry":{"type":"Point","coordinates":[120.341029,22.625871]},"properties":{"id":"atf_1faefecd","name":"國軍高雄總醫院附設民眾診療服務處","county":"高雄市","town":"苓雅區","address":"高雄市苓雅區中正一路2號","phone":"07-749-6751#726199","service_hours":null,"geocode_precision":"cached","category_label":"酒癮治療機構","facility_type":"hospital","facility_type_label":"醫院","service_type_label":"酒癮治療指定機構、酒癮治療費用補助方案、酒駕防制教育及治療（酒駕評估）","is_alcohol_designated":true,"in_subsidy_program":true,"is_dui_assessment":true,"also_drug_treatment":true,"source_org":"衛生福利部心理健康司（酒癮治療費用補助方案機構及酒駕酒癮評估機構名單）","source_url":"https://dep.mohw.gov.tw/DOMHAOH/cp-4382-46834-107.html","license":"來源頁未標示授權","source_tier":null,"fetched_at":"2026-10-06","vintage":"2026-08-07"}},{"type":"Feature","geometry":{"type":"Point","coordinates":[120.324272,22.62519]},"properties":{"id":"atf_a074b91d","name":"高雄市立凱旋醫院","county":"高雄市","town":"苓雅區","address":"高雄市苓雅區凱旋二路130號","phone":"07-713-2800#22或23","service_hours":null,"geocode_precision":"cached","category_label":"酒癮治療機構","facility_type":"hospital","facility_type_label":"醫院","service_type_label":"酒癮治療指定機構、酒癮治療費用補助方案、酒駕防制教育及治療（酒駕評估）","is_alcohol_designated":true,"in_subsidy_program":true,"is_dui_assessment":true,"also_drug_treatment":true,"source_org":"衛生福利部心理健康司（酒癮治療費用補助方案機構及酒駕酒癮評估機構名單）","source_url":"https://dep.mohw.gov.tw/DOMHAOH/cp-4382-46834-107.html","license":"來源頁未標示授權","source_tier":null,"fetched_at":"2026-10-06","vintage":"2026-08-07"}},{"type":"Feature","geometry":{"type":"Point","coordinates":[120.285113,22.59021]},"properties":{"id":"atf_6252f246","name":"高雄市立旗津醫院（委託財團法人私立高雄醫學大學經營）","county":"高雄市","town":"旗津區","address":"高雄市旗津區旗港路33號","phone":"07-571-1188#1127、1128","service_hours":null,"geocode_precision":"cached","category_label":"酒癮治療機構","facility_type":"hospital","facility_type_label":"醫院","service_type_label":"酒癮治療指定機構、酒癮治療費用補助方案","is_alcohol_designated":true,"in_subsidy_program":true,"is_dui_assessment":false,"also_drug_treatment":true,"source_org":"衛生福利部心理健康司（酒癮治療費用補助方案機構及酒駕酒癮評估機構名單）","source_url":"https://dep.mohw.gov.tw/DOMHAOH/cp-4382-46834-107.html","license":"來源頁未標示授權","source_tier":null,"fetched_at":"2026-10-06","vintage":"2026-08-07"}},{"type":"Feature","geometry":{"type":"Point","coordinates":[120.309432,22.647059]},"properties":{"id":"atf_75ec7157","name":"財團法人私立高雄醫學大學附設中和紀念醫院","county":"高雄市","town":"三民區","address":"高雄市三民區自由一路100號","phone":"07-312-1101#6826","service_hours":null,"geocode_precision":"exact","category_label":"酒癮治療機構","facility_type":"hospital","facility_type_label":"醫院","service_type_label":"酒癮治療指定機構、酒癮治療費用補助方案、酒駕防制教育及治療（酒駕評估）","is_alcohol_designated":true,"in_subsidy_program":true,"is_dui_assessment":true,"also_drug_treatment":true,"source_org":"衛生福利部心理健康司（酒癮治療費用補助方案機構及酒駕酒癮評估機構名單）","source_url":"https://dep.mohw.gov.tw/DOMHAOH/cp-4382-46834-107.html","license":"來源頁未標示授權","source_tier":null,"fetched_at":"2026-10-06","vintage":"2026-08-07"}},{"type":"Feature","geometry":{"type":"Point","coordinates":[120.363369,22.567467]},"properties":{"id":"atf_d0dfcea4","name":"高雄市立小港醫院 (委託財團法人私立高雄醫學大學經營）","county":"高雄市","town":"小港區","address":"高雄市小港區山明路482號","phone":"07-803-6783#3850","service_hours":null,"geocode_precision":"cached","category_label":"酒癮治療機構","facility_type":"hospital","facility_type_label":"醫院","service_type_label":"酒癮治療指定機構、酒癮治療費用補助方案、酒駕防制教育及治療（酒駕評估）","is_alcohol_designated":true,"in_subsidy_program":true,"is_dui_assessment":true,"also_drug_treatment":true,"source_org":"衛生福利部心理健康司（酒癮治療費用補助方案機構及酒駕酒癮評估機構名單）","source_url":"https://dep.mohw.gov.tw/DOMHAOH/cp-4382-46834-107.html","license":"來源頁未標示授權","source_tier":null,"fetched_at":"2026-10-06","vintage":"2026-08-07"}},{"type":"Feature","geometry":{"type":"Point","coordinates":[120.294443,22.796612]},"properties":{"id":"atf_4ea5e847","name":"高雄市立岡山醫院（委託秀傳醫療社團法人經營）","county":"高雄市","town":"岡山區","address":"高雄市岡山區壽天路12號","phone":"07-622-2131#59177、59128","service_hours":null,"geocode_precision":"cached","category_label":"酒癮治療機構","facility_type":"hospital","facility_type_label":"醫院","service_type_label":"酒癮治療指定機構、酒癮治療費用補助方案、酒駕防制教育及治療（酒駕評估）","is_alcohol_designated":true,"in_subsidy_program":true,"is_dui_assessment":true,"also_drug_treatment":true,"source_org":"衛生福利部心理健康司（酒癮治療費用補助方案機構及酒駕酒癮評估機構名單）","source_url":"https://dep.mohw.gov.tw/DOMHAOH/cp-4382-46834-107.html","license":"來源頁未標示授權","source_tier":null,"fetched_at":"2026-10-06","vintage":"2026-08-07"}},{"type":"Feature","geometry":{"type":"Point","coordinates":[120.281156,22.792445]},"properties":{"id":"atf_a53dac92","name":"樂安醫院","county":"高雄市","town":"岡山區","address":"高雄市岡山區通校路300號","phone":"07-625-6791#282","service_hours":null,"geocode_precision":"cached","category_label":"酒癮治療機構","facility_type":"hospital","facility_type_label":"醫院","service_type_label":"酒癮治療指定機構、酒癮治療費用補助方案","is_alcohol_designated":true,"in_subsidy_program":true,"is_dui_assessment":false,"also_drug_treatment":true,"source_org":"衛生福利部心理健康司（酒癮治療費用補助方案機構及酒駕酒癮評估機構名單）","source_url":"https://dep.mohw.gov.tw/DOMHAOH/cp-4382-46834-107.html","license":"來源頁未標示授權","source_tier":null,"fetched_at":"2026-10-06","vintage":"2026-08-07"}},{"type":"Feature","geometry":{"type":"Point","coordinates":[120.362636,22.628125]},"properties":{"id":"atf_ffae58ec","name":"高雄市鳳山醫院（委託長庚醫療財團法人經營）","county":"高雄市","town":"鳳山區","address":"高雄市鳳山區經武路42之1號","phone":"07-741-8151#6107","service_hours":null,"geocode_precision":"exact","category_label":"酒癮治療機構","facility_type":"hospital","facility_type_label":"醫院","service_type_label":"酒癮治療指定機構、酒癮治療費用補助方案","is_alcohol_designated":true,"in_subsidy_program":true,"is_dui_assessment":false,"also_drug_treatment":false,"source_org":"衛生福利部心理健康司（酒癮治療費用補助方案機構及酒駕酒癮評估機構名單）","source_url":"https://dep.mohw.gov.tw/DOMHAOH/cp-4382-46834-107.html","license":"來源頁未標示授權","source_tier":null,"fetched_at":"2026-10-06","vintage":"2026-08-07"}},{"type":"Feature","geometry":{"type":"Point","coordinates":[120.397505,22.639236]},"properties":{"id":"atf_a2914aaf","name":"財團法人臺灣省私立高雄仁愛之家附設慈惠醫院","county":"高雄市","town":"大寮區","address":"高雄市大寮區鳳屏一路509號","phone":"07-703-0315#3130","service_hours":null,"geocode_precision":"cached","category_label":"酒癮治療機構","facility_type":"hospital","facility_type_label":"醫院","service_type_label":"酒癮治療指定機構、酒癮治療費用補助方案","is_alcohol_designated":true,"in_subsidy_program":true,"is_dui_assessment":false,"also_drug_treatment":true,"source_org":"衛生福利部心理健康司（酒癮治療費用補助方案機構及酒駕酒癮評估機構名單）","source_url":"https://dep.mohw.gov.tw/DOMHAOH/cp-4382-46834-107.html","license":"來源頁未標示授權","source_tier":null,"fetched_at":"2026-10-06","vintage":"2026-08-07"}},{"type":"Feature","geometry":{"type":"Point","coordinates":[120.356029,22.649847]},"properties":{"id":"atf_5f0a16a6","name":"長庚醫療財團法人高雄長庚紀念醫院","county":"高雄市","town":"鳥松區","address":"高雄市鳥松區大埤路123號","phone":"07-731-7123#8785","service_hours":null,"geocode_precision":"cached","category_label":"酒癮治療機構","facility_type":"hospital","facility_type_label":"醫院","service_type_label":"酒癮治療指定機構、酒癮治療費用補助方案、酒駕防制教育及治療（酒駕評估）","is_alcohol_designated":true,"in_subsidy_program":true,"is_dui_assessment":true,"also_drug_treatment":true,"source_org":"衛生福利部心理健康司（酒癮治療費用補助方案機構及酒駕酒癮評估機構名單）","source_url":"https://dep.mohw.gov.tw/DOMHAOH/cp-4382-46834-107.html","license":"來源頁未標示授權","source_tier":null,"fetched_at":"2026-10-06","vintage":"2026-08-07"}},{"type":"Feature","geometry":{"type":"Point","coordinates":[120.483277,22.880694]},"properties":{"id":"atf_96538758","name":"衛生福利部旗山醫院","county":"高雄市","town":"旗山區","address":"高雄市旗山區中學路60號","phone":"07-661-3811#2106","service_hours":null,"geocode_precision":"exact","category_label":"酒癮治療機構","facility_type":"hospital","facility_type_label":"醫院","service_type_label":"酒癮治療指定機構、酒癮治療費用補助方案、酒駕防制教育及治療（酒駕評估）","is_alcohol_designated":true,"in_subsidy_program":true,"is_dui_assessment":true,"also_drug_treatment":true,"source_org":"衛生福利部心理健康司（酒癮治療費用補助方案機構及酒駕酒癮評估機構名單）","source_url":"https://dep.mohw.gov.tw/DOMHAOH/cp-4382-46834-107.html","license":"來源頁未標示授權","source_tier":null,"fetched_at":"2026-10-06","vintage":"2026-08-07"}},{"type":"Feature","geometry":{"type":"Point","coordinates":[120.364451,22.765521]},"properties":{"id":"atf_d3125d64","name":"義大醫療財團法人義大醫院","county":"高雄市","town":"燕巢區","address":"高雄市燕巢區義大路1號","phone":"07-615-0011#3309","service_hours":null,"geocode_precision":"cached","category_label":"酒癮治療機構","facility_type":"hospital","facility_type_label":"醫院","service_type_label":"酒癮治療指定機構、酒癮治療費用補助方案、酒駕防制教育及治療（酒駕評估）","is_alcohol_designated":true,"in_subsidy_program":true,"is_dui_assessment":true,"also_drug_treatment":true,"source_org":"衛生福利部心理健康司（酒癮治療費用補助方案機構及酒駕酒癮評估機構名單）","source_url":"https://dep.mohw.gov.tw/DOMHAOH/cp-4382-46834-107.html","license":"來源頁未標示授權","source_tier":null,"fetched_at":"2026-10-06","vintage":"2026-08-07"}},{"type":"Feature","geometry":{"type":"Point","coordinates":[120.306861,22.680175]},"properties":{"id":"atf_9ed2159a","name":"耕心療癒診所","county":"高雄市","town":"左營區","address":"高雄市左營區曾子路332號","phone":"07-359-2011","service_hours":null,"geocode_precision":"cached","category_label":"酒癮治療機構","facility_type":"clinic","facility_type_label":"診所","service_type_label":"酒癮治療指定機構、酒癮治療費用補助方案","is_alcohol_designated":true,"in_subsidy_program":true,"is_dui_assessment":false,"also_drug_treatment":false,"source_org":"衛生福利部心理健康司（酒癮治療費用補助方案機構及酒駕酒癮評估機構名單）","source_url":"https://dep.mohw.gov.tw/DOMHAOH/cp-4382-46834-107.html","license":"來源頁未標示授權","source_tier":null,"fetched_at":"2026-10-06","vintage":"2026-08-07"}},{"type":"Feature","geometry":{"type":"Point","coordinates":[120.323795,22.630047]},"properties":{"id":"atf_cc51ec0c","name":"冬勝診所","county":"高雄市","town":"苓雅區","address":"高雄市苓雅區中正一路472號","phone":"07-727-8392","service_hours":null,"geocode_precision":"cached","category_label":"酒癮治療機構","facility_type":"clinic","facility_type_label":"診所","service_type_label":"酒癮治療指定機構、酒癮治療費用補助方案","is_alcohol_designated":true,"in_subsidy_program":true,"is_dui_assessment":false,"also_drug_treatment":false,"source_org":"衛生福利部心理健康司（酒癮治療費用補助方案機構及酒駕酒癮評估機構名單）","source_url":"https://dep.mohw.gov.tw/DOMHAOH/cp-4382-46834-107.html","license":"來源頁未標示授權","source_tier":null,"fetched_at":"2026-10-06","vintage":"2026-08-07"}},{"type":"Feature","geometry":{"type":"Point","coordinates":[121.75798,24.750052]},"properties":{"id":"atf_9122fca0","name":"國立陽明交通大學附設醫院(新民院區)","county":"宜蘭縣","town":"宜蘭市","address":"宜蘭縣宜蘭市校舍路169號","phone":"03-932-5192#73523","service_hours":null,"geocode_precision":"cached","category_label":"酒癮治療機構","facility_type":"hospital","facility_type_label":"醫院","service_type_label":"酒癮治療指定機構、酒癮治療費用補助方案、酒駕防制教育及治療（酒駕評估）","is_alcohol_designated":true,"in_subsidy_program":true,"is_dui_assessment":true,"also_drug_treatment":true,"source_org":"衛生福利部心理健康司（酒癮治療費用補助方案機構及酒駕酒癮評估機構名單）","source_url":"https://dep.mohw.gov.tw/DOMHAOH/cp-4382-46834-107.html","license":"來源頁未標示授權","source_tier":null,"fetched_at":"2026-10-06","vintage":"2026-08-07"}},{"type":"Feature","geometry":{"type":"Point","coordinates":[121.687824,24.721919]},"properties":{"id":"atf_a21496f0","name":"臺北榮民總醫院員山分院","county":"宜蘭縣","town":"員山鄉","address":"宜蘭縣員山鄉內城村榮光路386號","phone":"03-922-2141#3505","service_hours":null,"geocode_precision":"cached","category_label":"酒癮治療機構","facility_type":"hospital","facility_type_label":"醫院","service_type_label":"酒癮治療指定機構、酒癮治療費用補助方案、酒駕防制教育及治療（酒駕評估）","is_alcohol_designated":true,"in_subsidy_program":true,"is_dui_assessment":true,"also_drug_treatment":true,"source_org":"衛生福利部心理健康司（酒癮治療費用補助方案機構及酒駕酒癮評估機構名單）","source_url":"https://dep.mohw.gov.tw/DOMHAOH/cp-4382-46834-107.html","license":"來源頁未標示授權","source_tier":null,"fetched_at":"2026-10-06","vintage":"2026-08-07"}},{"type":"Feature","geometry":{"type":"Point","coordinates":[121.770714,24.671434]},"properties":{"id":"atf_754b5a6e","name":"天主教靈醫會醫療財團法人羅東聖母醫院","county":"宜蘭縣","town":"羅東鎮","address":"宜蘭縣羅東鎮中正南路160號","phone":"03-954-4106#5104","service_hours":null,"geocode_precision":"cached","category_label":"酒癮治療機構","facility_type":"hospital","facility_type_label":"醫院","service_type_label":"酒癮治療指定機構、酒癮治療費用補助方案、酒駕防制教育及治療（酒駕評估）","is_alcohol_designated":true,"in_subsidy_program":true,"is_dui_assessment":true,"also_drug_treatment":true,"source_org":"衛生福利部心理健康司（酒癮治療費用補助方案機構及酒駕酒癮評估機構名單）","source_url":"https://dep.mohw.gov.tw/DOMHAOH/cp-4382-46834-107.html","license":"來源頁未標示授權","source_tier":null,"fetched_at":"2026-10-06","vintage":"2026-08-07"}},{"type":"Feature","geometry":{"type":"Point","coordinates":[121.772752,24.671771]},"properties":{"id":"atf_1b4d1c4b","name":"醫療財團法人羅許基金會羅東博愛醫院","county":"宜蘭縣","town":"羅東鎮","address":"宜蘭縣羅東鎮南昌街83號","phone":"03-954-3131#3763","service_hours":null,"geocode_precision":"interpolated","category_label":"酒癮治療機構","facility_type":"hospital","facility_type_label":"醫院","service_type_label":"酒癮治療指定機構、酒癮治療費用補助方案、酒駕防制教育及治療（酒駕評估）","is_alcohol_designated":true,"in_subsidy_program":true,"is_dui_assessment":true,"also_drug_treatment":true,"source_org":"衛生福利部心理健康司（酒癮治療費用補助方案機構及酒駕酒癮評估機構名單）","source_url":"https://dep.mohw.gov.tw/DOMHAOH/cp-4382-46834-107.html","license":"來源頁未標示授權","source_tier":null,"fetched_at":"2026-10-06","vintage":"2026-08-07"}},{"type":"Feature","geometry":{"type":"Point","coordinates":[121.848611,24.614096]},"properties":{"id":"atf_0f210ed4","name":"臺北榮民總醫院蘇澳分院","county":"宜蘭縣","town":"蘇澳鎮","address":"宜蘭縣蘇澳鎮蘇濱路一段301號","phone":"03-990-5106#3612","service_hours":null,"geocode_precision":"cached","category_label":"酒癮治療機構","facility_type":"hospital","facility_type_label":"醫院","service_type_label":"酒癮治療指定機構、酒癮治療費用補助方案、酒駕防制教育及治療（酒駕評估）","is_alcohol_designated":true,"in_subsidy_program":true,"is_dui_assessment":true,"also_drug_treatment":true,"source_org":"衛生福利部心理健康司（酒癮治療費用補助方案機構及酒駕酒癮評估機構名單）","source_url":"https://dep.mohw.gov.tw/DOMHAOH/cp-4382-46834-107.html","license":"來源頁未標示授權","source_tier":null,"fetched_at":"2026-10-06","vintage":"2026-08-07"}},{"type":"Feature","geometry":{"type":"Point","coordinates":[121.721579,24.721464]},"properties":{"id":"atf_bded86da","name":"宜蘭員山醫療財團法人宜蘭員山醫院","county":"宜蘭縣","town":"員山鄉","address":"宜蘭縣員山鄉深溝村尚深路91號","phone":"03-922-0292分機506或501","service_hours":null,"geocode_precision":"cached","category_label":"酒癮治療機構","facility_type":"hospital","facility_type_label":"醫院","service_type_label":"酒癮治療指定機構、酒癮治療費用補助方案、酒駕防制教育及治療（酒駕評估）","is_alcohol_designated":true,"in_subsidy_program":true,"is_dui_assessment":true,"also_drug_treatment":false,"source_org":"衛生福利部心理健康司（酒癮治療費用補助方案機構及酒駕酒癮評估機構名單）","source_url":"https://dep.mohw.gov.tw/DOMHAOH/cp-4382-46834-107.html","license":"來源頁未標示授權","source_tier":null,"fetched_at":"2026-10-06","vintage":"2026-08-07"}},{"type":"Feature","geometry":{"type":"Point","coordinates":[121.093561,24.718676]},"properties":{"id":"atf_59efcae3","name":"國立臺灣大學醫學院附設醫院新竹臺大分院生醫醫院竹東院區","county":"新竹縣","town":"竹東鎮","address":"新竹縣竹東鎮至善路52號","phone":"03-594-3248#542111","service_hours":null,"geocode_precision":"exact","category_label":"酒癮治療機構","facility_type":"hospital","facility_type_label":"醫院","service_type_label":"酒癮治療指定機構、酒癮治療費用補助方案、酒駕防制教育及治療（酒駕評估）","is_alcohol_designated":true,"in_subsidy_program":true,"is_dui_assessment":true,"also_drug_treatment":true,"source_org":"衛生福利部心理健康司（酒癮治療費用補助方案機構及酒駕酒癮評估機構名單）","source_url":"https://dep.mohw.gov.tw/DOMHAOH/cp-4382-46834-107.html","license":"來源頁未標示授權","source_tier":null,"fetched_at":"2026-10-06","vintage":"2026-08-07"}},{"type":"Feature","geometry":{"type":"Point","coordinates":[120.907345,24.687096]},"properties":{"id":"atf_5e4f84a8","name":"為恭醫療財團法人為恭紀念醫院","county":"苗栗縣","town":"頭份市","address":"苗栗縣頭份市信義路128號","phone":"037-676-811#53358","service_hours":null,"geocode_precision":"cached","category_label":"酒癮治療機構","facility_type":"hospital","facility_type_label":"醫院","service_type_label":"酒癮治療指定機構、酒癮治療費用補助方案、酒駕防制教育及治療（酒駕評估）","is_alcohol_designated":true,"in_subsidy_program":true,"is_dui_assessment":true,"also_drug_treatment":true,"source_org":"衛生福利部心理健康司（酒癮治療費用補助方案機構及酒駕酒癮評估機構名單）","source_url":"https://dep.mohw.gov.tw/DOMHAOH/cp-4382-46834-107.html","license":"來源頁未標示授權","source_tier":null,"fetched_at":"2026-10-06","vintage":"2026-08-07"}},{"type":"Feature","geometry":{"type":"Point","coordinates":[120.840405,24.575655]},"properties":{"id":"atf_1bbbc235","name":"衛生福利部苗栗醫院","county":"苗栗縣","town":"苗栗市","address":"苗栗縣苗栗市為公路747號","phone":"037-261-920#1186","service_hours":null,"geocode_precision":"cached","category_label":"酒癮治療機構","facility_type":"hospital","facility_type_label":"醫院","service_type_label":"酒癮治療指定機構、酒癮治療費用補助方案、酒駕防制教育及治療（酒駕評估）","is_alcohol_designated":true,"in_subsidy_program":true,"is_dui_assessment":true,"also_drug_treatment":true,"source_org":"衛生福利部心理健康司（酒癮治療費用補助方案機構及酒駕酒癮評估機構名單）","source_url":"https://dep.mohw.gov.tw/DOMHAOH/cp-4382-46834-107.html","license":"來源頁未標示授權","source_tier":null,"fetched_at":"2026-10-06","vintage":"2026-08-07"}},{"type":"Feature","geometry":{"type":"Point","coordinates":[120.78834,24.519791]},"properties":{"id":"atf_311e4499","name":"大千醫療社團法人南勢醫院","county":"苗栗縣","town":"苗栗市","address":"苗栗縣苗栗市南勢里南勢52號","phone":"037-369-936#54222","service_hours":null,"geocode_precision":"cached","category_label":"酒癮治療機構","facility_type":"hospital","facility_type_label":"醫院","service_type_label":"酒癮治療指定機構、酒癮治療費用補助方案、酒駕防制教育及治療（酒駕評估）","is_alcohol_designated":true,"in_subsidy_program":true,"is_dui_assessment":true,"also_drug_treatment":true,"source_org":"衛生福利部心理健康司（酒癮治療費用補助方案機構及酒駕酒癮評估機構名單）","source_url":"https://dep.mohw.gov.tw/DOMHAOH/cp-4382-46834-107.html","license":"來源頁未標示授權","source_tier":null,"fetched_at":"2026-10-06","vintage":"2026-08-07"}},{"type":"Feature","geometry":{"type":"Point","coordinates":[120.537508,24.064786]},"properties":{"id":"atf_8e0a1e4a","name":"秀傳醫療社團法人秀傳紀念醫院","county":"彰化縣","town":"彰化市","address":"彰化縣彰化市中山路一段542號","phone":"04-725-6166#82303","service_hours":null,"geocode_precision":"cached","category_label":"酒癮治療機構","facility_type":"hospital","facility_type_label":"醫院","service_type_label":"酒癮治療指定機構、酒癮治療費用補助方案、酒駕防制教育及治療（酒駕評估）","is_alcohol_designated":true,"in_subsidy_program":true,"is_dui_assessment":true,"also_drug_treatment":true,"source_org":"衛生福利部心理健康司（酒癮治療費用補助方案機構及酒駕酒癮評估機構名單）","source_url":"https://dep.mohw.gov.tw/DOMHAOH/cp-4382-46834-107.html","license":"來源頁未標示授權","source_tier":null,"fetched_at":"2026-10-06","vintage":"2026-08-07"}},{"type":"Feature","geometry":{"type":"Point","coordinates":[120.544461,24.07149]},"properties":{"id":"atf_2f5b0814","name":"彰化基督教醫療財團法人彰化基督教醫院","county":"彰化縣","town":"彰化市","address":"彰化縣彰化市南校街135號","phone":"04-723-8595#7180","service_hours":null,"geocode_precision":"cached","category_label":"酒癮治療機構","facility_type":"hospital","facility_type_label":"醫院","service_type_label":"酒癮治療指定機構、酒癮治療費用補助方案、酒駕防制教育及治療（酒駕評估）","is_alcohol_designated":true,"in_subsidy_program":true,"is_dui_assessment":true,"also_drug_treatment":true,"source_org":"衛生福利部心理健康司（酒癮治療費用補助方案機構及酒駕酒癮評估機構名單）","source_url":"https://dep.mohw.gov.tw/DOMHAOH/cp-4382-46834-107.html","license":"來源頁未標示授權","source_tier":null,"fetched_at":"2026-10-06","vintage":"2026-08-07"}},{"type":"Feature","geometry":{"type":"Point","coordinates":[120.411121,24.078274]},"properties":{"id":"atf_73e3508f","name":"秀傳醫療財團法人彰濱秀傳紀念醫院","county":"彰化縣","town":"鹿港鎮","address":"彰化縣鹿港鎮鹿工路6號","phone":"04-781-3888#71515","service_hours":null,"geocode_precision":"cached","category_label":"酒癮治療機構","facility_type":"hospital","facility_type_label":"醫院","service_type_label":"酒癮治療指定機構、酒癮治療費用補助方案、酒駕防制教育及治療（酒駕評估）","is_alcohol_designated":true,"in_subsidy_program":true,"is_dui_assessment":true,"also_drug_treatment":true,"source_org":"衛生福利部心理健康司（酒癮治療費用補助方案機構及酒駕酒癮評估機構名單）","source_url":"https://dep.mohw.gov.tw/DOMHAOH/cp-4382-46834-107.html","license":"來源頁未標示授權","source_tier":null,"fetched_at":"2026-10-06","vintage":"2026-08-07"}},{"type":"Feature","geometry":{"type":"Point","coordinates":[120.468512,24.055646]},"properties":{"id":"atf_50935495","name":"彰化基督教醫療財團法人鹿東基督教醫院","county":"彰化縣","town":"鹿港鎮","address":"彰化縣鹿港鎮鹿東路2段888號","phone":"04-778-9595#1196","service_hours":null,"geocode_precision":"cached","category_label":"酒癮治療機構","facility_type":"hospital","facility_type_label":"醫院","service_type_label":"酒癮治療指定機構、酒癮治療費用補助方案、酒駕防制教育及治療（酒駕評估）","is_alcohol_designated":true,"in_subsidy_program":true,"is_dui_assessment":true,"also_drug_treatment":true,"source_org":"衛生福利部心理健康司（酒癮治療費用補助方案機構及酒駕酒癮評估機構名單）","source_url":"https://dep.mohw.gov.tw/DOMHAOH/cp-4382-46834-107.html","license":"來源頁未標示授權","source_tier":null,"fetched_at":"2026-10-06","vintage":"2026-08-07"}},{"type":"Feature","geometry":{"type":"Point","coordinates":[120.60465,23.951468]},"properties":{"id":"atf_fa7cc4ec","name":"敦仁醫院","county":"彰化縣","town":"員林市","address":"彰化縣員林市員水路1段102巷74弄99號","phone":"04-707-1727#128","service_hours":null,"geocode_precision":"cached","category_label":"酒癮治療機構","facility_type":"hospital","facility_type_label":"醫院","service_type_label":"酒癮治療指定機構","is_alcohol_designated":true,"in_subsidy_program":false,"is_dui_assessment":false,"also_drug_treatment":true,"source_org":"衛生福利部心理健康司（酒癮治療費用補助方案機構及酒駕酒癮評估機構名單）","source_url":"https://dep.mohw.gov.tw/DOMHAOH/cp-4382-46834-107.html","license":"來源頁未標示授權","source_tier":null,"fetched_at":"2026-10-06","vintage":"2026-08-07"}},{"type":"Feature","geometry":{"type":"Point","coordinates":[120.527299,23.950225]},"properties":{"id":"atf_5c5a3499","name":"衛生福利部彰化醫院","county":"彰化縣","town":"埔心鄉","address":"彰化縣埔心鄉中正路二段80號","phone":"04-829-8686#2041、#2042","service_hours":null,"geocode_precision":"cached","category_label":"酒癮治療機構","facility_type":"hospital","facility_type_label":"醫院","service_type_label":"酒癮治療指定機構、酒癮治療費用補助方案、酒駕防制教育及治療（酒駕評估）","is_alcohol_designated":true,"in_subsidy_program":true,"is_dui_assessment":true,"also_drug_treatment":true,"source_org":"衛生福利部心理健康司（酒癮治療費用補助方案機構及酒駕酒癮評估機構名單）","source_url":"https://dep.mohw.gov.tw/DOMHAOH/cp-4382-46834-107.html","license":"來源頁未標示授權","source_tier":null,"fetched_at":"2026-10-06","vintage":"2026-08-07"}},{"type":"Feature","geometry":{"type":"Point","coordinates":[120.363344,23.893608]},"properties":{"id":"atf_85cf02f5","name":"彰化基督教醫療財團法人二林基督教醫院","county":"彰化縣","town":"二林鎮","address":"彰化縣二林鎮大成路一段558號","phone":"04-895-2031#8126","service_hours":null,"geocode_precision":"exact","category_label":"酒癮治療機構","facility_type":"hospital","facility_type_label":"醫院","service_type_label":"酒癮治療指定機構、酒癮治療費用補助方案、酒駕防制教育及治療（酒駕評估）","is_alcohol_designated":true,"in_subsidy_program":true,"is_dui_assessment":true,"also_drug_treatment":true,"source_org":"衛生福利部心理健康司（酒癮治療費用補助方案機構及酒駕酒癮評估機構名單）","source_url":"https://dep.mohw.gov.tw/DOMHAOH/cp-4382-46834-107.html","license":"來源頁未標示授權","source_tier":null,"fetched_at":"2026-10-06","vintage":"2026-08-07"}},{"type":"Feature","geometry":{"type":"Point","coordinates":[120.685294,23.914094]},"properties":{"id":"atf_6c9446de","name":"衛生福利部南投醫院","county":"南投縣","town":"南投市","address":"南投縣南投市復興路478號","phone":"049-223-1150#2309","service_hours":null,"geocode_precision":"cached","category_label":"酒癮治療機構","facility_type":"hospital","facility_type_label":"醫院","service_type_label":"酒癮治療指定機構、酒癮治療費用補助方案、酒駕防制教育及治療（酒駕評估）","is_alcohol_designated":true,"in_subsidy_program":true,"is_dui_assessment":true,"also_drug_treatment":true,"source_org":"衛生福利部心理健康司（酒癮治療費用補助方案機構及酒駕酒癮評估機構名單）","source_url":"https://dep.mohw.gov.tw/DOMHAOH/cp-4382-46834-107.html","license":"來源頁未標示授權","source_tier":null,"fetched_at":"2026-10-06","vintage":"2026-08-07"}},{"type":"Feature","geometry":{"type":"Point","coordinates":[120.704532,23.990395]},"properties":{"id":"atf_35798a9c","name":"衛生福利部草屯療養院","county":"南投縣","town":"草屯鎮","address":"南投縣草屯鎮玉屏路161號","phone":"049-255-0800#3831","service_hours":null,"geocode_precision":"cached","category_label":"酒癮治療機構","facility_type":"hospital","facility_type_label":"醫院","service_type_label":"酒癮治療指定機構、酒癮治療費用補助方案、酒駕防制教育及治療（酒駕評估）","is_alcohol_designated":true,"in_subsidy_program":true,"is_dui_assessment":true,"also_drug_treatment":true,"source_org":"衛生福利部心理健康司（酒癮治療費用補助方案機構及酒駕酒癮評估機構名單）","source_url":"https://dep.mohw.gov.tw/DOMHAOH/cp-4382-46834-107.html","license":"來源頁未標示授權","source_tier":null,"fetched_at":"2026-10-06","vintage":"2026-08-07"}},{"type":"Feature","geometry":{"type":"Point","coordinates":[120.946799,23.970928]},"properties":{"id":"atf_c6946029","name":"埔基醫療財團法人埔里基督教醫院","county":"南投縣","town":"埔里鎮","address":"南投縣埔里鎮鐵山路1號","phone":"049-291-2151#5143","service_hours":null,"geocode_precision":"cached","category_label":"酒癮治療機構","facility_type":"hospital","facility_type_label":"醫院","service_type_label":"酒癮治療指定機構、酒癮治療費用補助方案、酒駕防制教育及治療（酒駕評估）","is_alcohol_designated":true,"in_subsidy_program":true,"is_dui_assessment":true,"also_drug_treatment":false,"source_org":"衛生福利部心理健康司（酒癮治療費用補助方案機構及酒駕酒癮評估機構名單）","source_url":"https://dep.mohw.gov.tw/DOMHAOH/cp-4382-46834-107.html","license":"來源頁未標示授權","source_tier":null,"fetched_at":"2026-10-06","vintage":"2026-08-07"}},{"type":"Feature","geometry":{"type":"Point","coordinates":[120.996811,23.975803]},"properties":{"id":"atf_c0d2a6d1","name":"臺中榮民總醫院埔里分院","county":"南投縣","town":"埔里鎮","address":"南投縣埔里鎮榮光路1號","phone":"049-299-0833#7105","service_hours":null,"geocode_precision":"cached","category_label":"酒癮治療機構","facility_type":"hospital","facility_type_label":"醫院","service_type_label":"酒癮治療指定機構、酒癮治療費用補助方案、酒駕防制教育及治療（酒駕評估）","is_alcohol_designated":true,"in_subsidy_program":true,"is_dui_assessment":true,"also_drug_treatment":true,"source_org":"衛生福利部心理健康司（酒癮治療費用補助方案機構及酒駕酒癮評估機構名單）","source_url":"https://dep.mohw.gov.tw/DOMHAOH/cp-4382-46834-107.html","license":"來源頁未標示授權","source_tier":null,"fetched_at":"2026-10-06","vintage":"2026-08-07"}},{"type":"Feature","geometry":{"type":"Point","coordinates":[120.437886,23.708215]},"properties":{"id":"atf_376b10d9","name":"天主教若瑟醫療財團法人若瑟醫院","county":"雲林縣","town":"虎尾鎮","address":"雲林縣虎尾鎮新生路74號","phone":"05-633-7333","service_hours":null,"geocode_precision":"cached","category_label":"酒癮治療機構","facility_type":"hospital","facility_type_label":"醫院","service_type_label":"酒癮治療指定機構、酒癮治療費用補助方案、酒駕防制教育及治療（酒駕評估）","is_alcohol_designated":true,"in_subsidy_program":true,"is_dui_assessment":true,"also_drug_treatment":true,"source_org":"衛生福利部心理健康司（酒癮治療費用補助方案機構及酒駕酒癮評估機構名單）","source_url":"https://dep.mohw.gov.tw/DOMHAOH/cp-4382-46834-107.html","license":"來源頁未標示授權","source_tier":null,"fetched_at":"2026-10-06","vintage":"2026-08-07"}},{"type":"Feature","geometry":{"type":"Point","coordinates":[120.511264,23.668635]},"properties":{"id":"atf_40f9d95d","name":"信安醫療社團法人信安醫院","county":"雲林縣","town":"斗六市","address":"雲林縣斗六市瓦厝路159號","phone":"05-522-3788","service_hours":null,"geocode_precision":"cached","category_label":"酒癮治療機構","facility_type":"hospital","facility_type_label":"醫院","service_type_label":"酒癮治療指定機構、酒癮治療費用補助方案、酒駕防制教育及治療（酒駕評估）","is_alcohol_designated":true,"in_subsidy_program":true,"is_dui_assessment":true,"also_drug_treatment":true,"source_org":"衛生福利部心理健康司（酒癮治療費用補助方案機構及酒駕酒癮評估機構名單）","source_url":"https://dep.mohw.gov.tw/DOMHAOH/cp-4382-46834-107.html","license":"來源頁未標示授權","source_tier":null,"fetched_at":"2026-10-06","vintage":"2026-08-07"}},{"type":"Feature","geometry":{"type":"Point","coordinates":[120.525929,23.697662]},"properties":{"id":"atf_97d7eeea","name":"國立臺灣大學醫學院附設醫院雲林分院","county":"雲林縣","town":"斗六市","address":"雲林縣斗六市雲林路二段579號","phone":"05-532-3911","service_hours":null,"geocode_precision":"cached","category_label":"酒癮治療機構","facility_type":"hospital","facility_type_label":"醫院","service_type_label":"酒癮治療指定機構、酒癮治療費用補助方案、酒駕防制教育及治療（酒駕評估）","is_alcohol_designated":true,"in_subsidy_program":true,"is_dui_assessment":true,"also_drug_treatment":true,"source_org":"衛生福利部心理健康司（酒癮治療費用補助方案機構及酒駕酒癮評估機構名單）","source_url":"https://dep.mohw.gov.tw/DOMHAOH/cp-4382-46834-107.html","license":"來源頁未標示授權","source_tier":null,"fetched_at":"2026-10-06","vintage":"2026-08-07"}},{"type":"Feature","geometry":{"type":"Point","coordinates":[120.30782,23.591763]},"properties":{"id":"atf_c0c5e723","name":"中國醫藥大學北港附設醫院","county":"雲林縣","town":"北港鎮","address":"雲林縣北港鎮新德路123號","phone":"05-783-7901轉1620","service_hours":null,"geocode_precision":"cached","category_label":"酒癮治療機構","facility_type":"hospital","facility_type_label":"醫院","service_type_label":"酒癮治療指定機構、酒癮治療費用補助方案、酒駕防制教育及治療（酒駕評估）","is_alcohol_designated":true,"in_subsidy_program":true,"is_dui_assessment":true,"also_drug_treatment":true,"source_org":"衛生福利部心理健康司（酒癮治療費用補助方案機構及酒駕酒癮評估機構名單）","source_url":"https://dep.mohw.gov.tw/DOMHAOH/cp-4382-46834-107.html","license":"來源頁未標示授權","source_tier":null,"fetched_at":"2026-10-06","vintage":"2026-08-07"}},{"type":"Feature","geometry":{"type":"Point","coordinates":[120.30433,23.56701]},"properties":{"id":"atf_5be5c2c6","name":"諸元內科醫院","county":"雲林縣","town":"北港鎮","address":"雲林縣北港鎮中和里中山路125號","phone":"05-783-2068","service_hours":null,"geocode_precision":"cached","category_label":"酒癮治療機構","facility_type":"hospital","facility_type_label":"醫院","service_type_label":"酒癮治療指定機構、酒癮治療費用補助方案","is_alcohol_designated":true,"in_subsidy_program":true,"is_dui_assessment":false,"also_drug_treatment":false,"source_org":"衛生福利部心理健康司（酒癮治療費用補助方案機構及酒駕酒癮評估機構名單）","source_url":"https://dep.mohw.gov.tw/DOMHAOH/cp-4382-46834-107.html","license":"來源頁未標示授權","source_tier":null,"fetched_at":"2026-10-06","vintage":"2026-08-07"}},{"type":"Feature","geometry":{"type":"Point","coordinates":[120.439692,23.71477]},"properties":{"id":"atf_f9f5b3e4","name":"廖寶全診所","county":"雲林縣","town":"虎尾鎮","address":"雲林縣虎尾鎮東仁里東明路182號","phone":"05-632-2584","service_hours":null,"geocode_precision":"interpolated","category_label":"酒癮治療機構","facility_type":"clinic","facility_type_label":"診所","service_type_label":"酒癮治療指定機構、酒癮治療費用補助方案","is_alcohol_designated":true,"in_subsidy_program":true,"is_dui_assessment":false,"also_drug_treatment":true,"source_org":"衛生福利部心理健康司（酒癮治療費用補助方案機構及酒駕酒癮評估機構名單）","source_url":"https://dep.mohw.gov.tw/DOMHAOH/cp-4382-46834-107.html","license":"來源頁未標示授權","source_tier":null,"fetched_at":"2026-10-06","vintage":"2026-08-07"}},{"type":"Feature","geometry":{"type":"Point","coordinates":[120.50638,23.48778]},"properties":{"id":"atf_5735a951","name":"臺中榮民總醫院灣橋分院","county":"嘉義縣","town":"竹崎鄉","address":"嘉義縣竹崎鄉灣橋村石麻園38號","phone":"05-279-1072#7372","service_hours":null,"geocode_precision":"cached","category_label":"酒癮治療機構","facility_type":"hospital","facility_type_label":"醫院","service_type_label":"酒癮治療指定機構、酒癮治療費用補助方案、酒駕防制教育及治療（酒駕評估）","is_alcohol_designated":true,"in_subsidy_program":true,"is_dui_assessment":true,"also_drug_treatment":true,"source_org":"衛生福利部心理健康司（酒癮治療費用補助方案機構及酒駕酒癮評估機構名單）","source_url":"https://dep.mohw.gov.tw/DOMHAOH/cp-4382-46834-107.html","license":"來源頁未標示授權","source_tier":null,"fetched_at":"2026-10-06","vintage":"2026-08-07"}},{"type":"Feature","geometry":{"type":"Point","coordinates":[120.234633,23.464433]},"properties":{"id":"atf_35c5e568","name":"衛生福利部朴子醫院","county":"嘉義縣","town":"朴子市","address":"嘉義縣朴子市永和里42之50號","phone":"05-379-0600#342","service_hours":null,"geocode_precision":"cached","category_label":"酒癮治療機構","facility_type":"hospital","facility_type_label":"醫院","service_type_label":"酒癮治療指定機構、酒癮治療費用補助方案、酒駕防制教育及治療（酒駕評估）","is_alcohol_designated":true,"in_subsidy_program":true,"is_dui_assessment":true,"also_drug_treatment":true,"source_org":"衛生福利部心理健康司（酒癮治療費用補助方案機構及酒駕酒癮評估機構名單）","source_url":"https://dep.mohw.gov.tw/DOMHAOH/cp-4382-46834-107.html","license":"來源頁未標示授權","source_tier":null,"fetched_at":"2026-10-06","vintage":"2026-08-07"}},{"type":"Feature","geometry":{"type":"Point","coordinates":[120.285239,23.463483]},"properties":{"id":"atf_22b0a692","name":"長庚醫療財團法人嘉義長庚紀念醫院","county":"嘉義縣","town":"朴子市","address":"嘉義縣朴子市嘉朴路西段6號","phone":"05-362-1000#2328","service_hours":null,"geocode_precision":"cached","category_label":"酒癮治療機構","facility_type":"hospital","facility_type_label":"醫院","service_type_label":"酒癮治療指定機構、酒癮治療費用補助方案、酒駕防制教育及治療（酒駕評估）","is_alcohol_designated":true,"in_subsidy_program":true,"is_dui_assessment":true,"also_drug_treatment":false,"source_org":"衛生福利部心理健康司（酒癮治療費用補助方案機構及酒駕酒癮評估機構名單）","source_url":"https://dep.mohw.gov.tw/DOMHAOH/cp-4382-46834-107.html","license":"來源頁未標示授權","source_tier":null,"fetched_at":"2026-10-06","vintage":"2026-08-07"}},{"type":"Feature","geometry":{"type":"Point","coordinates":[120.45745,23.596312]},"properties":{"id":"atf_85fcdbad","name":"佛教慈濟醫療財團法人大林慈濟醫院","county":"嘉義縣","town":"大林鎮","address":"嘉義縣大林鎮民生路2號","phone":"05-264-8000#5877","service_hours":null,"geocode_precision":"cached","category_label":"酒癮治療機構","facility_type":"hospital","facility_type_label":"醫院","service_type_label":"酒癮治療指定機構、酒癮治療費用補助方案、酒駕防制教育及治療（酒駕評估）","is_alcohol_designated":true,"in_subsidy_program":true,"is_dui_assessment":true,"also_drug_treatment":true,"source_org":"衛生福利部心理健康司（酒癮治療費用補助方案機構及酒駕酒癮評估機構名單）","source_url":"https://dep.mohw.gov.tw/DOMHAOH/cp-4382-46834-107.html","license":"來源頁未標示授權","source_tier":null,"fetched_at":"2026-10-06","vintage":"2026-08-07"}},{"type":"Feature","geometry":{"type":"Point","coordinates":[120.487574,22.633503]},"properties":{"id":"atf_d940380a","name":"國軍高雄總醫院屏東分院附設民眾診療服務處","county":"屏東縣","town":"屏東市","address":"屏東縣屏東市大湖路58巷22號","phone":"08-756-0756#639","service_hours":null,"geocode_precision":"cached","category_label":"酒癮治療機構","facility_type":"hospital","facility_type_label":"醫院","service_type_label":"酒癮治療指定機構、酒癮治療費用補助方案、酒駕防制教育及治療（酒駕評估）","is_alcohol_designated":true,"in_subsidy_program":true,"is_dui_assessment":true,"also_drug_treatment":true,"source_org":"衛生福利部心理健康司（酒癮治療費用補助方案機構及酒駕酒癮評估機構名單）","source_url":"https://dep.mohw.gov.tw/DOMHAOH/cp-4382-46834-107.html","license":"來源頁未標示授權","source_tier":null,"fetched_at":"2026-10-06","vintage":"2026-08-07"}},{"type":"Feature","geometry":{"type":"Point","coordinates":[120.528161,22.650457]},"properties":{"id":"atf_c84e92f2","name":"屏安醫療社團法人屏安醫院","county":"屏東縣","town":"麟洛鄉","address":"屏東縣麟洛鄉中山路160-1號","phone":"08-762-2670#1117","service_hours":null,"geocode_precision":"exact","category_label":"酒癮治療機構","facility_type":"hospital","facility_type_label":"醫院","service_type_label":"酒癮治療指定機構、酒癮治療費用補助方案、酒駕防制教育及治療（酒駕評估）","is_alcohol_designated":true,"in_subsidy_program":true,"is_dui_assessment":true,"also_drug_treatment":true,"source_org":"衛生福利部心理健康司（酒癮治療費用補助方案機構及酒駕酒癮評估機構名單）","source_url":"https://dep.mohw.gov.tw/DOMHAOH/cp-4382-46834-107.html","license":"來源頁未標示授權","source_tier":null,"fetched_at":"2026-10-06","vintage":"2026-08-07"}},{"type":"Feature","geometry":{"type":"Point","coordinates":[120.567556,22.66607]},"properties":{"id":"atf_6945c4d7","name":"佑青醫療財團法人佑青醫院","county":"屏東縣","town":"內埔鄉","address":"屏東縣內埔鄉建興村建興路218巷19號","phone":"08-770-5115#131","service_hours":null,"geocode_precision":"cached","category_label":"酒癮治療機構","facility_type":"hospital","facility_type_label":"醫院","service_type_label":"酒癮治療指定機構、酒癮治療費用補助方案","is_alcohol_designated":true,"in_subsidy_program":true,"is_dui_assessment":false,"also_drug_treatment":true,"source_org":"衛生福利部心理健康司（酒癮治療費用補助方案機構及酒駕酒癮評估機構名單）","source_url":"https://dep.mohw.gov.tw/DOMHAOH/cp-4382-46834-107.html","license":"來源頁未標示授權","source_tier":null,"fetched_at":"2026-10-06","vintage":"2026-08-07"}},{"type":"Feature","geometry":{"type":"Point","coordinates":[120.615204,22.463215]},"properties":{"id":"atf_0ff585cc","name":"迦樂醫療財團法人迦樂醫院","county":"屏東縣","town":"新埤鄉","address":"屏東縣新埤鄉箕湖村進化路12之200號","phone":null,"service_hours":null,"geocode_precision":"cached","category_label":"酒癮治療機構","facility_type":"hospital","facility_type_label":"醫院","service_type_label":"酒癮治療指定機構、酒癮治療費用補助方案、酒駕防制教育及治療（酒駕評估）","is_alcohol_designated":true,"in_subsidy_program":true,"is_dui_assessment":true,"also_drug_treatment":true,"source_org":"衛生福利部心理健康司（酒癮治療費用補助方案機構及酒駕酒癮評估機構名單）","source_url":"https://dep.mohw.gov.tw/DOMHAOH/cp-4382-46834-107.html","license":"來源頁未標示授權","source_tier":null,"fetched_at":"2026-10-06","vintage":"2026-08-07"}},{"type":"Feature","geometry":{"type":"Point","coordinates":[120.459127,22.474326]},"properties":{"id":"atf_11f7d40c","name":"安泰醫療社團法人安泰醫院","county":"屏東縣","town":"東港鎮","address":"屏東縣東港鎮中正路1段210號","phone":"08-832-9966#3042","service_hours":null,"geocode_precision":"cached","category_label":"酒癮治療機構","facility_type":"hospital","facility_type_label":"醫院","service_type_label":"酒癮治療指定機構、酒癮治療費用補助方案、酒駕防制教育及治療（酒駕評估）","is_alcohol_designated":true,"in_subsidy_program":true,"is_dui_assessment":true,"also_drug_treatment":true,"source_org":"衛生福利部心理健康司（酒癮治療費用補助方案機構及酒駕酒癮評估機構名單）","source_url":"https://dep.mohw.gov.tw/DOMHAOH/cp-4382-46834-107.html","license":"來源頁未標示授權","source_tier":null,"fetched_at":"2026-10-06","vintage":"2026-08-07"}},{"type":"Feature","geometry":{"type":"Point","coordinates":[120.452734,22.465199]},"properties":{"id":"atf_0126c9ac","name":"輔英科技大學附設醫院","county":"屏東縣","town":"東港鎮","address":"屏東縣東港鎮中山路5號","phone":"08-832-3146#9313","service_hours":null,"geocode_precision":"cached","category_label":"酒癮治療機構","facility_type":"hospital","facility_type_label":"醫院","service_type_label":"酒癮治療指定機構、酒癮治療費用補助方案、酒駕防制教育及治療（酒駕評估）","is_alcohol_designated":true,"in_subsidy_program":true,"is_dui_assessment":true,"also_drug_treatment":true,"source_org":"衛生福利部心理健康司（酒癮治療費用補助方案機構及酒駕酒癮評估機構名單）","source_url":"https://dep.mohw.gov.tw/DOMHAOH/cp-4382-46834-107.html","license":"來源頁未標示授權","source_tier":null,"fetched_at":"2026-10-06","vintage":"2026-08-07"}},{"type":"Feature","geometry":{"type":"Point","coordinates":[121.149853,22.757808]},"properties":{"id":"atf_f6010c41","name":"衛生福利部臺東醫院","county":"臺東縣","town":"臺東市","address":"臺東市五權街1號","phone":"089-324-112","service_hours":null,"geocode_precision":"cached","category_label":"酒癮治療機構","facility_type":"hospital","facility_type_label":"醫院","service_type_label":"酒癮治療指定機構、酒癮治療費用補助方案、酒駕防制教育及治療（酒駕評估）","is_alcohol_designated":true,"in_subsidy_program":true,"is_dui_assessment":true,"also_drug_treatment":true,"source_org":"衛生福利部心理健康司（酒癮治療費用補助方案機構及酒駕酒癮評估機構名單）","source_url":"https://dep.mohw.gov.tw/DOMHAOH/cp-4382-46834-107.html","license":"來源頁未標示授權","source_tier":null,"fetched_at":"2026-10-06","vintage":"2026-08-07"}},{"type":"Feature","geometry":{"type":"Point","coordinates":[121.146016,22.763821]},"properties":{"id":"atf_97961c53","name":"東基醫療財團法人臺東基督教醫院","county":"臺東縣","town":"臺東市","address":"臺東市開封街350號","phone":"089-960-888#1734/1248","service_hours":null,"geocode_precision":"cached","category_label":"酒癮治療機構","facility_type":"hospital","facility_type_label":"醫院","service_type_label":"酒癮治療指定機構、酒癮治療費用補助方案、酒駕防制教育及治療（酒駕評估）","is_alcohol_designated":true,"in_subsidy_program":true,"is_dui_assessment":true,"also_drug_treatment":true,"source_org":"衛生福利部心理健康司（酒癮治療費用補助方案機構及酒駕酒癮評估機構名單）","source_url":"https://dep.mohw.gov.tw/DOMHAOH/cp-4382-46834-107.html","license":"來源頁未標示授權","source_tier":null,"fetched_at":"2026-10-06","vintage":"2026-08-07"}},{"type":"Feature","geometry":{"type":"Point","coordinates":[121.132431,22.772346]},"properties":{"id":"atf_8e9ae8e1","name":"臺北榮民總醫院臺東分院","county":"臺東縣","town":"臺東市","address":"臺東縣台東市更生路1000號","phone":"089-222-995","service_hours":null,"geocode_precision":"cached","category_label":"酒癮治療機構","facility_type":"hospital","facility_type_label":"醫院","service_type_label":"酒癮治療指定機構、酒癮治療費用補助方案、酒駕防制教育及治療（酒駕評估）","is_alcohol_designated":true,"in_subsidy_program":true,"is_dui_assessment":true,"also_drug_treatment":true,"source_org":"衛生福利部心理健康司（酒癮治療費用補助方案機構及酒駕酒癮評估機構名單）","source_url":"https://dep.mohw.gov.tw/DOMHAOH/cp-4382-46834-107.html","license":"來源頁未標示授權","source_tier":null,"fetched_at":"2026-10-06","vintage":"2026-08-07"}},{"type":"Feature","geometry":{"type":"Point","coordinates":[121.61118,23.97948]},"properties":{"id":"atf_7e606c3a","name":"衛生福利部花蓮醫院","county":"花蓮縣","town":"花蓮市","address":"花蓮縣花蓮市中正路600號","phone":"03-835-8141#6125","service_hours":null,"geocode_precision":"cached","category_label":"酒癮治療機構","facility_type":"hospital","facility_type_label":"醫院","service_type_label":"酒癮治療指定機構、酒癮治療費用補助方案、酒駕防制教育及治療（酒駕評估）","is_alcohol_designated":true,"in_subsidy_program":true,"is_dui_assessment":true,"also_drug_treatment":true,"source_org":"衛生福利部心理健康司（酒癮治療費用補助方案機構及酒駕酒癮評估機構名單）","source_url":"https://dep.mohw.gov.tw/DOMHAOH/cp-4382-46834-107.html","license":"來源頁未標示授權","source_tier":null,"fetched_at":"2026-10-06","vintage":"2026-08-07"}},{"type":"Feature","geometry":{"type":"Point","coordinates":[121.592282,23.99573]},"properties":{"id":"atf_bd2ec371","name":"佛教慈濟醫療財團法人花蓮慈濟醫院","county":"花蓮縣","town":"花蓮市","address":"花蓮縣花蓮市中央路三段707號","phone":"03-856-1825#12062","service_hours":null,"geocode_precision":"cached","category_label":"酒癮治療機構","facility_type":"hospital","facility_type_label":"醫院","service_type_label":"酒癮治療指定機構、酒癮治療費用補助方案、酒駕防制教育及治療（酒駕評估）","is_alcohol_designated":true,"in_subsidy_program":true,"is_dui_assessment":true,"also_drug_treatment":true,"source_org":"衛生福利部心理健康司（酒癮治療費用補助方案機構及酒駕酒癮評估機構名單）","source_url":"https://dep.mohw.gov.tw/DOMHAOH/cp-4382-46834-107.html","license":"來源頁未標示授權","source_tier":null,"fetched_at":"2026-10-06","vintage":"2026-08-07"}},{"type":"Feature","geometry":{"type":"Point","coordinates":[121.6074,24.024429]},"properties":{"id":"atf_04251c6f","name":"國軍花蓮總醫院附設民眾診療服務處","county":"花蓮縣","town":"新城鄉","address":"花蓮縣新城鄉嘉里村嘉里路163號","phone":"03-826-3151#815870","service_hours":null,"geocode_precision":"cached","category_label":"酒癮治療機構","facility_type":"hospital","facility_type_label":"醫院","service_type_label":"酒癮治療指定機構、酒癮治療費用補助方案、酒駕防制教育及治療（酒駕評估）","is_alcohol_designated":true,"in_subsidy_program":true,"is_dui_assessment":true,"also_drug_treatment":true,"source_org":"衛生福利部心理健康司（酒癮治療費用補助方案機構及酒駕酒癮評估機構名單）","source_url":"https://dep.mohw.gov.tw/DOMHAOH/cp-4382-46834-107.html","license":"來源頁未標示授權","source_tier":null,"fetched_at":"2026-10-06","vintage":"2026-08-07"}},{"type":"Feature","geometry":{"type":"Point","coordinates":[121.524929,23.870005]},"properties":{"id":"atf_9d875fc5","name":"臺灣基督教門諾會醫療財團法人門諾醫院壽豐分院","county":"花蓮縣","town":"壽豐鄉","address":"花蓮縣壽豐鄉共和村魚池52號","phone":"03-866-4600#2110","service_hours":null,"geocode_precision":"cached","category_label":"酒癮治療機構","facility_type":"hospital","facility_type_label":"醫院","service_type_label":"酒癮治療指定機構、酒癮治療費用補助方案、酒駕防制教育及治療（酒駕評估）","is_alcohol_designated":true,"in_subsidy_program":true,"is_dui_assessment":true,"also_drug_treatment":false,"source_org":"衛生福利部心理健康司（酒癮治療費用補助方案機構及酒駕酒癮評估機構名單）","source_url":"https://dep.mohw.gov.tw/DOMHAOH/cp-4382-46834-107.html","license":"來源頁未標示授權","source_tier":null,"fetched_at":"2026-10-06","vintage":"2026-08-07"}},{"type":"Feature","geometry":{"type":"Point","coordinates":[121.439215,23.727428]},"properties":{"id":"atf_cb78ec4f","name":"臺北榮民總醫院鳳林分院","county":"花蓮縣","town":"鳳林鎮","address":"花蓮縣鳳林鎮中正路一段2號","phone":"03-876-4539#366","service_hours":null,"geocode_precision":"cached","category_label":"酒癮治療機構","facility_type":"hospital","facility_type_label":"醫院","service_type_label":"酒癮治療指定機構、酒癮治療費用補助方案、酒駕防制教育及治療（酒駕評估）","is_alcohol_designated":true,"in_subsidy_program":true,"is_dui_assessment":true,"also_drug_treatment":true,"source_org":"衛生福利部心理健康司（酒癮治療費用補助方案機構及酒駕酒癮評估機構名單）","source_url":"https://dep.mohw.gov.tw/DOMHAOH/cp-4382-46834-107.html","license":"來源頁未標示授權","source_tier":null,"fetched_at":"2026-10-06","vintage":"2026-08-07"}},{"type":"Feature","geometry":{"type":"Point","coordinates":[121.312031,23.339213]},"properties":{"id":"atf_b78f2488","name":"臺北榮民總醫院玉里分院","county":"花蓮縣","town":"玉里鎮","address":"花蓮縣玉里鎮新興街91號","phone":"03-888-3141#1329","service_hours":null,"geocode_precision":"cached","category_label":"酒癮治療機構","facility_type":"hospital","facility_type_label":"醫院","service_type_label":"酒癮治療指定機構、酒癮治療費用補助方案、酒駕防制教育及治療（酒駕評估）","is_alcohol_designated":true,"in_subsidy_program":true,"is_dui_assessment":true,"also_drug_treatment":true,"source_org":"衛生福利部心理健康司（酒癮治療費用補助方案機構及酒駕酒癮評估機構名單）","source_url":"https://dep.mohw.gov.tw/DOMHAOH/cp-4382-46834-107.html","license":"來源頁未標示授權","source_tier":null,"fetched_at":"2026-10-06","vintage":"2026-08-07"}},{"type":"Feature","geometry":{"type":"Point","coordinates":[121.320848,23.34749]},"properties":{"id":"atf_1b584767","name":"衛生福利部玉里分院","county":"花蓮縣","town":"玉里鎮","address":"花蓮縣玉里鎮中華路448號","phone":"03-888-6141#3165、3166","service_hours":null,"geocode_precision":"cached","category_label":"酒癮治療機構","facility_type":"other","facility_type_label":"其他","service_type_label":"酒癮治療指定機構、酒癮治療費用補助方案、酒駕防制教育及治療（酒駕評估）","is_alcohol_designated":true,"in_subsidy_program":true,"is_dui_assessment":true,"also_drug_treatment":true,"source_org":"衛生福利部心理健康司（酒癮治療費用補助方案機構及酒駕酒癮評估機構名單）","source_url":"https://dep.mohw.gov.tw/DOMHAOH/cp-4382-46834-107.html","license":"來源頁未標示授權","source_tier":null,"fetched_at":"2026-10-06","vintage":"2026-08-07"}},{"type":"Feature","geometry":{"type":"Point","coordinates":[121.799078,25.130445]},"properties":{"id":"atf_4915acce","name":"維德醫療社團法人基隆維德醫院","county":"基隆市","town":"中正區","address":"基隆市中正區調和街210號","phone":"02-2469-6688#1202","service_hours":null,"geocode_precision":"cached","category_label":"酒癮治療機構","facility_type":"hospital","facility_type_label":"醫院","service_type_label":"酒癮治療指定機構、酒癮治療費用補助方案、酒駕防制教育及治療（酒駕評估）","is_alcohol_designated":true,"in_subsidy_program":true,"is_dui_assessment":true,"also_drug_treatment":true,"source_org":"衛生福利部心理健康司（酒癮治療費用補助方案機構及酒駕酒癮評估機構名單）","source_url":"https://dep.mohw.gov.tw/DOMHAOH/cp-4382-46834-107.html","license":"來源頁未標示授權","source_tier":null,"fetched_at":"2026-10-06","vintage":"2026-08-07"}},{"type":"Feature","geometry":{"type":"Point","coordinates":[121.707717,25.148064]},"properties":{"id":"atf_0ba5250e","name":"長庚醫療財團法人基隆長庚紀念醫院","county":"基隆市","town":"安樂區","address":"基隆市安樂區基金一路208巷200號","phone":"02-2432-9292#2719","service_hours":null,"geocode_precision":"cached","category_label":"酒癮治療機構","facility_type":"hospital","facility_type_label":"醫院","service_type_label":"酒癮治療指定機構、酒癮治療費用補助方案、酒駕防制教育及治療（酒駕評估）","is_alcohol_designated":true,"in_subsidy_program":true,"is_dui_assessment":true,"also_drug_treatment":true,"source_org":"衛生福利部心理健康司（酒癮治療費用補助方案機構及酒駕酒癮評估機構名單）","source_url":"https://dep.mohw.gov.tw/DOMHAOH/cp-4382-46834-107.html","license":"來源頁未標示授權","source_tier":null,"fetched_at":"2026-10-06","vintage":"2026-08-07"}},{"type":"Feature","geometry":{"type":"Point","coordinates":[121.718563,25.138298]},"properties":{"id":"atf_2473d3f6","name":"南光神經精神科醫院","county":"基隆市","town":"安樂區","address":"基隆市安樂區基金一路91號","phone":"02-2431-0023","service_hours":null,"geocode_precision":"cached","category_label":"酒癮治療機構","facility_type":"hospital","facility_type_label":"醫院","service_type_label":"酒癮治療指定機構、酒癮治療費用補助方案、酒駕防制教育及治療（酒駕評估）","is_alcohol_designated":true,"in_subsidy_program":true,"is_dui_assessment":true,"also_drug_treatment":false,"source_org":"衛生福利部心理健康司（酒癮治療費用補助方案機構及酒駕酒癮評估機構名單）","source_url":"https://dep.mohw.gov.tw/DOMHAOH/cp-4382-46834-107.html","license":"來源頁未標示授權","source_tier":null,"fetched_at":"2026-10-06","vintage":"2026-08-07"}},{"type":"Feature","geometry":{"type":"Point","coordinates":[121.714534,25.138993]},"properties":{"id":"atf_b05d5d85","name":"暘基醫院","county":"基隆市","town":"安樂區","address":"基隆市安樂區基金一路129巷8號","phone":"02-2432-2522#217","service_hours":null,"geocode_precision":"cached","category_label":"酒癮治療機構","facility_type":"hospital","facility_type_label":"醫院","service_type_label":"酒癮治療指定機構、酒癮治療費用補助方案、酒駕防制教育及治療（酒駕評估）","is_alcohol_designated":true,"in_subsidy_program":true,"is_dui_assessment":true,"also_drug_treatment":false,"source_org":"衛生福利部心理健康司（酒癮治療費用補助方案機構及酒駕酒癮評估機構名單）","source_url":"https://dep.mohw.gov.tw/DOMHAOH/cp-4382-46834-107.html","license":"來源頁未標示授權","source_tier":null,"fetched_at":"2026-10-06","vintage":"2026-08-07"}},{"type":"Feature","geometry":{"type":"Point","coordinates":[120.962391,24.815372]},"properties":{"id":"atf_8c82ad3e","name":"國軍桃園總醫院新竹分院附設民眾診療服務處","county":"新竹市","town":"北區","address":"新竹市北區武陵路3號","phone":"03-534-8181#325393","service_hours":null,"geocode_precision":"cached","category_label":"酒癮治療機構","facility_type":"hospital","facility_type_label":"醫院","service_type_label":"酒癮治療指定機構、酒癮治療費用補助方案、酒駕防制教育及治療（酒駕評估）","is_alcohol_designated":true,"in_subsidy_program":true,"is_dui_assessment":true,"also_drug_treatment":true,"source_org":"衛生福利部心理健康司（酒癮治療費用補助方案機構及酒駕酒癮評估機構名單）","source_url":"https://dep.mohw.gov.tw/DOMHAOH/cp-4382-46834-107.html","license":"來源頁未標示授權","source_tier":null,"fetched_at":"2026-10-06","vintage":"2026-08-07"}},{"type":"Feature","geometry":{"type":"Point","coordinates":[120.980615,24.815873]},"properties":{"id":"atf_2514e284","name":"國立臺灣大學醫學院附設醫院新竹臺大分院新竹醫院","county":"新竹市","town":null,"address":"新竹市經國路一段442巷25號","phone":"03-532-6151#522701","service_hours":null,"geocode_precision":"cached","category_label":"酒癮治療機構","facility_type":"hospital","facility_type_label":"醫院","service_type_label":"酒癮治療指定機構、酒癮治療費用補助方案、酒駕防制教育及治療（酒駕評估）","is_alcohol_designated":true,"in_subsidy_program":true,"is_dui_assessment":true,"also_drug_treatment":true,"source_org":"衛生福利部心理健康司（酒癮治療費用補助方案機構及酒駕酒癮評估機構名單）","source_url":"https://dep.mohw.gov.tw/DOMHAOH/cp-4382-46834-107.html","license":"來源頁未標示授權","source_tier":null,"fetched_at":"2026-10-06","vintage":"2026-08-07"}},{"type":"Feature","geometry":{"type":"Point","coordinates":[120.98869,24.801973]},"properties":{"id":"atf_938e061d","name":"林正修診所","county":"新竹市","town":"東區","address":"新竹市東區新光路38號","phone":"03-516-6746","service_hours":null,"geocode_precision":"cached","category_label":"酒癮治療機構","facility_type":"clinic","facility_type_label":"診所","service_type_label":"酒癮治療指定機構、酒癮治療費用補助方案","is_alcohol_designated":true,"in_subsidy_program":true,"is_dui_assessment":false,"also_drug_treatment":true,"source_org":"衛生福利部心理健康司（酒癮治療費用補助方案機構及酒駕酒癮評估機構名單）","source_url":"https://dep.mohw.gov.tw/DOMHAOH/cp-4382-46834-107.html","license":"來源頁未標示授權","source_tier":null,"fetched_at":"2026-10-06","vintage":"2026-08-07"}},{"type":"Feature","geometry":{"type":"Point","coordinates":[120.453513,23.480476]},"properties":{"id":"atf_339ca59d","name":"陽明醫院","county":"嘉義市","town":"東區","address":"嘉義市東區吳鳯北路252號","phone":"05-225-2000#3662","service_hours":null,"geocode_precision":"google_place","category_label":"酒癮治療機構","facility_type":"hospital","facility_type_label":"醫院","service_type_label":"酒癮治療指定機構、酒癮治療費用補助方案、酒駕防制教育及治療（酒駕評估）","is_alcohol_designated":true,"in_subsidy_program":true,"is_dui_assessment":true,"also_drug_treatment":false,"source_org":"衛生福利部心理健康司（酒癮治療費用補助方案機構及酒駕酒癮評估機構名單）","source_url":"https://dep.mohw.gov.tw/DOMHAOH/cp-4382-46834-107.html","license":"來源頁未標示授權","source_tier":null,"fetched_at":"2026-10-06","vintage":"2026-08-07"}},{"type":"Feature","geometry":{"type":"Point","coordinates":[120.450083,23.499268]},"properties":{"id":"atf_ce0449a9","name":"戴德森醫療財團法人嘉義基督教醫院","county":"嘉義市","town":"東區","address":"嘉義市東區忠孝路539號","phone":"05-276-5041#6722","service_hours":null,"geocode_precision":"exact","category_label":"酒癮治療機構","facility_type":"hospital","facility_type_label":"醫院","service_type_label":"酒癮治療指定機構、酒癮治療費用補助方案、酒駕防制教育及治療（酒駕評估）","is_alcohol_designated":true,"in_subsidy_program":true,"is_dui_assessment":true,"also_drug_treatment":false,"source_org":"衛生福利部心理健康司（酒癮治療費用補助方案機構及酒駕酒癮評估機構名單）","source_url":"https://dep.mohw.gov.tw/DOMHAOH/cp-4382-46834-107.html","license":"來源頁未標示授權","source_tier":null,"fetched_at":"2026-10-06","vintage":"2026-08-07"}},{"type":"Feature","geometry":{"type":"Point","coordinates":[120.462941,23.484073]},"properties":{"id":"atf_45b2fbe1","name":"天主教中華聖母修女會醫療財團法人天主教聖馬爾定醫院","county":"嘉義市","town":"東區","address":"嘉義市東區民權路60號","phone":"05-278-0040#3210","service_hours":null,"geocode_precision":"interpolated","category_label":"酒癮治療機構","facility_type":"hospital","facility_type_label":"醫院","service_type_label":"酒癮治療指定機構、酒癮治療費用補助方案、酒駕防制教育及治療（酒駕評估）","is_alcohol_designated":true,"in_subsidy_program":true,"is_dui_assessment":true,"also_drug_treatment":false,"source_org":"衛生福利部心理健康司（酒癮治療費用補助方案機構及酒駕酒癮評估機構名單）","source_url":"https://dep.mohw.gov.tw/DOMHAOH/cp-4382-46834-107.html","license":"來源頁未標示授權","source_tier":null,"fetched_at":"2026-10-06","vintage":"2026-08-07"}},{"type":"Feature","geometry":{"type":"Point","coordinates":[120.42299,23.467366]},"properties":{"id":"atf_da80974a","name":"臺中榮民總醫院嘉義分院","county":"嘉義市","town":"西區","address":"嘉義市西區世賢路二段600號","phone":"05-235-9630#6101","service_hours":null,"geocode_precision":"exact","category_label":"酒癮治療機構","facility_type":"hospital","facility_type_label":"醫院","service_type_label":"酒癮治療指定機構、酒癮治療費用補助方案、酒駕防制教育及治療（酒駕評估）","is_alcohol_designated":true,"in_subsidy_program":true,"is_dui_assessment":true,"also_drug_treatment":true,"source_org":"衛生福利部心理健康司（酒癮治療費用補助方案機構及酒駕酒癮評估機構名單）","source_url":"https://dep.mohw.gov.tw/DOMHAOH/cp-4382-46834-107.html","license":"來源頁未標示授權","source_tier":null,"fetched_at":"2026-10-06","vintage":"2026-08-07"}},{"type":"Feature","geometry":{"type":"Point","coordinates":[120.42907,23.48117]},"properties":{"id":"atf_18f026a0","name":"衛生福利部嘉義醫院","county":"嘉義市","town":"西區","address":"嘉義市西區北港路312號","phone":"05-231-9090#2652","service_hours":null,"geocode_precision":"cached","category_label":"酒癮治療機構","facility_type":"hospital","facility_type_label":"醫院","service_type_label":"酒癮治療指定機構、酒癮治療費用補助方案、酒駕防制教育及治療（酒駕評估）","is_alcohol_designated":true,"in_subsidy_program":true,"is_dui_assessment":true,"also_drug_treatment":true,"source_org":"衛生福利部心理健康司（酒癮治療費用補助方案機構及酒駕酒癮評估機構名單）","source_url":"https://dep.mohw.gov.tw/DOMHAOH/cp-4382-46834-107.html","license":"來源頁未標示授權","source_tier":null,"fetched_at":"2026-10-06","vintage":"2026-08-07"}},{"type":"Feature","geometry":{"type":"Point","coordinates":[119.565423,23.564553]},"properties":{"id":"atf_0b420d75","name":"衛生福利部澎湖醫院","county":"澎湖縣","town":"馬公市","address":"澎湖縣馬公市中正路10號","phone":"06-926-1151#50806","service_hours":null,"geocode_precision":"cached","category_label":"酒癮治療機構","facility_type":"hospital","facility_type_label":"醫院","service_type_label":"酒癮治療指定機構、酒癮治療費用補助方案、酒駕防制教育及治療（酒駕評估）","is_alcohol_designated":true,"in_subsidy_program":true,"is_dui_assessment":true,"also_drug_treatment":true,"source_org":"衛生福利部心理健康司（酒癮治療費用補助方案機構及酒駕酒癮評估機構名單）","source_url":"https://dep.mohw.gov.tw/DOMHAOH/cp-4382-46834-107.html","license":"來源頁未標示授權","source_tier":null,"fetched_at":"2026-10-06","vintage":"2026-08-07"}},{"type":"Feature","geometry":{"type":"Point","coordinates":[118.418001,24.440589]},"properties":{"id":"atf_9034867d","name":"衛生福利部金門醫院","county":"金門縣","town":"金湖鎮","address":"金門縣金湖鎮復興路2號","phone":"082-332-546#11972","service_hours":null,"geocode_precision":"cached","category_label":"酒癮治療機構","facility_type":"hospital","facility_type_label":"醫院","service_type_label":"酒癮治療指定機構、酒癮治療費用補助方案、酒駕防制教育及治療（酒駕評估）","is_alcohol_designated":true,"in_subsidy_program":true,"is_dui_assessment":true,"also_drug_treatment":true,"source_org":"衛生福利部心理健康司（酒癮治療費用補助方案機構及酒駕酒癮評估機構名單）","source_url":"https://dep.mohw.gov.tw/DOMHAOH/cp-4382-46834-107.html","license":"來源頁未標示授權","source_tier":null,"fetched_at":"2026-10-06","vintage":"2026-08-07"}},{"type":"Feature","geometry":{"type":"Point","coordinates":[118.411332,24.437352]},"properties":{"id":"atf_330f6fe3","name":"曾杏榕診所","county":"金門縣","town":"金湖鎮","address":"金門縣金湖鎮市港二路170號1樓","phone":"082-335-666","service_hours":null,"geocode_precision":"cached","category_label":"酒癮治療機構","facility_type":"clinic","facility_type_label":"診所","service_type_label":"酒癮治療指定機構、酒癮治療費用補助方案","is_alcohol_designated":true,"in_subsidy_program":true,"is_dui_assessment":false,"also_drug_treatment":false,"source_org":"衛生福利部心理健康司（酒癮治療費用補助方案機構及酒駕酒癮評估機構名單）","source_url":"https://dep.mohw.gov.tw/DOMHAOH/cp-4382-46834-107.html","license":"來源頁未標示授權","source_tier":null,"fetched_at":"2026-10-06","vintage":"2026-08-07"}},{"type":"Feature","geometry":{"type":"Point","coordinates":[119.949168,26.160844]},"properties":{"id":"atf_a023d911","name":"連江縣立醫院","county":"連江縣","town":"南竿鄉","address":"連江縣南竿鄉復興村217號","phone":"0836-23995 #1309","service_hours":null,"geocode_precision":"cached","category_label":"酒癮治療機構","facility_type":"hospital","facility_type_label":"醫院","service_type_label":"酒癮治療指定機構、酒癮治療費用補助方案、酒駕防制教育及治療（酒駕評估）","is_alcohol_designated":true,"in_subsidy_program":true,"is_dui_assessment":true,"also_drug_treatment":true,"source_org":"衛生福利部心理健康司（酒癮治療費用補助方案機構及酒駕酒癮評估機構名單）","source_url":"https://dep.mohw.gov.tw/DOMHAOH/cp-4382-46834-107.html","license":"來源頁未標示授權","source_tier":null,"fetched_at":"2026-10-06","vintage":"2026-08-07"}}]}