{"type":"FeatureCollection","features":[{"type":"Feature","geometry":{"type":"Point","coordinates":[120.447404,23.481637]},"properties":{"id":"cdo_7f2fdab0","name":"中正公園","county":"嘉義市","town":"西區","address":"嘉義市西區忠義街165號","phone":null,"service_hours":null,"geocode_precision":"source","outlet_type":"vending_machine","item_note":"保險套自動販賣機","item_confirmed":true,"source_org":"嘉義市政府（data.gov.tw 52515）","source_url":"https://data.gov.tw/dataset/52515","license":"政府資料開放授權條款第1版","source_tier":null,"fetched_at":"2026-10-06","vintage":"2026-08-04"}},{"type":"Feature","geometry":{"type":"Point","coordinates":[120.32614,22.725333]},"properties":{"id":"cdo_c2a953ff","name":"世詠藥局","county":"高雄市","town":"楠梓區","address":"高雄市楠梓區楠都東街138號","phone":"(07)3539869","service_hours":null,"geocode_precision":"cached","outlet_type":"pharmacy_retail","item_note":"平價保險套（藥局販售）","item_confirmed":true,"source_org":"高雄市政府（data.gov.tw 143426 平價保險套藥局）","source_url":"https://data.gov.tw/dataset/143426","license":"政府資料開放授權條款第1版","source_tier":null,"fetched_at":"2026-10-06","vintage":"2025-06-30"}},{"type":"Feature","geometry":{"type":"Point","coordinates":[120.288975,22.711517]},"properties":{"id":"cdo_91b4baa1","name":"建佑藥局","county":"高雄市","town":"楠梓區","address":"高雄市楠梓區右昌街191.193號","phone":"(07)3626893","service_hours":null,"geocode_precision":"google_place","outlet_type":"pharmacy_retail","item_note":"平價保險套（藥局販售）","item_confirmed":true,"source_org":"高雄市政府（data.gov.tw 143426 平價保險套藥局）","source_url":"https://data.gov.tw/dataset/143426","license":"政府資料開放授權條款第1版","source_tier":null,"fetched_at":"2026-10-06","vintage":"2025-06-30"}},{"type":"Feature","geometry":{"type":"Point","coordinates":[120.286946,22.670301]},"properties":{"id":"cdo_2ef5a59b","name":"杏光藥局","county":"高雄市","town":"左營區","address":"高雄市左營區果峰街47巷1號","phone":"(07)5837060","service_hours":null,"geocode_precision":"cached","outlet_type":"pharmacy_retail","item_note":"平價保險套（藥局販售）","item_confirmed":true,"source_org":"高雄市政府（data.gov.tw 143426 平價保險套藥局）","source_url":"https://data.gov.tw/dataset/143426","license":"政府資料開放授權條款第1版","source_tier":null,"fetched_at":"2026-10-06","vintage":"2025-06-30"}},{"type":"Feature","geometry":{"type":"Point","coordinates":[120.339118,22.63944]},"properties":{"id":"cdo_8cfb2e0b","name":"春仁藥局","county":"高雄市","town":"三民區","address":"高雄市三民區覺民路225號","phone":"(07)3962341","service_hours":null,"geocode_precision":"exact","outlet_type":"pharmacy_retail","item_note":"平價保險套（藥局販售）","item_confirmed":true,"source_org":"高雄市政府（data.gov.tw 143426 平價保險套藥局）","source_url":"https://data.gov.tw/dataset/143426","license":"政府資料開放授權條款第1版","source_tier":null,"fetched_at":"2026-10-06","vintage":"2025-06-30"}},{"type":"Feature","geometry":{"type":"Point","coordinates":[120.313474,22.663688]},"properties":{"id":"cdo_569f7b3e","name":"河堤健保藥局","county":"高雄市","town":"三民區","address":"高雄市三民區裕誠路107號","phone":"(07)3108281","service_hours":null,"geocode_precision":"cached","outlet_type":"pharmacy_retail","item_note":"平價保險套（藥局販售）","item_confirmed":true,"source_org":"高雄市政府（data.gov.tw 143426 平價保險套藥局）","source_url":"https://data.gov.tw/dataset/143426","license":"政府資料開放授權條款第1版","source_tier":null,"fetched_at":"2026-10-06","vintage":"2025-06-30"}},{"type":"Feature","geometry":{"type":"Point","coordinates":[120.312813,22.643095]},"properties":{"id":"cdo_4b9a3a27","name":"利民藥局","county":"高雄市","town":"三民區","address":"高雄市三民區孝順街74號","phone":"(07)3125436","service_hours":null,"geocode_precision":"cached","outlet_type":"pharmacy_retail","item_note":"平價保險套（藥局販售）","item_confirmed":true,"source_org":"高雄市政府（data.gov.tw 143426 平價保險套藥局）","source_url":"https://data.gov.tw/dataset/143426","license":"政府資料開放授權條款第1版","source_tier":null,"fetched_at":"2026-10-06","vintage":"2025-06-30"}},{"type":"Feature","geometry":{"type":"Point","coordinates":[120.300957,22.647659]},"properties":{"id":"cdo_f8b15782","name":"安成藥局","county":"高雄市","town":"三民區","address":"高雄市三民區察哈爾二街63號","phone":"(07)3229295","service_hours":null,"geocode_precision":"cached","outlet_type":"pharmacy_retail","item_note":"平價保險套（藥局販售）","item_confirmed":true,"source_org":"高雄市政府（data.gov.tw 143426 平價保險套藥局）","source_url":"https://data.gov.tw/dataset/143426","license":"政府資料開放授權條款第1版","source_tier":null,"fetched_at":"2026-10-06","vintage":"2025-06-30"}},{"type":"Feature","geometry":{"type":"Point","coordinates":[120.293689,22.669652]},"properties":{"id":"cdo_1cbb5a6d","name":"崧柏藥局","county":"高雄市","town":"鼓山區","address":"高雄市鼓山區華榮路543號","phone":"(07)5542027","service_hours":null,"geocode_precision":"cached","outlet_type":"pharmacy_retail","item_note":"平價保險套（藥局販售）","item_confirmed":true,"source_org":"高雄市政府（data.gov.tw 143426 平價保險套藥局）","source_url":"https://data.gov.tw/dataset/143426","license":"政府資料開放授權條款第1版","source_tier":null,"fetched_at":"2026-10-06","vintage":"2025-06-30"}},{"type":"Feature","geometry":{"type":"Point","coordinates":[120.275708,22.654681]},"properties":{"id":"cdo_34a71a93","name":"弘興藥局","county":"高雄市","town":"鼓山區","address":"高雄市鼓山區鼓山三路48之11號","phone":"(07)5612677","service_hours":null,"geocode_precision":"cached","outlet_type":"pharmacy_retail","item_note":"平價保險套（藥局販售）","item_confirmed":true,"source_org":"高雄市政府（data.gov.tw 143426 平價保險套藥局）","source_url":"https://data.gov.tw/dataset/143426","license":"政府資料開放授權條款第1版","source_tier":null,"fetched_at":"2026-10-06","vintage":"2025-06-30"}},{"type":"Feature","geometry":{"type":"Point","coordinates":[120.333188,22.630646]},"properties":{"id":"cdo_7cc7c64d","name":"柏松藥局","county":"高雄市","town":"苓雅區","address":"高雄市苓雅區輔仁路175號","phone":"(07)7119786","service_hours":null,"geocode_precision":"cached","outlet_type":"pharmacy_retail","item_note":"平價保險套（藥局販售）","item_confirmed":true,"source_org":"高雄市政府（data.gov.tw 143426 平價保險套藥局）","source_url":"https://data.gov.tw/dataset/143426","license":"政府資料開放授權條款第1版","source_tier":null,"fetched_at":"2026-10-06","vintage":"2025-06-30"}},{"type":"Feature","geometry":{"type":"Point","coordinates":[120.315586,22.609927]},"properties":{"id":"cdo_6be19c3b","name":"彥芳藥局","county":"高雄市","town":"前鎮","address":"高雄市前鎮區長江街65號","phone":"(07)3302007","service_hours":null,"geocode_precision":"cached","outlet_type":"pharmacy_retail","item_note":"平價保險套（藥局販售）","item_confirmed":true,"source_org":"高雄市政府（data.gov.tw 143426 平價保險套藥局）","source_url":"https://data.gov.tw/dataset/143426","license":"政府資料開放授權條款第1版","source_tier":null,"fetched_at":"2026-10-06","vintage":"2025-06-30"}},{"type":"Feature","geometry":{"type":"Point","coordinates":[120.35717,22.624482]},"properties":{"id":"cdo_f7493044","name":"中華藥局","county":"高雄市","town":"鳳山區","address":"高雄市鳳山區中山路142號","phone":"(07)7472853","service_hours":null,"geocode_precision":"cached","outlet_type":"pharmacy_retail","item_note":"平價保險套（藥局販售）","item_confirmed":true,"source_org":"高雄市政府（data.gov.tw 143426 平價保險套藥局）","source_url":"https://data.gov.tw/dataset/143426","license":"政府資料開放授權條款第1版","source_tier":null,"fetched_at":"2026-10-06","vintage":"2025-06-30"}},{"type":"Feature","geometry":{"type":"Point","coordinates":[120.344943,22.609848]},"properties":{"id":"cdo_44087b4d","name":"建明藥局","county":"高雄市","town":"鳳山區","address":"高雄市鳳山區海洋一路122號","phone":"(07)7668550","service_hours":null,"geocode_precision":"cached","outlet_type":"pharmacy_retail","item_note":"平價保險套（藥局販售）","item_confirmed":true,"source_org":"高雄市政府（data.gov.tw 143426 平價保險套藥局）","source_url":"https://data.gov.tw/dataset/143426","license":"政府資料開放授權條款第1版","source_tier":null,"fetched_at":"2026-10-06","vintage":"2025-06-30"}},{"type":"Feature","geometry":{"type":"Point","coordinates":[120.34196,22.608112]},"properties":{"id":"cdo_762f39fa","name":"長喜藥局","county":"高雄市","town":"鳳山區","address":"高雄市鳳山區大明路76號","phone":"(07)7671007","service_hours":null,"geocode_precision":"cached","outlet_type":"pharmacy_retail","item_note":"平價保險套（藥局販售）","item_confirmed":true,"source_org":"高雄市政府（data.gov.tw 143426 平價保險套藥局）","source_url":"https://data.gov.tw/dataset/143426","license":"政府資料開放授權條款第1版","source_tier":null,"fetched_at":"2026-10-06","vintage":"2025-06-30"}},{"type":"Feature","geometry":{"type":"Point","coordinates":[120.361038,22.624812]},"properties":{"id":"cdo_6d2a86d1","name":"菩提大藥局","county":"高雄市","town":"鳳山區","address":"高雄市鳳山區維新路109號","phone":"(07)7903323","service_hours":null,"geocode_precision":"exact","outlet_type":"pharmacy_retail","item_note":"平價保險套（藥局販售）","item_confirmed":true,"source_org":"高雄市政府（data.gov.tw 143426 平價保險套藥局）","source_url":"https://data.gov.tw/dataset/143426","license":"政府資料開放授權條款第1版","source_tier":null,"fetched_at":"2026-10-06","vintage":"2025-06-30"}},{"type":"Feature","geometry":{"type":"Point","coordinates":[120.332253,22.598575]},"properties":{"id":"cdo_9d40ea2f","name":"寶輝藥局","county":"高雄市","town":"鳳山區","address":"高雄市鳳山區南正二路99-1號","phone":"(07)8314925","service_hours":null,"geocode_precision":"cached","outlet_type":"pharmacy_retail","item_note":"平價保險套（藥局販售）","item_confirmed":true,"source_org":"高雄市政府（data.gov.tw 143426 平價保險套藥局）","source_url":"https://data.gov.tw/dataset/143426","license":"政府資料開放授權條款第1版","source_tier":null,"fetched_at":"2026-10-06","vintage":"2025-06-30"}},{"type":"Feature","geometry":{"type":"Point","coordinates":[120.395769,22.512971]},"properties":{"id":"cdo_c322438e","name":"弘寶藥局","county":"高雄市","town":"林園區","address":"高雄市林園區鳳林路二段757-1號","phone":"(07)6433159","service_hours":null,"geocode_precision":"cached","outlet_type":"pharmacy_retail","item_note":"平價保險套（藥局販售）","item_confirmed":true,"source_org":"高雄市政府（data.gov.tw 143426 平價保險套藥局）","source_url":"https://data.gov.tw/dataset/143426","license":"政府資料開放授權條款第1版","source_tier":null,"fetched_at":"2026-10-06","vintage":"2025-06-30"}},{"type":"Feature","geometry":{"type":"Point","coordinates":[120.396425,22.603631]},"properties":{"id":"cdo_13bbb276","name":"福民藥局","county":"高雄市","town":"大寮區","address":"高雄市大寮區鳳林三路408-1號","phone":"(07)7816570","service_hours":null,"geocode_precision":"exact","outlet_type":"pharmacy_retail","item_note":"平價保險套（藥局販售）","item_confirmed":true,"source_org":"高雄市政府（data.gov.tw 143426 平價保險套藥局）","source_url":"https://data.gov.tw/dataset/143426","license":"政府資料開放授權條款第1版","source_tier":null,"fetched_at":"2026-10-06","vintage":"2025-06-30"}},{"type":"Feature","geometry":{"type":"Point","coordinates":[120.42438,22.650717]},"properties":{"id":"cdo_134a7dab","name":"健康大藥局","county":"高雄市","town":"大樹區","address":"高雄市大樹區九大路333號","phone":"(07)6515007","service_hours":null,"geocode_precision":"exact","outlet_type":"pharmacy_retail","item_note":"平價保險套（藥局販售）","item_confirmed":true,"source_org":"高雄市政府（data.gov.tw 143426 平價保險套藥局）","source_url":"https://data.gov.tw/dataset/143426","license":"政府資料開放授權條款第1版","source_tier":null,"fetched_at":"2026-10-06","vintage":"2025-06-30"}},{"type":"Feature","geometry":{"type":"Point","coordinates":[120.350125,22.702309]},"properties":{"id":"cdo_b22344ab","name":"星億藥局","county":"高雄市","town":"仁武區","address":"高雄市仁武區中正路169號","phone":"(07)3712815","service_hours":null,"geocode_precision":"exact","outlet_type":"pharmacy_retail","item_note":"平價保險套（藥局販售）","item_confirmed":true,"source_org":"高雄市政府（data.gov.tw 143426 平價保險套藥局）","source_url":"https://data.gov.tw/dataset/143426","license":"政府資料開放授權條款第1版","source_tier":null,"fetched_at":"2026-10-06","vintage":"2025-06-30"}},{"type":"Feature","geometry":{"type":"Point","coordinates":[120.298672,22.793514]},"properties":{"id":"cdo_a3044a96","name":"天德藥局","county":"高雄市","town":"岡山區","address":"高雄市岡山區中山北路39號","phone":"(07)6230111","service_hours":null,"geocode_precision":"cached","outlet_type":"pharmacy_retail","item_note":"平價保險套（藥局販售）","item_confirmed":true,"source_org":"高雄市政府（data.gov.tw 143426 平價保險套藥局）","source_url":"https://data.gov.tw/dataset/143426","license":"政府資料開放授權條款第1版","source_tier":null,"fetched_at":"2026-10-06","vintage":"2025-06-30"}},{"type":"Feature","geometry":{"type":"Point","coordinates":[120.297836,22.792313]},"properties":{"id":"cdo_4081a377","name":"宗明藥局","county":"高雄市","town":"岡山區","address":"高雄市岡山區民有路31號","phone":"(07)6231391","service_hours":null,"geocode_precision":"interpolated","outlet_type":"pharmacy_retail","item_note":"平價保險套（藥局販售）","item_confirmed":true,"source_org":"高雄市政府（data.gov.tw 143426 平價保險套藥局）","source_url":"https://data.gov.tw/dataset/143426","license":"政府資料開放授權條款第1版","source_tier":null,"fetched_at":"2026-10-06","vintage":"2025-06-30"}},{"type":"Feature","geometry":{"type":"Point","coordinates":[120.361715,22.792787]},"properties":{"id":"cdo_92e1f77c","name":"安康健保藥局","county":"高雄市","town":"燕巢區","address":"高雄市燕巢區中興路8號","phone":"(07)6141103","service_hours":null,"geocode_precision":"cached","outlet_type":"pharmacy_retail","item_note":"平價保險套（藥局販售）","item_confirmed":true,"source_org":"高雄市政府（data.gov.tw 143426 平價保險套藥局）","source_url":"https://data.gov.tw/dataset/143426","license":"政府資料開放授權條款第1版","source_tier":null,"fetched_at":"2026-10-06","vintage":"2025-06-30"}},{"type":"Feature","geometry":{"type":"Point","coordinates":[120.262462,22.855805]},"properties":{"id":"cdo_5329e69c","name":"宗明藥局","county":"高雄市","town":null,"address":"高雄市路竹區中正路114號","phone":"(07)6962345","service_hours":null,"geocode_precision":"interpolated","outlet_type":"pharmacy_retail","item_note":"平價保險套（藥局販售）","item_confirmed":true,"source_org":"高雄市政府（data.gov.tw 143426 平價保險套藥局）","source_url":"https://data.gov.tw/dataset/143426","license":"政府資料開放授權條款第1版","source_tier":null,"fetched_at":"2026-10-06","vintage":"2025-06-30"}},{"type":"Feature","geometry":{"type":"Point","coordinates":[120.258062,22.855238]},"properties":{"id":"cdo_5f96c00c","name":"醫康健保藥局","county":"高雄市","town":null,"address":"高雄市路竹區中和街30號","phone":"(07)6971886","service_hours":null,"geocode_precision":"cached","outlet_type":"pharmacy_retail","item_note":"平價保險套（藥局販售）","item_confirmed":true,"source_org":"高雄市政府（data.gov.tw 143426 平價保險套藥局）","source_url":"https://data.gov.tw/dataset/143426","license":"政府資料開放授權條款第1版","source_tier":null,"fetched_at":"2026-10-06","vintage":"2025-06-30"}},{"type":"Feature","geometry":{"type":"Point","coordinates":[120.268052,22.759282]},"properties":{"id":"cdo_91601caa","name":"順成藥局","county":"高雄市","town":"梓官區","address":"高雄市梓官區城隍巷31號","phone":"(07)6172407","service_hours":null,"geocode_precision":"exact","outlet_type":"pharmacy_retail","item_note":"平價保險套（藥局販售）","item_confirmed":true,"source_org":"高雄市政府（data.gov.tw 143426 平價保險套藥局）","source_url":"https://data.gov.tw/dataset/143426","license":"政府資料開放授權條款第1版","source_tier":null,"fetched_at":"2026-10-06","vintage":"2025-06-30"}},{"type":"Feature","geometry":{"type":"Point","coordinates":[120.256133,22.729697]},"properties":{"id":"cdo_8287dda0","name":"復安堂藥局","county":"高雄市","town":"梓官區","address":"高雄市梓官區港十街23號","phone":"(07)6101752","service_hours":null,"geocode_precision":"exact","outlet_type":"pharmacy_retail","item_note":"平價保險套（藥局販售）","item_confirmed":true,"source_org":"高雄市政府（data.gov.tw 143426 平價保險套藥局）","source_url":"https://data.gov.tw/dataset/143426","license":"政府資料開放授權條款第1版","source_tier":null,"fetched_at":"2026-10-06","vintage":"2025-06-30"}},{"type":"Feature","geometry":{"type":"Point","coordinates":[120.479634,22.886439]},"properties":{"id":"cdo_4598d4e3","name":"賜安藥局","county":"高雄市","town":"旗山區","address":"高雄市旗山區中正路11號","phone":"(07)6612057","service_hours":null,"geocode_precision":"interpolated","outlet_type":"pharmacy_retail","item_note":"平價保險套（藥局販售）","item_confirmed":true,"source_org":"高雄市政府（data.gov.tw 143426 平價保險套藥局）","source_url":"https://data.gov.tw/dataset/143426","license":"政府資料開放授權條款第1版","source_tier":null,"fetched_at":"2026-10-06","vintage":"2025-06-30"}},{"type":"Feature","geometry":{"type":"Point","coordinates":[120.541594,22.901234]},"properties":{"id":"cdo_73e054cf","name":"健民藥局","county":"高雄市","town":"美濃區","address":"高雄市美濃區中正路一段31-1號","phone":"(07)6818321","service_hours":null,"geocode_precision":"cached","outlet_type":"pharmacy_retail","item_note":"平價保險套（藥局販售）","item_confirmed":true,"source_org":"高雄市政府（data.gov.tw 143426 平價保險套藥局）","source_url":"https://data.gov.tw/dataset/143426","license":"政府資料開放授權條款第1版","source_tier":null,"fetched_at":"2026-10-06","vintage":"2025-06-30"}},{"type":"Feature","geometry":{"type":"Point","coordinates":[120.362566,22.66233]},"properties":{"id":"cdo_6944acbf","name":"復元藥局","county":"高雄市","town":"鳥松區","address":"高雄市鳥松區 大仁南路5號","phone":"(07)7356927","service_hours":null,"geocode_precision":"cached","outlet_type":"pharmacy_retail","item_note":"平價保險套（藥局販售）","item_confirmed":true,"source_org":"高雄市政府（data.gov.tw 143426 平價保險套藥局）","source_url":"https://data.gov.tw/dataset/143426","license":"政府資料開放授權條款第1版","source_tier":null,"fetched_at":"2026-10-06","vintage":"2025-06-30"}},{"type":"Feature","geometry":{"type":"Point","coordinates":[120.327244,22.882683]},"properties":{"id":"cdo_f9870688","name":"佑聖健保藥局","county":"高雄市","town":"阿蓮區","address":"高雄市阿蓮區民生路79號","phone":"(07)6321516","service_hours":null,"geocode_precision":"cached","outlet_type":"pharmacy_retail","item_note":"平價保險套（藥局販售）","item_confirmed":true,"source_org":"高雄市政府（data.gov.tw 143426 平價保險套藥局）","source_url":"https://data.gov.tw/dataset/143426","license":"政府資料開放授權條款第1版","source_tier":null,"fetched_at":"2026-10-06","vintage":"2025-06-30"}},{"type":"Feature","geometry":{"type":"Point","coordinates":[120.328406,22.732106]},"properties":{"id":"cdo_a23575dc","name":"高雄市楠梓區衛生所","county":"高雄市","town":"楠梓區","address":"高雄市楠梓區楠梓路202號","phone":"(07)3512110","service_hours":null,"geocode_precision":"exact","outlet_type":"vending_machine","item_note":"保險套自動服務機設置地點","item_confirmed":true,"source_org":"高雄市政府（data.gov.tw 143426 保險套自動服務機）","source_url":"https://data.gov.tw/dataset/143426","license":"政府資料開放授權條款第1版","source_tier":null,"fetched_at":"2026-10-06","vintage":"2025-06-30"}},{"type":"Feature","geometry":{"type":"Point","coordinates":[120.295823,22.690876]},"properties":{"id":"cdo_be0cf88e","name":"高雄市左營區衛生所","county":"高雄市","town":"左營區","address":"高雄市左營區進學路4號","phone":"(07)5817191","service_hours":null,"geocode_precision":"exact","outlet_type":"vending_machine","item_note":"保險套自動服務機設置地點","item_confirmed":true,"source_org":"高雄市政府（data.gov.tw 143426 保險套自動服務機）","source_url":"https://data.gov.tw/dataset/143426","license":"政府資料開放授權條款第1版","source_tier":null,"fetched_at":"2026-10-06","vintage":"2025-06-30"}},{"type":"Feature","geometry":{"type":"Point","coordinates":[120.316318,22.649816]},"properties":{"id":"cdo_8e93b888","name":"高雄市三民區衛生所","county":"高雄市","town":"三民區","address":"高雄市三民區鼎山街660號","phone":"(07)3820492","service_hours":null,"geocode_precision":"exact","outlet_type":"vending_machine","item_note":"保險套自動服務機設置地點","item_confirmed":true,"source_org":"高雄市政府（data.gov.tw 143426 保險套自動服務機）","source_url":"https://data.gov.tw/dataset/143426","license":"政府資料開放授權條款第1版","source_tier":null,"fetched_at":"2026-10-06","vintage":"2025-06-30"}},{"type":"Feature","geometry":{"type":"Point","coordinates":[120.303286,22.637219]},"properties":{"id":"cdo_1459faf1","name":"Hi man SPA館","county":"高雄市","town":"三民區","address":"高雄市三民區南華路228號3樓","phone":"(07)2361069","service_hours":null,"geocode_precision":"cached","outlet_type":"vending_machine","item_note":"保險套自動服務機設置地點","item_confirmed":true,"source_org":"高雄市政府（data.gov.tw 143426 保險套自動服務機）","source_url":"https://data.gov.tw/dataset/143426","license":"政府資料開放授權條款第1版","source_tier":null,"fetched_at":"2026-10-06","vintage":"2025-06-30"}},{"type":"Feature","geometry":{"type":"Point","coordinates":[120.273971,22.623571]},"properties":{"id":"cdo_1a3fdfae","name":"高雄市鼓山區衛生所","county":"高雄市","town":"鼓山區","address":"高雄市鼓山區登山街16號","phone":"(07)5315753","service_hours":null,"geocode_precision":"exact","outlet_type":"vending_machine","item_note":"保險套自動服務機設置地點","item_confirmed":true,"source_org":"高雄市政府（data.gov.tw 143426 保險套自動服務機）","source_url":"https://data.gov.tw/dataset/143426","license":"政府資料開放授權條款第1版","source_tier":null,"fetched_at":"2026-10-06","vintage":"2025-06-30"}},{"type":"Feature","geometry":{"type":"Point","coordinates":[120.284187,22.63039]},"properties":{"id":"cdo_af61c80c","name":"銀河三溫暖","county":"高雄市","town":"鹽埕區","address":"高雄市鹽埕區七賢三路253號","phone":"(07)5325366","service_hours":null,"geocode_precision":"exact","outlet_type":"vending_machine","item_note":"保險套自動服務機設置地點","item_confirmed":true,"source_org":"高雄市政府（data.gov.tw 143426 保險套自動服務機）","source_url":"https://data.gov.tw/dataset/143426","license":"政府資料開放授權條款第1版","source_tier":null,"fetched_at":"2026-10-06","vintage":"2025-06-30"}},{"type":"Feature","geometry":{"type":"Point","coordinates":[120.294121,22.632448]},"properties":{"id":"cdo_7a37b759","name":"雷特複合式餐廳","county":"高雄市","town":"鹽埕區","address":"高雄市鹽埕區七賢二路201-1號","phone":"(07)2615010","service_hours":null,"geocode_precision":"exact","outlet_type":"vending_machine","item_note":"保險套自動服務機設置地點","item_confirmed":true,"source_org":"高雄市政府（data.gov.tw 143426 保險套自動服務機）","source_url":"https://data.gov.tw/dataset/143426","license":"政府資料開放授權條款第1版","source_tier":null,"fetched_at":"2026-10-06","vintage":"2025-06-30"}},{"type":"Feature","geometry":{"type":"Point","coordinates":[120.318135,22.63172]},"properties":{"id":"cdo_e95061bc","name":"夢想家咖啡館","county":"高雄市","town":"苓雅區","address":"高雄市苓雅區中正二路56巷33弄15號","phone":"(07)2268509","service_hours":null,"geocode_precision":"cached","outlet_type":"vending_machine","item_note":"保險套自動服務機設置地點","item_confirmed":true,"source_org":"高雄市政府（data.gov.tw 143426 保險套自動服務機）","source_url":"https://data.gov.tw/dataset/143426","license":"政府資料開放授權條款第1版","source_tier":null,"fetched_at":"2026-10-06","vintage":"2025-06-30"}},{"type":"Feature","geometry":{"type":"Point","coordinates":[120.318393,22.586618]},"properties":{"id":"cdo_5b6b1595","name":"高雄市前鎮區衛生所","county":"高雄市","town":"前鎮","address":"高雄市前鎮區康定路149號","phone":"(07)8414687","service_hours":null,"geocode_precision":"interpolated","outlet_type":"vending_machine","item_note":"保險套自動服務機設置地點","item_confirmed":true,"source_org":"高雄市政府（data.gov.tw 143426 保險套自動服務機）","source_url":"https://data.gov.tw/dataset/143426","license":"政府資料開放授權條款第1版","source_tier":null,"fetched_at":"2026-10-06","vintage":"2025-06-30"}},{"type":"Feature","geometry":{"type":"Point","coordinates":[120.336869,22.563211]},"properties":{"id":"cdo_f35a9164","name":"高雄市小港區衛生所","county":"高雄市","town":"小港區","address":"高雄市小港區小港二路10號","phone":"(07)8218802","service_hours":null,"geocode_precision":"google_place","outlet_type":"vending_machine","item_note":"保險套自動服務機設置地點","item_confirmed":true,"source_org":"高雄市政府（data.gov.tw 143426 保險套自動服務機）","source_url":"https://data.gov.tw/dataset/143426","license":"政府資料開放授權條款第1版","source_tier":null,"fetched_at":"2026-10-06","vintage":"2025-06-30"}},{"type":"Feature","geometry":{"type":"Point","coordinates":[120.284549,22.590402]},"properties":{"id":"cdo_d9d3d52f","name":"高雄市旗津區衛生所","county":"高雄市","town":"旗津區","address":"高雄市旗津區旗津三路2號","phone":"(07)5712820","service_hours":null,"geocode_precision":"cached","outlet_type":"vending_machine","item_note":"保險套自動服務機設置地點","item_confirmed":true,"source_org":"高雄市政府（data.gov.tw 143426 保險套自動服務機）","source_url":"https://data.gov.tw/dataset/143426","license":"政府資料開放授權條款第1版","source_tier":null,"fetched_at":"2026-10-06","vintage":"2025-06-30"}},{"type":"Feature","geometry":{"type":"Point","coordinates":[120.363023,22.627214]},"properties":{"id":"cdo_edae8edd","name":"高雄市鳳山區衛生所","county":"高雄市","town":"鳳山區","address":"高雄市鳳山區經武路 34 巷 2 號","phone":"(07)7430437","service_hours":null,"geocode_precision":"exact","outlet_type":"vending_machine","item_note":"保險套自動服務機設置地點","item_confirmed":true,"source_org":"高雄市政府（data.gov.tw 143426 保險套自動服務機）","source_url":"https://data.gov.tw/dataset/143426","license":"政府資料開放授權條款第1版","source_tier":null,"fetched_at":"2026-10-06","vintage":"2025-06-30"}},{"type":"Feature","geometry":{"type":"Point","coordinates":[120.395238,22.507665]},"properties":{"id":"cdo_b478dd71","name":"高雄市林園區衛生所","county":"高雄市","town":"林園區","address":"高雄市林園區林園北路186號","phone":"(07)6412404","service_hours":null,"geocode_precision":"cached","outlet_type":"vending_machine","item_note":"保險套自動服務機設置地點","item_confirmed":true,"source_org":"高雄市政府（data.gov.tw 143426 保險套自動服務機）","source_url":"https://data.gov.tw/dataset/143426","license":"政府資料開放授權條款第1版","source_tier":null,"fetched_at":"2026-10-06","vintage":"2025-06-30"}},{"type":"Feature","geometry":{"type":"Point","coordinates":[120.393595,22.604532]},"properties":{"id":"cdo_0905fd7f","name":"高雄市大寮區衛生所","county":"高雄市","town":"大寮區","address":"高雄市大寮區進學路129巷2號之1","phone":"(07)7811965","service_hours":null,"geocode_precision":"interpolated","outlet_type":"vending_machine","item_note":"保險套自動服務機設置地點","item_confirmed":true,"source_org":"高雄市政府（data.gov.tw 143426 保險套自動服務機）","source_url":"https://data.gov.tw/dataset/143426","license":"政府資料開放授權條款第1版","source_tier":null,"fetched_at":"2026-10-06","vintage":"2025-06-30"}},{"type":"Feature","geometry":{"type":"Point","coordinates":[120.43306,22.693312]},"properties":{"id":"cdo_423c746e","name":"高雄市大樹區衛生所","county":"高雄市","town":"大樹區","address":"高雄市大樹區中興北路120號","phone":"(07)6512935","service_hours":null,"geocode_precision":"cached","outlet_type":"vending_machine","item_note":"保險套自動服務機設置地點","item_confirmed":true,"source_org":"高雄市政府（data.gov.tw 143426 保險套自動服務機）","source_url":"https://data.gov.tw/dataset/143426","license":"政府資料開放授權條款第1版","source_tier":null,"fetched_at":"2026-10-06","vintage":"2025-06-30"}},{"type":"Feature","geometry":{"type":"Point","coordinates":[120.351568,22.700798]},"properties":{"id":"cdo_7959a3e5","name":"高雄市仁武區衛生所","county":"高雄市","town":"仁武區","address":"高雄市仁武區地政街 23號","phone":"(07)3711434","service_hours":null,"geocode_precision":"exact","outlet_type":"vending_machine","item_note":"保險套自動服務機設置地點","item_confirmed":true,"source_org":"高雄市政府（data.gov.tw 143426 保險套自動服務機）","source_url":"https://data.gov.tw/dataset/143426","license":"政府資料開放授權條款第1版","source_tier":null,"fetched_at":"2026-10-06","vintage":"2025-06-30"}},{"type":"Feature","geometry":{"type":"Point","coordinates":[120.346833,22.731046]},"properties":{"id":"cdo_efb9c104","name":"高雄市大社區衛生所","county":"高雄市","town":"大社區","address":"高雄市大社區自強街7 號","phone":"(07)3511774","service_hours":null,"geocode_precision":"exact","outlet_type":"vending_machine","item_note":"保險套自動服務機設置地點","item_confirmed":true,"source_org":"高雄市政府（data.gov.tw 143426 保險套自動服務機）","source_url":"https://data.gov.tw/dataset/143426","license":"政府資料開放授權條款第1版","source_tier":null,"fetched_at":"2026-10-06","vintage":"2025-06-30"}},{"type":"Feature","geometry":{"type":"Point","coordinates":[120.362628,22.663135]},"properties":{"id":"cdo_f0a1745c","name":"高雄市鳥松區衛生所","county":"高雄市","town":"鳥松區","address":"高雄市鳥松區文前路文北巷1弄4號","phone":"(07)7316404","service_hours":null,"geocode_precision":"exact","outlet_type":"vending_machine","item_note":"保險套自動服務機設置地點","item_confirmed":true,"source_org":"高雄市政府（data.gov.tw 143426 保險套自動服務機）","source_url":"https://data.gov.tw/dataset/143426","license":"政府資料開放授權條款第1版","source_tier":null,"fetched_at":"2026-10-06","vintage":"2025-06-30"}},{"type":"Feature","geometry":{"type":"Point","coordinates":[120.291073,22.796115]},"properties":{"id":"cdo_da538af4","name":"高雄市岡山區衛生所","county":"高雄市","town":"岡山區","address":"高雄市岡山區公園路50號","phone":"(07)6212015","service_hours":null,"geocode_precision":"exact","outlet_type":"vending_machine","item_note":"保險套自動服務機設置地點","item_confirmed":true,"source_org":"高雄市政府（data.gov.tw 143426 保險套自動服務機）","source_url":"https://data.gov.tw/dataset/143426","license":"政府資料開放授權條款第1版","source_tier":null,"fetched_at":"2026-10-06","vintage":"2025-06-30"}},{"type":"Feature","geometry":{"type":"Point","coordinates":[120.305736,22.757573]},"properties":{"id":"cdo_820154ac","name":"竹林公園","county":"高雄市","town":"橋頭區","address":"高雄市橋頭區隆豐路1號","phone":"(07)6120762","service_hours":null,"geocode_precision":"cached","outlet_type":"vending_machine","item_note":"保險套自動服務機設置地點","item_confirmed":true,"source_org":"高雄市政府（data.gov.tw 143426 保險套自動服務機）","source_url":"https://data.gov.tw/dataset/143426","license":"政府資料開放授權條款第1版","source_tier":null,"fetched_at":"2026-10-06","vintage":"2025-06-30"}},{"type":"Feature","geometry":{"type":"Point","coordinates":[120.361659,22.79303]},"properties":{"id":"cdo_97876e74","name":"高雄市燕巢區衛生所","county":"高雄市","town":"燕巢區","address":"高雄市燕巢區南燕里中興路2號","phone":"(07)6161148","service_hours":null,"geocode_precision":"cached","outlet_type":"vending_machine","item_note":"保險套自動服務機設置地點","item_confirmed":true,"source_org":"高雄市政府（data.gov.tw 143426 保險套自動服務機）","source_url":"https://data.gov.tw/dataset/143426","license":"政府資料開放授權條款第1版","source_tier":null,"fetched_at":"2026-10-06","vintage":"2025-06-30"}},{"type":"Feature","geometry":{"type":"Point","coordinates":[120.359378,22.873012]},"properties":{"id":"cdo_2ba2739d","name":"高雄市田寮區衛生所","county":"高雄市","town":"田寮區","address":"高雄市田寮區南安里崗北路32號","phone":"(07)6361504","service_hours":null,"geocode_precision":"cached","outlet_type":"vending_machine","item_note":"保險套自動服務機設置地點","item_confirmed":true,"source_org":"高雄市政府（data.gov.tw 143426 保險套自動服務機）","source_url":"https://data.gov.tw/dataset/143426","license":"政府資料開放授權條款第1版","source_tier":null,"fetched_at":"2026-10-06","vintage":"2025-06-30"}},{"type":"Feature","geometry":{"type":"Point","coordinates":[120.258937,22.855301]},"properties":{"id":"cdo_73345f76","name":"高雄市路竹區衛生所","county":"高雄市","town":null,"address":"高雄市路竹區國昌路86巷22號","phone":"(07)6962449","service_hours":null,"geocode_precision":"cached","outlet_type":"vending_machine","item_note":"保險套自動服務機設置地點","item_confirmed":true,"source_org":"高雄市政府（data.gov.tw 143426 保險套自動服務機）","source_url":"https://data.gov.tw/dataset/143426","license":"政府資料開放授權條款第1版","source_tier":null,"fetched_at":"2026-10-06","vintage":"2025-06-30"}},{"type":"Feature","geometry":{"type":"Point","coordinates":[120.222385,22.905245]},"properties":{"id":"cdo_d8dc954d","name":"高雄市湖內區衛生所","county":"高雄市","town":"湖內區","address":"高雄市湖內區湖中路203號","phone":"(07)6993009","service_hours":null,"geocode_precision":"cached","outlet_type":"vending_machine","item_note":"保險套自動服務機設置地點","item_confirmed":true,"source_org":"高雄市政府（data.gov.tw 143426 保險套自動服務機）","source_url":"https://data.gov.tw/dataset/143426","license":"政府資料開放授權條款第1版","source_tier":null,"fetched_at":"2026-10-06","vintage":"2025-06-30"}},{"type":"Feature","geometry":{"type":"Point","coordinates":[120.185222,22.888011]},"properties":{"id":"cdo_0feb85a9","name":"高雄市茄萣區衛生所","county":"高雄市","town":"茄萣區","address":"高雄市茄萣區濱海路二段1號","phone":"(07)6988850","service_hours":null,"geocode_precision":"cached","outlet_type":"vending_machine","item_note":"保險套自動服務機設置地點","item_confirmed":true,"source_org":"高雄市政府（data.gov.tw 143426 保險套自動服務機）","source_url":"https://data.gov.tw/dataset/143426","license":"政府資料開放授權條款第1版","source_tier":null,"fetched_at":"2026-10-06","vintage":"2025-06-30"}},{"type":"Feature","geometry":{"type":"Point","coordinates":[120.209616,22.821614]},"properties":{"id":"cdo_6a358a22","name":"新港社區活動中心","county":"高雄市","town":"永安區","address":"高雄市永安區新興路128號","phone":"(07)6912015","service_hours":null,"geocode_precision":"cached","outlet_type":"vending_machine","item_note":"保險套自動服務機設置地點","item_confirmed":true,"source_org":"高雄市政府（data.gov.tw 143426 保險套自動服務機）","source_url":"https://data.gov.tw/dataset/143426","license":"政府資料開放授權條款第1版","source_tier":null,"fetched_at":"2026-10-06","vintage":"2025-06-30"}},{"type":"Feature","geometry":{"type":"Point","coordinates":[120.250575,22.782146]},"properties":{"id":"cdo_c05c66cc","name":"高雄市彌陀區衛生所","county":"高雄市","town":"彌陀區","address":"高雄市彌陀區中華路1巷5弄1號","phone":"(07)6175307","service_hours":null,"geocode_precision":"cached","outlet_type":"vending_machine","item_note":"保險套自動服務機設置地點","item_confirmed":true,"source_org":"高雄市政府（data.gov.tw 143426 保險套自動服務機）","source_url":"https://data.gov.tw/dataset/143426","license":"政府資料開放授權條款第1版","source_tier":null,"fetched_at":"2026-10-06","vintage":"2025-06-30"}},{"type":"Feature","geometry":{"type":"Point","coordinates":[120.479888,22.889792]},"properties":{"id":"cdo_0868437e","name":"高雄市旗山區衛生所","county":"高雄市","town":"旗山區","address":"高雄市旗山區中正路197號","phone":"(07)6612054","service_hours":null,"geocode_precision":"cached","outlet_type":"vending_machine","item_note":"保險套自動服務機設置地點","item_confirmed":true,"source_org":"高雄市政府（data.gov.tw 143426 保險套自動服務機）","source_url":"https://data.gov.tw/dataset/143426","license":"政府資料開放授權條款第1版","source_tier":null,"fetched_at":"2026-10-06","vintage":"2025-06-30"}},{"type":"Feature","geometry":{"type":"Point","coordinates":[120.541286,22.895215]},"properties":{"id":"cdo_cedd9fd1","name":"高雄市美濃區衛生所","county":"高雄市","town":"美濃區","address":"高雄市美濃區合和里美中路246號","phone":"(07)6812064","service_hours":null,"geocode_precision":"cached","outlet_type":"vending_machine","item_note":"保險套自動服務機設置地點","item_confirmed":true,"source_org":"高雄市政府（data.gov.tw 143426 保險套自動服務機）","source_url":"https://data.gov.tw/dataset/143426","license":"政府資料開放授權條款第1版","source_tier":null,"fetched_at":"2026-10-06","vintage":"2025-06-30"}},{"type":"Feature","geometry":{"type":"Point","coordinates":[120.633315,22.998337]},"properties":{"id":"cdo_db7c4ae1","name":"高雄市六龜區衛生所","county":"高雄市","town":"六龜區","address":"高雄市六龜區六龜里民治路16號","phone":"(07)6891244","service_hours":null,"geocode_precision":"cached","outlet_type":"vending_machine","item_note":"保險套自動服務機設置地點","item_confirmed":true,"source_org":"高雄市政府（data.gov.tw 143426 保險套自動服務機）","source_url":"https://data.gov.tw/dataset/143426","license":"政府資料開放授權條款第1版","source_tier":null,"fetched_at":"2026-10-06","vintage":"2025-06-30"}},{"type":"Feature","geometry":{"type":"Point","coordinates":[120.453989,22.924516]},"properties":{"id":"cdo_33dd77c8","name":"高雄市內門區衛生所","county":"高雄市","town":"內門區","address":"高雄市內門區觀亭里中埔頭20號","phone":"(07)6671088","service_hours":null,"geocode_precision":"cached","outlet_type":"vending_machine","item_note":"保險套自動服務機設置地點","item_confirmed":true,"source_org":"高雄市政府（data.gov.tw 143426 保險套自動服務機）","source_url":"https://data.gov.tw/dataset/143426","license":"政府資料開放授權條款第1版","source_tier":null,"fetched_at":"2026-10-06","vintage":"2025-06-30"}},{"type":"Feature","geometry":{"type":"Point","coordinates":[120.538613,22.976933]},"properties":{"id":"cdo_8abec082","name":"高雄市杉林區衛生所","county":"高雄市","town":"杉林區","address":"高雄市杉林區上平里山仙路93巷2號","phone":"(07)6771319","service_hours":null,"geocode_precision":"cached","outlet_type":"vending_machine","item_note":"保險套自動服務機設置地點","item_confirmed":true,"source_org":"高雄市政府（data.gov.tw 143426 保險套自動服務機）","source_url":"https://data.gov.tw/dataset/143426","license":"政府資料開放授權條款第1版","source_tier":null,"fetched_at":"2026-10-06","vintage":"2025-06-30"}},{"type":"Feature","geometry":{"type":"Point","coordinates":[120.587454,23.083935]},"properties":{"id":"cdo_28a1d1e9","name":"高雄市甲仙區衛生所","county":"高雄市","town":"甲仙區","address":"高雄市甲仙區中山路52號","phone":"(07)6751029","service_hours":null,"geocode_precision":"cached","outlet_type":"vending_machine","item_note":"保險套自動服務機設置地點","item_confirmed":true,"source_org":"高雄市政府（data.gov.tw 143426 保險套自動服務機）","source_url":"https://data.gov.tw/dataset/143426","license":"政府資料開放授權條款第1版","source_tier":null,"fetched_at":"2026-10-06","vintage":"2025-06-30"}},{"type":"Feature","geometry":{"type":"Point","coordinates":[120.764176,23.158454]},"properties":{"id":"cdo_4878680b","name":"高雄市桃源區衛生所","county":"高雄市","town":"桃源區","address":"高雄市桃源區桃源里南進巷188-1號","phone":"(07)6861126","service_hours":null,"geocode_precision":"cached","outlet_type":"vending_machine","item_note":"保險套自動服務機設置地點","item_confirmed":true,"source_org":"高雄市政府（data.gov.tw 143426 保險套自動服務機）","source_url":"https://data.gov.tw/dataset/143426","license":"政府資料開放授權條款第1版","source_tier":null,"fetched_at":"2026-10-06","vintage":"2025-06-30"}},{"type":"Feature","geometry":{"type":"Point","coordinates":[120.664078,22.886413]},"properties":{"id":"cdo_456ec86b","name":"高雄市茂林區衛生所","county":"高雄市","town":"茂林區","address":"高雄市茂林區茂林里8-4號","phone":"(07)6801046","service_hours":null,"geocode_precision":"google_place","outlet_type":"vending_machine","item_note":"保險套自動服務機設置地點","item_confirmed":true,"source_org":"高雄市政府（data.gov.tw 143426 保險套自動服務機）","source_url":"https://data.gov.tw/dataset/143426","license":"政府資料開放授權條款第1版","source_tier":null,"fetched_at":"2026-10-06","vintage":"2025-06-30"}},{"type":"Feature","geometry":{"type":"Point","coordinates":[120.94038,24.77784]},"properties":{"id":"cdo_3c8164cb","name":"元培醫事科技大學","county":"新竹市","town":null,"address":"新竹市元培街306號","phone":"(03)5381183","service_hours":null,"geocode_precision":"cached","outlet_type":"vending_machine","item_note":"衛生套販賣機 10元","item_confirmed":true,"source_org":"新竹市政府（data.gov.tw 67649）","source_url":"https://data.gov.tw/dataset/67649","license":"政府資料開放授權條款第1版","source_tier":null,"fetched_at":"2026-10-06","vintage":"2025-11-21"}},{"type":"Feature","geometry":{"type":"Point","coordinates":[120.951232,24.797146]},"properties":{"id":"cdo_ba11504a","name":"香山游泳池","county":"新竹市","town":null,"address":"新竹市頂埔路21號","phone":"(03)5301585","service_hours":null,"geocode_precision":"interpolated","outlet_type":"vending_machine","item_note":"衛生套販賣機 10元","item_confirmed":true,"source_org":"新竹市政府（data.gov.tw 67649）","source_url":"https://data.gov.tw/dataset/67649","license":"政府資料開放授權條款第1版","source_tier":null,"fetched_at":"2026-10-06","vintage":"2025-11-21"}},{"type":"Feature","geometry":{"type":"Point","coordinates":[120.996864,24.796398]},"properties":{"id":"cdo_89cf5756","name":"清華大學","county":"新竹市","town":null,"address":"新竹市光復路二段101號","phone":"(03)5731051","service_hours":null,"geocode_precision":"cached","outlet_type":"vending_machine","item_note":"衛生套販賣機 10元","item_confirmed":true,"source_org":"新竹市政府（data.gov.tw 67649）","source_url":"https://data.gov.tw/dataset/67649","license":"政府資料開放授權條款第1版","source_tier":null,"fetched_at":"2026-10-06","vintage":"2025-11-21"}},{"type":"Feature","geometry":{"type":"Point","coordinates":[120.952318,24.757337]},"properties":{"id":"cdo_f4e73dd8","name":"中華大學","county":"新竹市","town":"香山區","address":"新竹市香山區五福路二段707號","phone":"(03)5374281","service_hours":null,"geocode_precision":"cached","outlet_type":"vending_machine","item_note":"衛生套販賣機 10元","item_confirmed":true,"source_org":"新竹市政府（data.gov.tw 67649）","source_url":"https://data.gov.tw/dataset/67649","license":"政府資料開放授權條款第1版","source_tier":null,"fetched_at":"2026-10-06","vintage":"2025-11-21"}},{"type":"Feature","geometry":{"type":"Point","coordinates":[120.999493,24.789143]},"properties":{"id":"cdo_fe670df0","name":"陽明交通大學","county":"新竹市","town":null,"address":"新竹市大學路1001號","phone":"(03)5712121","service_hours":null,"geocode_precision":"cached","outlet_type":"vending_machine","item_note":"衛生套販賣機 10元","item_confirmed":true,"source_org":"新竹市政府（data.gov.tw 67649）","source_url":"https://data.gov.tw/dataset/67649","license":"政府資料開放授權條款第1版","source_tier":null,"fetched_at":"2026-10-06","vintage":"2025-11-21"}},{"type":"Feature","geometry":{"type":"Point","coordinates":[120.559162,22.598974]},"properties":{"id":"cdo_99264973","name":"社團法人臺灣世界快樂聯盟(針具販賣機)","county":"屏東縣","town":"內埔鄉","address":"屏東縣內埔鄉美和村學人路257號","phone":null,"service_hours":null,"geocode_precision":"interpolated","outlet_type":"vending_machine","item_note":"資料集名稱為保險套販賣機設置地點；列名標示針具販賣機","item_confirmed":false,"source_org":"屏東縣政府（data.gov.tw 90622）","source_url":"https://data.gov.tw/dataset/90622","license":"政府資料開放授權條款第1版","source_tier":null,"fetched_at":"2026-10-06","vintage":"2023-08-31"}},{"type":"Feature","geometry":{"type":"Point","coordinates":[120.562173,22.599676]},"properties":{"id":"cdo_1b464bba","name":"臺灣關愛之家協會","county":"屏東縣","town":"內埔鄉","address":"屏東縣內埔鄉美和村學人路250巷39號","phone":null,"service_hours":null,"geocode_precision":"interpolated","outlet_type":"vending_machine","item_note":"資料集名稱為保險套販賣機設置地點；列名未標示販售品項","item_confirmed":false,"source_org":"屏東縣政府（data.gov.tw 90622）","source_url":"https://data.gov.tw/dataset/90622","license":"政府資料開放授權條款第1版","source_tier":null,"fetched_at":"2026-10-06","vintage":"2023-08-31"}}]}