{"type":"FeatureCollection","features":[{"type":"Feature","geometry":{"type":"Point","coordinates":[121.504991,25.044118]},"properties":{"id":"dpc_f0aee5fd","name":"臺北市政府毒品防制中心","county":"臺北市","town":"萬華區","address":"臺北市萬華區昆明街100號4樓","phone":"02-23754068","service_hours":null,"geocode_precision":"cached","source_org":"法務部（data.gov.tw 13717 毒品危害防制中心）","source_url":"https://data.gov.tw/dataset/13717","license":"政府資料開放授權條款第1版","source_tier":1,"fetched_at":"2026-10-06","vintage":"2024-02-01"}},{"type":"Feature","geometry":{"type":"Point","coordinates":[121.45814,25.023377]},"properties":{"id":"dpc_3939d55d","name":"新北市政府毒品防制中心","county":"新北市","town":"板橋區","address":"新北市板橋區英士路192-1號","phone":"02-22570380","service_hours":null,"geocode_precision":"cached","source_org":"法務部（data.gov.tw 13717 毒品危害防制中心）","source_url":"https://data.gov.tw/dataset/13717","license":"政府資料開放授權條款第1版","source_tier":1,"fetched_at":"2026-10-06","vintage":"2024-02-01"}},{"type":"Feature","geometry":{"type":"Point","coordinates":[121.288074,25.007819]},"properties":{"id":"dpc_8373d715","name":"桃園市政府毒品防制中心","county":"桃園市","town":"桃園區","address":"桃園市桃園區崇法街12號","phone":"03-4631495","service_hours":null,"geocode_precision":"interpolated","source_org":"法務部（data.gov.tw 13717 毒品危害防制中心）","source_url":"https://data.gov.tw/dataset/13717","license":"政府資料開放授權條款第1版","source_tier":1,"fetched_at":"2026-10-06","vintage":"2024-02-01"}},{"type":"Feature","geometry":{"type":"Point","coordinates":[120.976231,24.80967]},"properties":{"id":"dpc_b300a470","name":"新竹市政府毒品防制中心","county":"新竹市","town":null,"address":"新竹市中央路241號10樓","phone":"03-5355191","service_hours":null,"geocode_precision":"cached","source_org":"法務部（data.gov.tw 13717 毒品危害防制中心）","source_url":"https://data.gov.tw/dataset/13717","license":"政府資料開放授權條款第1版","source_tier":1,"fetched_at":"2026-10-06","vintage":"2024-02-01"}},{"type":"Feature","geometry":{"type":"Point","coordinates":[121.015381,24.82608]},"properties":{"id":"dpc_0f0c991a","name":"新竹縣政府毒品防制中心","county":"新竹縣","town":"竹北市","address":"新竹縣竹北市光明七街1號","phone":"03-5536336","service_hours":null,"geocode_precision":"cached","source_org":"法務部（data.gov.tw 13717 毒品危害防制中心）","source_url":"https://data.gov.tw/dataset/13717","license":"政府資料開放授權條款第1版","source_tier":1,"fetched_at":"2026-10-06","vintage":"2024-02-01"}},{"type":"Feature","geometry":{"type":"Point","coordinates":[120.789239,24.611598]},"properties":{"id":"dpc_aa409852","name":"苗栗縣政府毒品防制中心","county":"苗栗縣","town":"後龍鎮","address":"苗栗縣後龍鎮大庄里21鄰光華路371號","phone":"037-558220","service_hours":null,"geocode_precision":"exact","source_org":"法務部（data.gov.tw 13717 毒品危害防制中心）","source_url":"https://data.gov.tw/dataset/13717","license":"政府資料開放授權條款第1版","source_tier":1,"fetched_at":"2026-10-06","vintage":"2024-02-01"}},{"type":"Feature","geometry":{"type":"Point","coordinates":[120.71402,24.248292]},"properties":{"id":"dpc_b45a1fa8","name":"臺中市政府毒品防制中心","county":"臺中市","town":"豐原區","address":"臺中市豐原區中興路136號","phone":"04-25290505","service_hours":null,"geocode_precision":"cached","source_org":"法務部（data.gov.tw 13717 毒品危害防制中心）","source_url":"https://data.gov.tw/dataset/13717","license":"政府資料開放授權條款第1版","source_tier":1,"fetched_at":"2026-10-06","vintage":"2024-02-01"}},{"type":"Feature","geometry":{"type":"Point","coordinates":[120.688534,23.902461]},"properties":{"id":"dpc_9d5f843a","name":"南投縣政府毒品防制中心","county":"南投縣","town":"南投市","address":"南投縣南投市復興路6號","phone":"049-2205838","service_hours":null,"geocode_precision":"cached","source_org":"法務部（data.gov.tw 13717 毒品危害防制中心）","source_url":"https://data.gov.tw/dataset/13717","license":"政府資料開放授權條款第1版","source_tier":1,"fetched_at":"2026-10-06","vintage":"2024-02-01"}},{"type":"Feature","geometry":{"type":"Point","coordinates":[120.54163,24.069096]},"properties":{"id":"dpc_8e49c6b2","name":"彰化縣政府毒品防制中心","county":"彰化縣","town":"彰化市","address":"彰化縣彰化市中山路2段162號","phone":"04-7116710","service_hours":null,"geocode_precision":"exact","source_org":"法務部（data.gov.tw 13717 毒品危害防制中心）","source_url":"https://data.gov.tw/dataset/13717","license":"政府資料開放授權條款第1版","source_tier":1,"fetched_at":"2026-10-06","vintage":"2024-02-01"}},{"type":"Feature","geometry":{"type":"Point","coordinates":[120.527515,23.697811]},"properties":{"id":"dpc_846c1d13","name":"雲林縣政府毒品防制中心","county":"雲林縣","town":"斗六市","address":"雲林縣斗六市府文路34號","phone":"05-5375896","service_hours":null,"geocode_precision":"cached","source_org":"法務部（data.gov.tw 13717 毒品危害防制中心）","source_url":"https://data.gov.tw/dataset/13717","license":"政府資料開放授權條款第1版","source_tier":1,"fetched_at":"2026-10-06","vintage":"2024-02-01"}},{"type":"Feature","geometry":{"type":"Point","coordinates":[120.464586,23.470841]},"properties":{"id":"dpc_66b6eda1","name":"嘉義市政府毒品防制中心","county":"嘉義市","town":"東區","address":"嘉義市東區彌陀路255號","phone":"05-2810995","service_hours":null,"geocode_precision":"interpolated","source_org":"法務部（data.gov.tw 13717 毒品危害防制中心）","source_url":"https://data.gov.tw/dataset/13717","license":"政府資料開放授權條款第1版","source_tier":1,"fetched_at":"2026-10-06","vintage":"2024-02-01"}},{"type":"Feature","geometry":{"type":"Point","coordinates":[120.292894,23.457536]},"properties":{"id":"dpc_71825d9a","name":"嘉義縣政府毒品防制中心","county":"嘉義縣","town":"太保市","address":"嘉義縣太保市祥和二路東段3號","phone":"05-3625680","service_hours":null,"geocode_precision":"exact","source_org":"法務部（data.gov.tw 13717 毒品危害防制中心）","source_url":"https://data.gov.tw/dataset/13717","license":"政府資料開放授權條款第1版","source_tier":1,"fetched_at":"2026-10-06","vintage":"2024-02-01"}},{"type":"Feature","geometry":{"type":"Point","coordinates":[120.222043,22.985012]},"properties":{"id":"dpc_190f526b","name":"臺南市政府毒品防制中心(林森辦公室)","county":"臺南市","town":"東區","address":"臺南市東區林森路一段418號","phone":"06-2909595","service_hours":null,"geocode_precision":"cached","source_org":"法務部（data.gov.tw 13717 毒品危害防制中心）","source_url":"https://data.gov.tw/dataset/13717","license":"政府資料開放授權條款第1版","source_tier":1,"fetched_at":"2026-10-06","vintage":"2024-02-01"}},{"type":"Feature","geometry":{"type":"Point","coordinates":[120.322853,23.31541]},"properties":{"id":"dpc_9c01d5b4","name":"臺南市政府毒品防制中心(東興辦公室)","county":"臺南市","town":"新營區","address":"臺南市新營區東興路163號","phone":"06-6372250","service_hours":null,"geocode_precision":"cached","source_org":"法務部（data.gov.tw 13717 毒品危害防制中心）","source_url":"https://data.gov.tw/dataset/13717","license":"政府資料開放授權條款第1版","source_tier":1,"fetched_at":"2026-10-06","vintage":"2024-02-01"}},{"type":"Feature","geometry":{"type":"Point","coordinates":[120.292627,22.627624]},"properties":{"id":"dpc_c2b9c23a","name":"高雄市政府毒品防制中心","county":"高雄市","town":"前金區","address":"高雄市前金區成功一路420號4樓","phone":"07-7134000","service_hours":null,"geocode_precision":"cached","source_org":"法務部（data.gov.tw 13717 毒品危害防制中心）","source_url":"https://data.gov.tw/dataset/13717","license":"政府資料開放授權條款第1版","source_tier":1,"fetched_at":"2026-10-06","vintage":"2024-02-01"}},{"type":"Feature","geometry":{"type":"Point","coordinates":[120.496408,22.675188]},"properties":{"id":"dpc_62d0dba2","name":"屏東縣政府毒品防制中心","county":"屏東縣","town":"屏東市","address":"屏東縣屏東市自由路272號","phone":"08-7351595","service_hours":null,"geocode_precision":"exact","source_org":"法務部（data.gov.tw 13717 毒品危害防制中心）","source_url":"https://data.gov.tw/dataset/13717","license":"政府資料開放授權條款第1版","source_tier":1,"fetched_at":"2026-10-06","vintage":"2024-02-01"}},{"type":"Feature","geometry":{"type":"Point","coordinates":[121.148769,22.757584]},"properties":{"id":"dpc_302ff5ee","name":"臺東縣政府毒品防制中心","county":"臺東縣","town":"臺東市","address":"臺東縣臺東市博愛路336號","phone":"089-325995","service_hours":null,"geocode_precision":"cached","source_org":"法務部（data.gov.tw 13717 毒品危害防制中心）","source_url":"https://data.gov.tw/dataset/13717","license":"政府資料開放授權條款第1版","source_tier":1,"fetched_at":"2026-10-06","vintage":"2024-02-01"}},{"type":"Feature","geometry":{"type":"Point","coordinates":[121.606207,23.98214]},"properties":{"id":"dpc_ebb69d45","name":"花蓮縣政府毒品防制中心","county":"花蓮縣","town":"花蓮市","address":"花蓮縣花蓮市林森路391號","phone":"03-8246273","service_hours":null,"geocode_precision":"cached","source_org":"法務部（data.gov.tw 13717 毒品危害防制中心）","source_url":"https://data.gov.tw/dataset/13717","license":"政府資料開放授權條款第1版","source_tier":1,"fetched_at":"2026-10-06","vintage":"2024-02-01"}},{"type":"Feature","geometry":{"type":"Point","coordinates":[121.75474,24.745812]},"properties":{"id":"dpc_8863d300","name":"宜蘭縣政府毒品防制中心","county":"宜蘭縣","town":"宜蘭市","address":"宜蘭縣宜蘭市女中路2段287號4樓","phone":"03-9313995","service_hours":null,"geocode_precision":"cached","source_org":"法務部（data.gov.tw 13717 毒品危害防制中心）","source_url":"https://data.gov.tw/dataset/13717","license":"政府資料開放授權條款第1版","source_tier":1,"fetched_at":"2026-10-06","vintage":"2024-02-01"}},{"type":"Feature","geometry":{"type":"Point","coordinates":[121.712971,25.097137]},"properties":{"id":"dpc_24fb88a1","name":"基隆市政府毒品防制中心","county":"基隆市","town":"七堵區","address":"基隆市七堵區明德一路169號","phone":"02-24565988","service_hours":null,"geocode_precision":"exact","source_org":"法務部（data.gov.tw 13717 毒品危害防制中心）","source_url":"https://data.gov.tw/dataset/13717","license":"政府資料開放授權條款第1版","source_tier":1,"fetched_at":"2026-10-06","vintage":"2024-02-01"}},{"type":"Feature","geometry":{"type":"Point","coordinates":[119.566218,23.569342]},"properties":{"id":"dpc_ba80cc2d","name":"澎湖縣政府毒品防制中心","county":"澎湖縣","town":"馬公市","address":"澎湖縣馬公市中正路115號","phone":"06-9261025","service_hours":null,"geocode_precision":"exact","source_org":"法務部（data.gov.tw 13717 毒品危害防制中心）","source_url":"https://data.gov.tw/dataset/13717","license":"政府資料開放授權條款第1版","source_tier":1,"fetched_at":"2026-10-06","vintage":"2024-02-01"}},{"type":"Feature","geometry":{"type":"Point","coordinates":[118.42024,24.440941]},"properties":{"id":"dpc_25631f86","name":"金門縣政府毒品危害防制中心","county":"金門縣","town":"金湖鎮","address":"金門縣金湖鎮復興路1之12號","phone":"082-337555","service_hours":null,"geocode_precision":"exact","source_org":"法務部（data.gov.tw 10091 毒品危害防制中心）","source_url":"https://data.gov.tw/dataset/10091","license":"政府資料開放授權條款第1版","source_tier":1,"fetched_at":"2026-10-06","vintage":"2023-07-07"}},{"type":"Feature","geometry":{"type":"Point","coordinates":[119.958154,26.164559]},"properties":{"id":"dpc_7b3cffa1","name":"連江縣政府毒品危害防制中心","county":"連江縣","town":null,"address":"馬祖南竿鄉復興村216號","phone":"0836-22095","service_hours":null,"geocode_precision":"approximate","source_org":"法務部（data.gov.tw 10091 毒品危害防制中心）","source_url":"https://data.gov.tw/dataset/10091","license":"政府資料開放授權條款第1版","source_tier":1,"fetched_at":"2026-10-06","vintage":"2023-07-07"}}]}