{"type":"FeatureCollection","features":[{"type":"Feature","geometry":{"type":"Point","coordinates":[121.55542,25.027142]},"properties":{"id":"oao_1876d9b6","name":"財團法人臺灣更生保護會(總會)","county":"臺北市","town":null,"address":"臺北市基隆路2段166-1號","phone":"(02)2737-1232","service_hours":null,"geocode_precision":"exact","category_label":"更生保護會","office_type":"headquarters","office_type_label":"總會","source_org":"法務部（data.gov.tw 10060 更生保護會）","source_url":"https://data.gov.tw/dataset/10060","license":"政府資料開放授權條款第1版","source_tier":null,"fetched_at":"2026-10-06","vintage":"2023-06-05"}},{"type":"Feature","geometry":{"type":"Point","coordinates":[121.510507,25.041047]},"properties":{"id":"oao_fc133166","name":"財團法人臺灣更生保護會臺北分會","county":"臺北市","town":"中正區","address":"臺北市中正區桃源街21號","phone":"(02)2375-1479","service_hours":null,"geocode_precision":"exact","category_label":"更生保護會","office_type":"branch","office_type_label":"分會","source_org":"法務部（data.gov.tw 10060 更生保護會）","source_url":"https://data.gov.tw/dataset/10060","license":"政府資料開放授權條款第1版","source_tier":null,"fetched_at":"2026-10-06","vintage":"2023-06-05"}},{"type":"Feature","geometry":{"type":"Point","coordinates":[121.533314,25.111803]},"properties":{"id":"oao_b43ded60","name":"財團法人臺灣更生保護會士林分會","county":"臺北市","town":"士林區","address":"臺北市士林區士東路190號","phone":"(02)2833-2699","service_hours":null,"geocode_precision":"exact","category_label":"更生保護會","office_type":"branch","office_type_label":"分會","source_org":"法務部（data.gov.tw 10060 更生保護會）","source_url":"https://data.gov.tw/dataset/10060","license":"政府資料開放授權條款第1版","source_tier":null,"fetched_at":"2026-10-06","vintage":"2023-06-05"}},{"type":"Feature","geometry":{"type":"Point","coordinates":[121.458302,24.984476]},"properties":{"id":"oao_f37f91ff","name":"財團法人臺灣更生保護會新北分會","county":"新北市","town":"土城區","address":"新北市土城區金城路2段249號","phone":"(02)2260-8369","service_hours":null,"geocode_precision":"exact","category_label":"更生保護會","office_type":"branch","office_type_label":"分會","source_org":"法務部（data.gov.tw 10060 更生保護會）","source_url":"https://data.gov.tw/dataset/10060","license":"政府資料開放授權條款第1版","source_tier":null,"fetched_at":"2026-10-06","vintage":"2023-06-05"}},{"type":"Feature","geometry":{"type":"Point","coordinates":[121.286988,25.006281]},"properties":{"id":"oao_0d0f25b6","name":"財團法人臺灣更生保護會桃園分會","county":"桃園市","town":"桃園區","address":"桃園市桃園區正光路898號4樓","phone":"(03)302-0722","service_hours":null,"geocode_precision":"exact","category_label":"更生保護會","office_type":"branch","office_type_label":"分會","source_org":"法務部（data.gov.tw 10060 更生保護會）","source_url":"https://data.gov.tw/dataset/10060","license":"政府資料開放授權條款第1版","source_tier":null,"fetched_at":"2026-10-06","vintage":"2023-06-05"}},{"type":"Feature","geometry":{"type":"Point","coordinates":[121.017525,24.813215]},"properties":{"id":"oao_299effd4","name":"財團法人臺灣更生保護會新竹分會","county":"新竹縣","town":"竹北市","address":"新竹縣竹北市興隆路2段161號","phone":"(03)668-5962","service_hours":null,"geocode_precision":"exact","category_label":"更生保護會","office_type":"branch","office_type_label":"分會","source_org":"法務部（data.gov.tw 10060 更生保護會）","source_url":"https://data.gov.tw/dataset/10060","license":"政府資料開放授權條款第1版","source_tier":null,"fetched_at":"2026-10-06","vintage":"2023-06-05"}},{"type":"Feature","geometry":{"type":"Point","coordinates":[120.816834,24.546375]},"properties":{"id":"oao_e6ce724e","name":"財團法人臺灣更生保護會苗栗分會","county":"苗栗縣","town":"苗栗市","address":"苗栗縣苗栗市中正路1149號","phone":"(037)361-120","service_hours":null,"geocode_precision":"exact","category_label":"更生保護會","office_type":"branch","office_type_label":"分會","source_org":"法務部（data.gov.tw 10060 更生保護會）","source_url":"https://data.gov.tw/dataset/10060","license":"政府資料開放授權條款第1版","source_tier":null,"fetched_at":"2026-10-06","vintage":"2023-06-05"}},{"type":"Feature","geometry":{"type":"Point","coordinates":[120.675595,24.134541]},"properties":{"id":"oao_50e1c6bd","name":"財團法人臺灣更生保護會臺中分會","county":"臺中市","town":"西區","address":"臺中市西區自由路1段91號4樓","phone":"(04)2223-6240","service_hours":null,"geocode_precision":"exact","category_label":"更生保護會","office_type":"branch","office_type_label":"分會","source_org":"法務部（data.gov.tw 10060 更生保護會）","source_url":"https://data.gov.tw/dataset/10060","license":"政府資料開放授權條款第1版","source_tier":null,"fetched_at":"2026-10-06","vintage":"2023-06-05"}},{"type":"Feature","geometry":{"type":"Point","coordinates":[120.688873,23.900713]},"properties":{"id":"oao_ad4804ff","name":"財團法人臺灣更生保護會南投分會","county":"南投縣","town":"南投市","address":"南投縣南投市中興路757號","phone":"(049)224-3570","service_hours":null,"geocode_precision":"exact","category_label":"更生保護會","office_type":"branch","office_type_label":"分會","source_org":"法務部（data.gov.tw 10060 更生保護會）","source_url":"https://data.gov.tw/dataset/10060","license":"政府資料開放授權條款第1版","source_tier":null,"fetched_at":"2026-10-06","vintage":"2023-06-05"}},{"type":"Feature","geometry":{"type":"Point","coordinates":[120.571167,23.966828]},"properties":{"id":"oao_154a64a8","name":"財團法人臺灣更生保護會彰化分會","county":"彰化縣","town":"員林市","address":"彰化縣員林市中山路2段281號4樓","phone":"(04)834-1753","service_hours":null,"geocode_precision":"exact","category_label":"更生保護會","office_type":"branch","office_type_label":"分會","source_org":"法務部（data.gov.tw 10060 更生保護會）","source_url":"https://data.gov.tw/dataset/10060","license":"政府資料開放授權條款第1版","source_tier":null,"fetched_at":"2026-10-06","vintage":"2023-06-05"}},{"type":"Feature","geometry":{"type":"Point","coordinates":[120.433111,23.715356]},"properties":{"id":"oao_b9efe3d4","name":"財團法人臺灣更生保護會雲林分會","county":"雲林縣","town":"虎尾鎮","address":"雲林縣虎尾鎮明正路38號","phone":"(05)632-0041","service_hours":null,"geocode_precision":"exact","category_label":"更生保護會","office_type":"branch","office_type_label":"分會","source_org":"法務部（data.gov.tw 10060 更生保護會）","source_url":"https://data.gov.tw/dataset/10060","license":"政府資料開放授權條款第1版","source_tier":null,"fetched_at":"2026-10-06","vintage":"2023-06-05"}},{"type":"Feature","geometry":{"type":"Point","coordinates":[120.462309,23.487641]},"properties":{"id":"oao_78234c73","name":"財團法人臺灣更生保護會嘉義分會","county":"嘉義市","town":"東區","address":"嘉義市東區林森東路286號","phone":"(05)277-8610","service_hours":null,"geocode_precision":"exact","category_label":"更生保護會","office_type":"branch","office_type_label":"分會","source_org":"法務部（data.gov.tw 10060 更生保護會）","source_url":"https://data.gov.tw/dataset/10060","license":"政府資料開放授權條款第1版","source_tier":null,"fetched_at":"2026-10-06","vintage":"2023-06-05"}},{"type":"Feature","geometry":{"type":"Point","coordinates":[120.170583,22.984463]},"properties":{"id":"oao_f3b1fee8","name":"財團法人臺灣更生保護會臺南分會","county":"臺南市","town":"安平區","address":"臺南市安平區健康路3段310號","phone":"(06)297-1534","service_hours":null,"geocode_precision":"cached","category_label":"更生保護會","office_type":"branch","office_type_label":"分會","source_org":"法務部（data.gov.tw 10060 更生保護會）","source_url":"https://data.gov.tw/dataset/10060","license":"政府資料開放授權條款第1版","source_tier":null,"fetched_at":"2026-10-06","vintage":"2023-06-05"}},{"type":"Feature","geometry":{"type":"Point","coordinates":[120.28981,22.626122]},"properties":{"id":"oao_f400ce83","name":"財團法人臺灣更生保護會高雄分會","county":"高雄市","town":"前金區","address":"高雄市前金區河東路188號","phone":"(07)201-0925","service_hours":null,"geocode_precision":"exact","category_label":"更生保護會","office_type":"branch","office_type_label":"分會","source_org":"法務部（data.gov.tw 10060 更生保護會）","source_url":"https://data.gov.tw/dataset/10060","license":"政府資料開放授權條款第1版","source_tier":null,"fetched_at":"2026-10-06","vintage":"2023-06-05"}},{"type":"Feature","geometry":{"type":"Point","coordinates":[120.304533,22.739314]},"properties":{"id":"oao_cc0701b3","name":"財團法人臺灣更生保護會橋頭分會","county":"高雄市","town":"橋頭區","address":"高雄市橋頭區經武路868號","phone":"(07)612-8177","service_hours":null,"geocode_precision":"exact","category_label":"更生保護會","office_type":"branch","office_type_label":"分會","source_org":"法務部（data.gov.tw 10060 更生保護會）","source_url":"https://data.gov.tw/dataset/10060","license":"政府資料開放授權條款第1版","source_tier":null,"fetched_at":"2026-10-06","vintage":"2023-06-05"}},{"type":"Feature","geometry":{"type":"Point","coordinates":[120.486027,22.65796]},"properties":{"id":"oao_4b83001c","name":"財團法人臺灣更生保護會屏東分會","county":"屏東縣","town":"屏東市","address":"屏東縣屏東市棒球路10號2樓","phone":"(08)755-1781","service_hours":null,"geocode_precision":"exact","category_label":"更生保護會","office_type":"branch","office_type_label":"分會","source_org":"法務部（data.gov.tw 10060 更生保護會）","source_url":"https://data.gov.tw/dataset/10060","license":"政府資料開放授權條款第1版","source_tier":null,"fetched_at":"2026-10-06","vintage":"2023-06-05"}},{"type":"Feature","geometry":{"type":"Point","coordinates":[121.149923,22.762276]},"properties":{"id":"oao_168ed5f8","name":"財團法人臺灣更生保護會臺東分會","county":"臺東縣","town":"臺東市","address":"臺東縣臺東市浙江路310號","phone":"(089)310-675","service_hours":null,"geocode_precision":"exact","category_label":"更生保護會","office_type":"branch","office_type_label":"分會","source_org":"法務部（data.gov.tw 10060 更生保護會）","source_url":"https://data.gov.tw/dataset/10060","license":"政府資料開放授權條款第1版","source_tier":null,"fetched_at":"2026-10-06","vintage":"2023-06-05"}},{"type":"Feature","geometry":{"type":"Point","coordinates":[121.619572,23.990008]},"properties":{"id":"oao_3d189d6d","name":"財團法人臺灣更生保護會花蓮分會","county":"花蓮縣","town":"花蓮市","address":"花蓮縣花蓮市府前路15號","phone":"(03)823-0418","service_hours":null,"geocode_precision":"exact","category_label":"更生保護會","office_type":"branch","office_type_label":"分會","source_org":"法務部（data.gov.tw 10060 更生保護會）","source_url":"https://data.gov.tw/dataset/10060","license":"政府資料開放授權條款第1版","source_tier":null,"fetched_at":"2026-10-06","vintage":"2023-06-05"}},{"type":"Feature","geometry":{"type":"Point","coordinates":[121.759245,24.72866]},"properties":{"id":"oao_442b1f1c","name":"財團法人臺灣更生保護會宜蘭分會","county":"宜蘭縣","town":"宜蘭市","address":"宜蘭縣宜蘭市縣政西路3號","phone":"(03)925-2346","service_hours":null,"geocode_precision":"exact","category_label":"更生保護會","office_type":"branch","office_type_label":"分會","source_org":"法務部（data.gov.tw 10060 更生保護會）","source_url":"https://data.gov.tw/dataset/10060","license":"政府資料開放授權條款第1版","source_tier":null,"fetched_at":"2026-10-06","vintage":"2023-06-05"}},{"type":"Feature","geometry":{"type":"Point","coordinates":[121.76406,25.128436]},"properties":{"id":"oao_6b5dc23a","name":"財團法人臺灣更生保護會基隆分會","county":"基隆市","town":null,"address":"基隆市東信路178號(基隆地檢署側棟2樓)","phone":"(02)2465-5138","service_hours":null,"geocode_precision":"google_place","category_label":"更生保護會","office_type":"branch","office_type_label":"分會","source_org":"法務部（data.gov.tw 10060 更生保護會）","source_url":"https://data.gov.tw/dataset/10060","license":"政府資料開放授權條款第1版","source_tier":null,"fetched_at":"2026-10-06","vintage":"2023-06-05"}},{"type":"Feature","geometry":{"type":"Point","coordinates":[119.58363,23.568879]},"properties":{"id":"oao_37af7151","name":"財團法人臺灣更生保護會澎湖分會","county":"澎湖縣","town":"馬公市","address":"澎湖縣馬公市西文里西文澳309號","phone":"(06)921-9043","service_hours":null,"geocode_precision":"exact","category_label":"更生保護會","office_type":"branch","office_type_label":"分會","source_org":"法務部（data.gov.tw 10060 更生保護會）","source_url":"https://data.gov.tw/dataset/10060","license":"政府資料開放授權條款第1版","source_tier":null,"fetched_at":"2026-10-06","vintage":"2023-06-05"}},{"type":"Feature","geometry":{"type":"Point","coordinates":[118.31881,24.437609]},"properties":{"id":"oao_82d0eaa7","name":"財團法人福建更生保護會","county":"金門縣","town":"金城鎮","address":"金門縣金城鎮民權路174號","phone":"(082)321-687","service_hours":null,"geocode_precision":"interpolated","category_label":"更生保護會","office_type":"fujian_branch","office_type_label":"福建分會","source_org":"法務部（data.gov.tw 10060 更生保護會）","source_url":"https://data.gov.tw/dataset/10060","license":"政府資料開放授權條款第1版","source_tier":null,"fetched_at":"2026-10-06","vintage":"2023-06-05"}}]}