{"type":"FeatureCollection","features":[{"type":"Feature","geometry":{"type":"Point","coordinates":[120.704564,23.989882]},"properties":{"id":"tcm_3fd68619","name":"衛生福利部草屯療養院","county":"南投縣","town":"草屯鎮","address":"南投縣草屯鎮御史里玉屏路161號","phone":null,"service_hours":null,"geocode_precision":"google_place","category_label":"藥癮社區復健／治療性社區機構","programs":"藥癮治療性社區服務模式多元發展計畫","service_modes":"治療性社區","is_therapeutic_community":true,"source_org":"衛生福利部心理健康司（藥癮治療性社區／社區復健方案承辦機構）","source_url":"https://dep.mohw.gov.tw/DOMHAOH/cp-4097-71131-107.html","license":"來源頁未標示授權","source_tier":null,"fetched_at":"2026-10-06","vintage":"2025-07-29"}},{"type":"Feature","geometry":{"type":"Point","coordinates":[121.519429,25.046123]},"properties":{"id":"tcm_eae2f704","name":"社團法人臺灣露德協會","county":"臺北市","town":"中正區","address":"臺北市中正區黎明里中山北路一段2號2 樓 203 室","phone":null,"service_hours":null,"geocode_precision":"google_place","category_label":"藥癮社區復健／治療性社區機構","programs":"藥癮治療性社區服務模式多元發展計畫、藥癮者社區復健方案布建及服務品質提升計畫","service_modes":"中途之家、治療性社區、自立方案","is_therapeutic_community":true,"source_org":"衛生福利部心理健康司（藥癮治療性社區／社區復健方案承辦機構）","source_url":"https://dep.mohw.gov.tw/DOMHAOH/cp-4097-71131-107.html","license":"來源頁未標示授權","source_tier":null,"fetched_at":"2026-10-06","vintage":"2025-07-29"}},{"type":"Feature","geometry":{"type":"Point","coordinates":[120.589743,22.665726]},"properties":{"id":"tcm_f8f9cc72","name":"財團法人屏東縣私立基督教沐恩之家","county":"屏東縣","town":"內埔鄉","address":"屏東縣內埔鄉大新村大新路111號","phone":null,"service_hours":null,"geocode_precision":"google_place","category_label":"藥癮社區復健／治療性社區機構","programs":"藥癮治療性社區服務模式多元發展計畫","service_modes":"治療性社區","is_therapeutic_community":true,"source_org":"衛生福利部心理健康司（藥癮治療性社區／社區復健方案承辦機構）","source_url":"https://dep.mohw.gov.tw/DOMHAOH/cp-4097-71131-107.html","license":"來源頁未標示授權","source_tier":null,"fetched_at":"2026-10-06","vintage":"2025-07-29"}},{"type":"Feature","geometry":{"type":"Point","coordinates":[121.60418,24.064329]},"properties":{"id":"tcm_8bc4f32b","name":"財團法人臺灣基督教主愛之家輔導中心","county":"花蓮縣","town":"秀林鄉","address":"花蓮縣秀林鄉佳民村1號","phone":null,"service_hours":null,"geocode_precision":"google_place","category_label":"藥癮社區復健／治療性社區機構","programs":"藥癮治療性社區服務模式多元發展計畫、藥癮者社區復健方案布建及服務品質提升計畫","service_modes":"中途之家、治療性社區","is_therapeutic_community":true,"source_org":"衛生福利部心理健康司（藥癮治療性社區／社區復健方案承辦機構）","source_url":"https://dep.mohw.gov.tw/DOMHAOH/cp-4097-71131-107.html","license":"來源頁未標示授權","source_tier":null,"fetched_at":"2026-10-06","vintage":"2025-07-29"}},{"type":"Feature","geometry":{"type":"Point","coordinates":[121.509765,25.011362]},"properties":{"id":"tcm_3efbaa63","name":"財團法人基督教晨曦會","county":"新北市","town":"永和區","address":"新北市永和區保福路二段23巷37號","phone":null,"service_hours":null,"geocode_precision":"google_place","category_label":"藥癮社區復健／治療性社區機構","programs":"藥癮治療性社區服務模式多元發展計畫","service_modes":"治療性社區","is_therapeutic_community":true,"source_org":"衛生福利部心理健康司（藥癮治療性社區／社區復健方案承辦機構）","source_url":"https://dep.mohw.gov.tw/DOMHAOH/cp-4097-71131-107.html","license":"來源頁未標示授權","source_tier":null,"fetched_at":"2026-10-06","vintage":"2025-07-29"}},{"type":"Feature","geometry":{"type":"Point","coordinates":[121.558656,24.988609]},"properties":{"id":"tcm_d85c2bf1","name":"財團法人利伯他茲教育基金會","county":"臺北市","town":"文山區","address":"臺北市文山區明義里木柵路二段18號","phone":null,"service_hours":null,"geocode_precision":"google_place","category_label":"藥癮社區復健／治療性社區機構","programs":"藥癮治療性社區服務模式多元發展計畫、藥癮者社區復健方案布建及服務品質提升計畫","service_modes":"中途之家、治療性社區、自立方案","is_therapeutic_community":true,"source_org":"衛生福利部心理健康司（藥癮治療性社區／社區復健方案承辦機構）","source_url":"https://dep.mohw.gov.tw/DOMHAOH/cp-4097-71131-107.html","license":"來源頁未標示授權","source_tier":null,"fetched_at":"2026-10-06","vintage":"2025-07-29"}},{"type":"Feature","geometry":{"type":"Point","coordinates":[121.499026,25.130409]},"properties":{"id":"tcm_448d3e80","name":"社團法人中華趕路的雁全人關懷協會","county":"臺北市","town":"北投區","address":"臺北市北投區大同里北投路二段9號","phone":null,"service_hours":null,"geocode_precision":"google_place","category_label":"藥癮社區復健／治療性社區機構","programs":"藥癮者社區復健方案布建及服務品質提升計畫","service_modes":"中途之家","is_therapeutic_community":false,"source_org":"衛生福利部心理健康司（藥癮治療性社區／社區復健方案承辦機構）","source_url":"https://dep.mohw.gov.tw/DOMHAOH/cp-4097-71131-107.html","license":"來源頁未標示授權","source_tier":null,"fetched_at":"2026-10-06","vintage":"2025-07-29"}},{"type":"Feature","geometry":{"type":"Point","coordinates":[121.760011,25.127186]},"properties":{"id":"tcm_aa767500","name":"財團法人基督教更生團契基隆區會","county":"基隆市","town":"信義區","address":"基隆市信義區禮儀里東明路161巷62號","phone":null,"service_hours":null,"geocode_precision":"google_place","category_label":"藥癮社區復健／治療性社區機構","programs":"藥癮者社區復健方案布建及服務品質提升計畫","service_modes":"中途之家","is_therapeutic_community":false,"source_org":"衛生福利部心理健康司（藥癮治療性社區／社區復健方案承辦機構）","source_url":"https://dep.mohw.gov.tw/DOMHAOH/cp-4097-71131-107.html","license":"來源頁未標示授權","source_tier":null,"fetched_at":"2026-10-06","vintage":"2025-07-29"}},{"type":"Feature","geometry":{"type":"Point","coordinates":[120.285173,22.590272]},"properties":{"id":"tcm_5078634c","name":"高雄市立旗津醫院(委託財團法人私立高雄醫學大學經營)","county":"高雄市","town":"旗津區","address":"高雄市旗津區南汕里旗港路33號","phone":null,"service_hours":null,"geocode_precision":"google_place","category_label":"藥癮社區復健／治療性社區機構","programs":"藥癮者社區復健方案布建及服務品質提升計畫","service_modes":"非安置型","is_therapeutic_community":false,"source_org":"衛生福利部心理健康司（藥癮治療性社區／社區復健方案承辦機構）","source_url":"https://dep.mohw.gov.tw/DOMHAOH/cp-4097-71131-107.html","license":"來源頁未標示授權","source_tier":null,"fetched_at":"2026-10-06","vintage":"2025-07-29"}},{"type":"Feature","geometry":{"type":"Point","coordinates":[120.257326,23.042625]},"properties":{"id":"tcm_51562c70","name":"財團法人基督教更生團契(臺南永新幸福農場)","county":"臺南市","town":"永康區","address":"臺南市永康區蔦松里中正北路525號","phone":null,"service_hours":null,"geocode_precision":"google_place","category_label":"藥癮社區復健／治療性社區機構","programs":"藥癮者社區復健方案布建及服務品質提升計畫","service_modes":"中途之家、自立方案","is_therapeutic_community":false,"source_org":"衛生福利部心理健康司（藥癮治療性社區／社區復健方案承辦機構）","source_url":"https://dep.mohw.gov.tw/DOMHAOH/cp-4097-71131-107.html","license":"來源頁未標示授權","source_tier":null,"fetched_at":"2026-10-06","vintage":"2025-07-29"}},{"type":"Feature","geometry":{"type":"Point","coordinates":[120.690539,24.175341]},"properties":{"id":"tcm_22b7d689","name":"社團法人中華民國紅心字會","county":"臺中市","town":"北屯區","address":"臺中市北屯區平順里昌平路一段400號5 樓之1","phone":null,"service_hours":null,"geocode_precision":"google_place","category_label":"藥癮社區復健／治療性社區機構","programs":"藥癮者社區復健方案布建及服務品質提升計畫","service_modes":"非安置型","is_therapeutic_community":false,"source_org":"衛生福利部心理健康司（藥癮治療性社區／社區復健方案承辦機構）","source_url":"https://dep.mohw.gov.tw/DOMHAOH/cp-4097-71131-107.html","license":"來源頁未標示授權","source_tier":null,"fetched_at":"2026-10-06","vintage":"2025-07-29"}},{"type":"Feature","geometry":{"type":"Point","coordinates":[121.751612,24.747478]},"properties":{"id":"tcm_ef598b0f","name":"社團法人宜蘭縣渡安居女性關懷協會","county":"宜蘭縣","town":"宜蘭市","address":"宜蘭縣宜蘭市復興里健康路二段50號1樓","phone":null,"service_hours":null,"geocode_precision":"google_place","category_label":"藥癮社區復健／治療性社區機構","programs":"藥癮者社區復健方案布建及服務品質提升計畫","service_modes":"中途之家","is_therapeutic_community":false,"source_org":"衛生福利部心理健康司（藥癮治療性社區／社區復健方案承辦機構）","source_url":"https://dep.mohw.gov.tw/DOMHAOH/cp-4097-71131-107.html","license":"來源頁未標示授權","source_tier":null,"fetched_at":"2026-10-06","vintage":"2025-07-29"}},{"type":"Feature","geometry":{"type":"Point","coordinates":[121.266691,24.932858]},"properties":{"id":"tcm_6f3bb80e","name":"財團法人基督教更生團契(桃園區會)","county":"桃園市","town":"八德區","address":"桃園市八德區竹園里長興路707號","phone":null,"service_hours":null,"geocode_precision":"google_place","category_label":"藥癮社區復健／治療性社區機構","programs":"藥癮者社區復健方案布建及服務品質提升計畫","service_modes":"中途之家","is_therapeutic_community":false,"source_org":"衛生福利部心理健康司（藥癮治療性社區／社區復健方案承辦機構）","source_url":"https://dep.mohw.gov.tw/DOMHAOH/cp-4097-71131-107.html","license":"來源頁未標示授權","source_tier":null,"fetched_at":"2026-10-06","vintage":"2025-07-29"}},{"type":"Feature","geometry":{"type":"Point","coordinates":[120.559249,22.598926]},"properties":{"id":"tcm_cc33c12a","name":"社團法人臺灣世界快樂聯盟","county":"屏東縣","town":"內埔鄉","address":"屏東縣內埔鄉美和村學人路257號","phone":null,"service_hours":null,"geocode_precision":"google_place","category_label":"藥癮社區復健／治療性社區機構","programs":"藥癮者社區復健方案布建及服務品質提升計畫","service_modes":"中途之家、自立方案","is_therapeutic_community":false,"source_org":"衛生福利部心理健康司（藥癮治療性社區／社區復健方案承辦機構）","source_url":"https://dep.mohw.gov.tw/DOMHAOH/cp-4097-71131-107.html","license":"來源頁未標示授權","source_tier":null,"fetched_at":"2026-10-06","vintage":"2025-07-29"}},{"type":"Feature","geometry":{"type":"Point","coordinates":[120.270135,22.622655]},"properties":{"id":"tcm_944a17ae","name":"社團法人中華民國牧愛生命協會","county":"高雄市","town":"鼓山區","address":"高雄市鼓山區惠安里濱海二路23-2號","phone":null,"service_hours":null,"geocode_precision":"google_place","category_label":"藥癮社區復健／治療性社區機構","programs":"藥癮者社區復健方案布建及服務品質提升計畫","service_modes":"非安置型","is_therapeutic_community":false,"source_org":"衛生福利部心理健康司（藥癮治療性社區／社區復健方案承辦機構）","source_url":"https://dep.mohw.gov.tw/DOMHAOH/cp-4097-71131-107.html","license":"來源頁未標示授權","source_tier":null,"fetched_at":"2026-10-06","vintage":"2025-07-29"}},{"type":"Feature","geometry":{"type":"Point","coordinates":[120.830501,24.257581]},"properties":{"id":"tcm_7c644853","name":"社團法人臺中市新生命戒癮成長協會","county":"臺中市","town":"東勢區","address":"臺中市東勢區廣興里中山路28號","phone":null,"service_hours":null,"geocode_precision":"google_place","category_label":"藥癮社區復健／治療性社區機構","programs":"藥癮者社區復健方案布建及服務品質提升計畫","service_modes":"中途之家","is_therapeutic_community":false,"source_org":"衛生福利部心理健康司（藥癮治療性社區／社區復健方案承辦機構）","source_url":"https://dep.mohw.gov.tw/DOMHAOH/cp-4097-71131-107.html","license":"來源頁未標示授權","source_tier":null,"fetched_at":"2026-10-06","vintage":"2025-07-29"}},{"type":"Feature","geometry":{"type":"Point","coordinates":[121.554808,25.054791]},"properties":{"id":"tcm_48736cca","name":"社團法人臺灣潤群協會","county":"臺北市","town":"松山區","address":"臺北市松山區龍田里光復北路190巷23號","phone":null,"service_hours":null,"geocode_precision":"google_place","category_label":"藥癮社區復健／治療性社區機構","programs":"藥癮者社區復健方案布建及服務品質提升計畫","service_modes":"中途之家","is_therapeutic_community":false,"source_org":"衛生福利部心理健康司（藥癮治療性社區／社區復健方案承辦機構）","source_url":"https://dep.mohw.gov.tw/DOMHAOH/cp-4097-71131-107.html","license":"來源頁未標示授權","source_tier":null,"fetched_at":"2026-10-06","vintage":"2025-07-29"}}]}