{"type":"FeatureCollection","features":[{"type":"Feature","geometry":{"type":"LineString","coordinates":[[121.6236371,24.9569297],[121.5981891,24.9531792]]},"properties":{"entity_id":"pj_zone_nt_1_d0","seq":"1","location":"臺9線19K至23.1K(雙向)","direction_idx":0,"limit_kph":"40公里","enforcement_item":"超速","facility_subtype":"speed_zone_segment","city":"新北市","source":"newtaipei_126156","source_tier":1,"fetched_at":"2026-06-26"}},{"type":"Feature","geometry":{"type":"LineString","coordinates":[[121.5981016,24.953133],[121.6236044,24.9570178]]},"properties":{"entity_id":"pj_zone_nt_1_d1","seq":"1","location":"臺9線19K至23.1K(雙向)","direction_idx":1,"limit_kph":"40公里","enforcement_item":"超速","facility_subtype":"speed_zone_segment","city":"新北市","source":"newtaipei_126156","source_tier":1,"fetched_at":"2026-06-26"}},{"type":"Feature","geometry":{"type":"LineString","coordinates":[[121.6708954,24.9430715],[121.6478697,24.9503516]]},"properties":{"entity_id":"pj_zone_nt_2_d0","seq":"2","location":"臺9線26.2K至32.2K(雙向)","direction_idx":0,"limit_kph":"40公里","enforcement_item":"超速","facility_subtype":"speed_zone_segment","city":"新北市","source":"newtaipei_126156","source_tier":1,"fetched_at":"2026-06-26"}},{"type":"Feature","geometry":{"type":"LineString","coordinates":[[121.6477995,24.9504174],[121.6708659,24.9429879]]},"properties":{"entity_id":"pj_zone_nt_2_d1","seq":"2","location":"臺9線26.2K至32.2K(雙向)","direction_idx":1,"limit_kph":"40公里","enforcement_item":"超速","facility_subtype":"speed_zone_segment","city":"新北市","source":"newtaipei_126156","source_tier":1,"fetched_at":"2026-06-26"}},{"type":"Feature","geometry":{"type":"LineString","coordinates":[[121.7035178,24.9360445],[121.6770967,24.9384678]]},"properties":{"entity_id":"pj_zone_nt_3_d0","seq":"3","location":"臺9線33.3K至37.2K(雙向)","direction_idx":0,"limit_kph":"40公里","enforcement_item":"超速","facility_subtype":"speed_zone_segment","city":"新北市","source":"newtaipei_126156","source_tier":1,"fetched_at":"2026-06-26"}},{"type":"Feature","geometry":{"type":"LineString","coordinates":[[121.6772214,24.938322],[121.7036968,24.9359628]]},"properties":{"entity_id":"pj_zone_nt_3_d1","seq":"3","location":"臺9線33.3K至37.2K(雙向)","direction_idx":1,"limit_kph":"40公里","enforcement_item":"超速","facility_subtype":"speed_zone_segment","city":"新北市","source":"newtaipei_126156","source_tier":1,"fetched_at":"2026-06-26"}},{"type":"Feature","geometry":{"type":"LineString","coordinates":[[121.4912557,24.9940327],[121.520327,24.9911521]]},"properties":{"entity_id":"pj_zone_nt_4_d0","seq":"4","location":"臺64線快速公路25.2k至28.2k(雙向)","direction_idx":0,"limit_kph":"70公里","enforcement_item":"超速","facility_subtype":"speed_zone_segment","city":"新北市","source":"newtaipei_126156","source_tier":1,"fetched_at":"2026-06-26"}},{"type":"Feature","geometry":{"type":"LineString","coordinates":[[121.4912819,24.9939131],[121.520327,24.9911521]]},"properties":{"entity_id":"pj_zone_nt_4_d1","seq":"4","location":"臺64線快速公路25.2k至28.2k(雙向)","direction_idx":1,"limit_kph":"70公里","enforcement_item":"超速","facility_subtype":"speed_zone_segment","city":"新北市","source":"newtaipei_126156","source_tier":1,"fetched_at":"2026-06-26"}},{"type":"Feature","geometry":{"type":"LineString","coordinates":[[121.5223483,24.9906839],[121.5070838,24.9932551]]},"properties":{"entity_id":"pj_zone_nt_4_d2","seq":"4","location":"臺64線快速公路25.2k至28.2k(雙向)","direction_idx":2,"limit_kph":"70公里","enforcement_item":"超速","facility_subtype":"speed_zone_segment","city":"新北市","source":"newtaipei_126156","source_tier":1,"fetched_at":"2026-06-26"}},{"type":"Feature","geometry":{"type":"LineString","coordinates":[[121.4707713,25.0189783],[121.4828569,25.0078907]]},"properties":{"entity_id":"pj_zone_nt_5_d0","seq":"5","location":"台64線快速公路東向21.4K主線至23.2K","direction_idx":0,"limit_kph":"70公里","enforcement_item":"超速\n\n跨越雙白線\n(東向21.4K)","facility_subtype":"speed_zone_segment","city":"新北市","source":"newtaipei_126156","source_tier":1,"fetched_at":"2026-06-26"}},{"type":"Feature","geometry":{"type":"LineString","coordinates":[[121.451254,24.9991346],[121.4425386,25.0262879]]},"properties":{"entity_id":"pj_zone_nt_6_d0","seq":"6","location":"台65線快速公路北向7.9K主線至4.5K","direction_idx":0,"limit_kph":"80公里","enforcement_item":"超速","facility_subtype":"speed_zone_segment","city":"新北市","source":"newtaipei_126156","source_tier":1,"fetched_at":"2026-06-26"}},{"type":"Feature","geometry":{"type":"LineString","coordinates":[[121.5292394,24.9718199],[121.5367909,24.9641247]]},"properties":{"entity_id":"pj_zone_nt_7_d0","seq":"7","location":"新店區環河路(中央路至白馬寺，雙向)","direction_idx":0,"limit_kph":"60公里","enforcement_item":"超速","facility_subtype":"speed_zone_segment","city":"新北市","source":"newtaipei_126156","source_tier":1,"fetched_at":"2026-06-26"}},{"type":"Feature","geometry":{"type":"LineString","coordinates":[[121.5369783,24.9639108],[121.5309406,24.9712441]]},"properties":{"entity_id":"pj_zone_nt_7_d1","seq":"7","location":"新店區環河路(中央路至白馬寺，雙向)","direction_idx":1,"limit_kph":"60公里","enforcement_item":"超速","facility_subtype":"speed_zone_segment","city":"新北市","source":"newtaipei_126156","source_tier":1,"fetched_at":"2026-06-26"}},{"type":"Feature","geometry":{"type":"LineString","coordinates":[[121.4221989,25.1116139],[121.3985554,25.1369385]]},"properties":{"entity_id":"pj_zone_nt_8_d0","seq":"8","location":"省道台64線西向1.6K至5.4K","direction_idx":0,"limit_kph":"80公里（20噸以上大貨車限速70公里）","enforcement_item":"超速","facility_subtype":"speed_zone_segment","city":"新北市","source":"newtaipei_126156","source_tier":1,"fetched_at":"2026-06-26"}},{"type":"Feature","geometry":{"type":"LineString","coordinates":[[121.3982646,25.043957],[121.4072525,25.0393101]]},"properties":{"entity_id":"pj_zone_nt_9_d0","seq":"9","location":"新莊區壽山路(北118線0K至1.2K)(往新莊方向)","direction_idx":0,"limit_kph":"40公里","enforcement_item":"超速","facility_subtype":"speed_zone_segment","city":"新北市","source":"newtaipei_126156","source_tier":1,"fetched_at":"2026-06-26"}},{"type":"Feature","geometry":{"type":"LineString","coordinates":[[121.8230243,25.120868],[121.874765,25.123813]]},"properties":{"entity_id":"pj_zone_nt_10_d0","seq":"10","location":"省道台2線73.7K至79.6K(雙向)","direction_idx":0,"limit_kph":"60公里","enforcement_item":"超速\n\n跨越雙黃線(79.6K雙向)","facility_subtype":"speed_zone_segment","city":"新北市","source":"newtaipei_126156","source_tier":1,"fetched_at":"2026-06-26"}},{"type":"Feature","geometry":{"type":"LineString","coordinates":[[121.874765,25.123813],[121.8228082,25.121013]]},"properties":{"entity_id":"pj_zone_nt_10_d1","seq":"10","location":"省道台2線73.7K至79.6K(雙向)","direction_idx":1,"limit_kph":"60公里","enforcement_item":"超速\n\n跨越雙黃線(79.6K雙向)","facility_subtype":"speed_zone_segment","city":"新北市","source":"newtaipei_126156","source_tier":1,"fetched_at":"2026-06-26"}},{"type":"Feature","geometry":{"type":"LineString","coordinates":[[121.8755036,25.1233385],[121.9128517,25.12391]]},"properties":{"entity_id":"pj_zone_nt_11_d0","seq":"11","location":"省道台2線79.7K至84K(雙向)","direction_idx":0,"limit_kph":"60公里","enforcement_item":"超速\n\n跨越雙黃線(79.7K及84K雙向)","facility_subtype":"speed_zone_segment","city":"新北市","source":"newtaipei_126156","source_tier":1,"fetched_at":"2026-06-26"}},{"type":"Feature","geometry":{"type":"LineString","coordinates":[[121.9128517,25.12391],[121.8755036,25.1233385]]},"properties":{"entity_id":"pj_zone_nt_11_d1","seq":"11","location":"省道台2線79.7K至84K(雙向)","direction_idx":1,"limit_kph":"60公里","enforcement_item":"超速\n\n跨越雙黃線(79.7K及84K雙向)","facility_subtype":"speed_zone_segment","city":"新北市","source":"newtaipei_126156","source_tier":1,"fetched_at":"2026-06-26"}},{"type":"Feature","geometry":{"type":"LineString","coordinates":[[121.9119988,25.1129016],[121.9194989,25.1087712]]},"properties":{"entity_id":"pj_zone_nt_12_d0","seq":"12","location":"省道台2線85.8K至87.5K(雙向)","direction_idx":0,"limit_kph":"50公里","enforcement_item":"超速\n\n跨越雙黃線(85.8K及87.5K雙向)","facility_subtype":"speed_zone_segment","city":"新北市","source":"newtaipei_126156","source_tier":1,"fetched_at":"2026-06-26"}},{"type":"Feature","geometry":{"type":"LineString","coordinates":[[121.9194771,25.1085894],[121.9120353,25.1128145]]},"properties":{"entity_id":"pj_zone_nt_12_d1","seq":"12","location":"省道台2線85.8K至87.5K(雙向)","direction_idx":1,"limit_kph":"50公里","enforcement_item":"超速\n\n跨越雙黃線(85.8K及87.5K雙向)","facility_subtype":"speed_zone_segment","city":"新北市","source":"newtaipei_126156","source_tier":1,"fetched_at":"2026-06-26"}},{"type":"Feature","geometry":{"type":"LineString","coordinates":[[121.9882414,25.0158013],[121.9694361,24.9866379]]},"properties":{"entity_id":"pj_zone_nt_13_d0","seq":"13","location":"省道台2線105.8K至113.2K(雙向)","direction_idx":0,"limit_kph":"60公里","enforcement_item":"超速\n\n跨越雙黃線(105.8K及113.2K雙向)","facility_subtype":"speed_zone_segment","city":"新北市","source":"newtaipei_126156","source_tier":1,"fetched_at":"2026-06-26"}},{"type":"Feature","geometry":{"type":"LineString","coordinates":[[121.9691472,24.9865575],[121.9882264,25.0156998]]},"properties":{"entity_id":"pj_zone_nt_13_d1","seq":"13","location":"省道台2線105.8K至113.2K(雙向)","direction_idx":1,"limit_kph":"60公里","enforcement_item":"超速\n\n跨越雙黃線(105.8K及113.2K雙向)","facility_subtype":"speed_zone_segment","city":"新北市","source":"newtaipei_126156","source_tier":1,"fetched_at":"2026-06-26"}},{"type":"Feature","geometry":{"type":"LineString","coordinates":[[121.3751827,24.8705956],[121.3572005,24.8548211]]},"properties":{"entity_id":"pj_zone_nt_14_d0","seq":"14","location":"三峽區台7乙線5.3K至8.1K(雙向)","direction_idx":0,"limit_kph":"40公里","enforcement_item":"超速","facility_subtype":"speed_zone_segment","city":"新北市","source":"newtaipei_126156","source_tier":1,"fetched_at":"2026-06-26"}},{"type":"Feature","geometry":{"type":"LineString","coordinates":[[121.3572005,24.8548211],[121.3751827,24.8705956]]},"properties":{"entity_id":"pj_zone_nt_14_d1","seq":"14","location":"三峽區台7乙線5.3K至8.1K(雙向)","direction_idx":1,"limit_kph":"40公里","enforcement_item":"超速","facility_subtype":"speed_zone_segment","city":"新北市","source":"newtaipei_126156","source_tier":1,"fetched_at":"2026-06-26"}}]}