{"type":"FeatureCollection","features":[{"type":"Feature","geometry":{"type":"Point","coordinates":[121.529589,25.041632]},"properties":{"uid":"welfare_00027","name":"臺北市中正區社區心理衛生中心","welfare_class":"mental_health","uni_no":"3776408","address":"臺北市中正區金山南路1段5號","city":"臺北市","coord_source":"tgos_upstream","coord_precision":"upstream","src_datasets":"165355","n_src":1,"sub_code":"T0105","permit_status":"C04","inst_code":"AAE00005567","src_system":"無來源系統"}},{"type":"Feature","geometry":{"type":"Point","coordinates":[121.497613,25.023175]},"properties":{"uid":"welfare_00028","name":"臺北市萬華區社區心理衛生中心","welfare_class":"mental_health","uni_no":"3776408","address":"臺北市萬華區東園街152號B棟","city":"臺北市","coord_source":"tgos_upstream","coord_precision":"upstream","src_datasets":"165355","n_src":1,"sub_code":"T0105","permit_status":"C04","inst_code":"AAE00005576","src_system":"無來源系統"}},{"type":"Feature","geometry":{"type":"Point","coordinates":[121.570087,24.989604]},"properties":{"uid":"welfare_00029","name":"臺北市文山區社區心理衛生中心","welfare_class":"mental_health","uni_no":"3776408","address":"臺北市文山區木柵路三段220號3樓","city":"臺北市","coord_source":"tgos_upstream","coord_precision":"upstream","src_datasets":"165355","n_src":1,"sub_code":"T0105","permit_status":"C04","inst_code":"AAE00005585","src_system":"無來源系統"}},{"type":"Feature","geometry":{"type":"Point","coordinates":[121.504991,25.044118]},"properties":{"uid":"welfare_00030","name":"臺北市政府毒品危害防制中心","welfare_class":"mental_health","uni_no":"99958172","address":"臺北市萬華區昆明街100號4樓","city":"臺北市","coord_source":"tgos_upstream","coord_precision":"upstream","src_datasets":"165355","n_src":1,"sub_code":"T0106","permit_status":"C04","inst_code":"AAF00005340","src_system":"無來源系統"}},{"type":"Feature","geometry":{"type":"Point","coordinates":[121.535562,25.041727]},"properties":{"uid":"welfare_00108","name":"中崙諮商中心心理諮商所","welfare_class":"mental_health","uni_no":"31814516","address":"臺北市大安區忠孝東路3段54號4樓之1","city":"臺北市","coord_source":"tgos_upstream","coord_precision":"upstream","src_datasets":"165355","n_src":1,"sub_code":"T0504","permit_status":"C04","inst_code":"AED00007634","src_system":"醫事管理系統"}},{"type":"Feature","geometry":{"type":"Point","coordinates":[120.712479,24.251389]},"properties":{"uid":"welfare_00894","name":"臺中市豐原區社區心理衛生中心","welfare_class":"mental_health","uni_no":"55507404","address":"臺中市豐原區瑞安街143號","city":"臺中市","coord_source":"tgos_upstream","coord_precision":"upstream","src_datasets":"165355","n_src":1,"sub_code":"T0105","permit_status":"C04","inst_code":"BAE00005593","src_system":"無來源系統"}},{"type":"Feature","geometry":{"type":"Point","coordinates":[120.640383,24.178913]},"properties":{"uid":"welfare_00895","name":"臺中市西屯區社區心理衛生中心","welfare_class":"mental_health","uni_no":"55507404","address":"臺中市西屯區西屯路二段299號","city":"臺中市","coord_source":"tgos_upstream","coord_precision":"upstream","src_datasets":"165355","n_src":1,"sub_code":"T0105","permit_status":"C04","inst_code":"BAE00005601","src_system":"無來源系統"}},{"type":"Feature","geometry":{"type":"Point","coordinates":[120.687798,24.133369]},"properties":{"uid":"welfare_00896","name":"臺中市東區社區心理衛生中心","welfare_class":"mental_health","uni_no":"55507404","address":"臺中市東區信義街142號","city":"臺中市","coord_source":"tgos_upstream","coord_precision":"upstream","src_datasets":"165355","n_src":1,"sub_code":"T0105","permit_status":"C04","inst_code":"BAE00005610","src_system":"無來源系統"}},{"type":"Feature","geometry":{"type":"Point","coordinates":[120.71402,24.248291]},"properties":{"uid":"welfare_00897","name":"臺中市政府毒品危害防制中心","welfare_class":"mental_health","uni_no":"55507404","address":"臺中市豐原區中興路136號","city":"臺中市","coord_source":"tgos_upstream","coord_precision":"upstream","src_datasets":"165355","n_src":1,"sub_code":"T0106","permit_status":"C04","inst_code":"BAF00005367","src_system":"無來源系統"}},{"type":"Feature","geometry":{"type":"Point","coordinates":[120.679858,24.110174]},"properties":{"uid":"welfare_01047","name":"衛生福利部草屯療養院","welfare_class":"mental_health","uni_no":"61945732","address":"臺中市大里區國光路二段500號2樓","city":"臺中市","coord_source":"tgos_upstream","coord_precision":"upstream","src_datasets":"165355","n_src":1,"sub_code":"T0502","permit_status":"C04","inst_code":"BEB00000128","src_system":"無來源系統"}},{"type":"Feature","geometry":{"type":"Point","coordinates":[120.663129,24.14306]},"properties":{"uid":"welfare_01048","name":"財團法人台灣省私立台中仁愛之家附設靜和醫院","welfare_class":"mental_health","uni_no":"52147103","address":"臺中市西區臺中市西區南屯路一段158號","city":"臺中市","coord_source":"google","coord_precision":"approximate","src_datasets":"165355","n_src":1,"sub_code":"T0503","permit_status":"C04","inst_code":"BEC00002558","src_system":"無來源系統"}},{"type":"Feature","geometry":{"type":"Point","coordinates":[121.712971,25.097137]},"properties":{"uid":"welfare_01876","name":"基隆市社區心理衛生中心","welfare_class":"mental_health","uni_no":"516800","address":"基隆市七堵區明德一路169號1樓","city":"基隆市","coord_source":"tgos_upstream","coord_precision":"upstream","src_datasets":"165355","n_src":1,"sub_code":"T0105","permit_status":"C04","inst_code":"CAE00005817","src_system":"無來源系統"}},{"type":"Feature","geometry":{"type":"Point","coordinates":[121.712971,25.097137]},"properties":{"uid":"welfare_01877","name":"基隆市政府毒品危害防制中心","welfare_class":"mental_health","uni_no":"516800","address":"基隆市七堵區明德一路169號","city":"基隆市","coord_source":"tgos_upstream","coord_precision":"upstream","src_datasets":"165355","n_src":1,"sub_code":"T0106","permit_status":"C04","inst_code":"CAF00005492","src_system":"無來源系統"}},{"type":"Feature","geometry":{"type":"Point","coordinates":[120.22156,22.98551]},"properties":{"uid":"welfare_01981","name":"臺南市政府衛生局","welfare_class":"mental_health","uni_no":"71805632","address":"臺南市東區林森路一段408號","city":"臺南市","coord_source":"tgos_upstream","coord_precision":"upstream","src_datasets":"165355","n_src":1,"sub_code":"T0105","permit_status":"C04","inst_code":"DAE00000055","src_system":"無來源系統"}},{"type":"Feature","geometry":{"type":"Point","coordinates":[120.265518,23.320701]},"properties":{"uid":"welfare_01982","name":"臺南市鹽水區社區心理衛生中心(臺南市政府衛生局)","welfare_class":"mental_health","uni_no":"71805632","address":"臺南市鹽水區武廟路21號","city":"臺南市","coord_source":"tgos_upstream","coord_precision":"upstream","src_datasets":"165355","n_src":1,"sub_code":"T0105","permit_status":"C04","inst_code":"DAE00005627","src_system":"無來源系統"}},{"type":"Feature","geometry":{"type":"Point","coordinates":[120.209965,23.004873]},"properties":{"uid":"welfare_01983","name":"臺南市北區社區心理衛生中心","welfare_class":"mental_health","uni_no":"71805632","address":"臺南市北區公園北路102號","city":"臺南市","coord_source":"tgos_upstream","coord_precision":"upstream","src_datasets":"165355","n_src":1,"sub_code":"T0105","permit_status":"C04","inst_code":"DAE00005636","src_system":"無來源系統"}},{"type":"Feature","geometry":{"type":"Point","coordinates":[120.222043,22.985012]},"properties":{"uid":"welfare_01984","name":"臺南市政府毒品危害防制中心","welfare_class":"mental_health","uni_no":"71805632","address":"臺南市東區林森路一段418號","city":"臺南市","coord_source":"tgos_upstream","coord_precision":"upstream","src_datasets":"165355","n_src":1,"sub_code":"T0106","permit_status":"C04","inst_code":"DAF00005374","src_system":"無來源系統"}},{"type":"Feature","geometry":{"type":"Point","coordinates":[120.242714,22.975542]},"properties":{"uid":"welfare_02097","name":"衛生福利部嘉南療養院附設樂禾康復之家","welfare_class":"mental_health","uni_no":"74811882","address":"臺南市仁德區中山路860號","city":"臺南市","coord_source":"tgos_upstream","coord_precision":"upstream","src_datasets":"165355","n_src":1,"sub_code":"T0503","permit_status":"C04","inst_code":"DEC00002790","src_system":"無來源系統"}},{"type":"Feature","geometry":{"type":"Point","coordinates":[120.323972,22.625924]},"properties":{"uid":"welfare_02773","name":"高雄市苓雅區社區心理衛生中心","welfare_class":"mental_health","uni_no":"76011604","address":"高雄市苓雅區凱旋二路132號2樓","city":"高雄市","coord_source":"tgos_upstream","coord_precision":"upstream","src_datasets":"165355","n_src":1,"sub_code":"T0105","permit_status":"C04","inst_code":"EAE00005644","src_system":"無來源系統"}},{"type":"Feature","geometry":{"type":"Point","coordinates":[120.358332,22.591113]},"properties":{"uid":"welfare_02774","name":"高雄市鳳山區社區心理衛生中心","welfare_class":"mental_health","uni_no":"76011604","address":"高雄市鳳山區鳳頂路225號","city":"高雄市","coord_source":"tgos_upstream","coord_precision":"upstream","src_datasets":"165355","n_src":1,"sub_code":"T0105","permit_status":"C04","inst_code":"EAE00005653","src_system":"無來源系統"}},{"type":"Feature","geometry":{"type":"Point","coordinates":[120.258937,22.855301]},"properties":{"uid":"welfare_02775","name":"高雄市岡山區社區心理衛生中心","welfare_class":"mental_health","uni_no":"76011604","address":"高雄市路竹區國昌路86巷22號2樓","city":"高雄市","coord_source":"tgos_upstream","coord_precision":"upstream","src_datasets":"165355","n_src":1,"sub_code":"T0105","permit_status":"C04","inst_code":"EAE00005662","src_system":"無來源系統"}},{"type":"Feature","geometry":{"type":"Point","coordinates":[120.394583,22.508064]},"properties":{"uid":"welfare_02776","name":"高雄市林園區社區心理衛生中心","welfare_class":"mental_health","uni_no":"76011604","address":"高雄市林園區林園北路185號2樓","city":"高雄市","coord_source":"tgos_upstream","coord_precision":"upstream","src_datasets":"165355","n_src":1,"sub_code":"T0105","permit_status":"C04","inst_code":"EAE00005671","src_system":"無來源系統"}},{"type":"Feature","geometry":{"type":"Point","coordinates":[120.292644,22.627519]},"properties":{"uid":"welfare_02777","name":"高雄市政府毒品防制局","welfare_class":"mental_health","uni_no":"81111569","address":"高雄市前金區成功一路420號4樓","city":"高雄市","coord_source":"tgos_upstream","coord_precision":"upstream","src_datasets":"165355","n_src":1,"sub_code":"T0106","permit_status":"C04","inst_code":"EAF00005382","src_system":"無來源系統"}},{"type":"Feature","geometry":{"type":"Point","coordinates":[120.323972,22.625924]},"properties":{"uid":"welfare_02944","name":"高雄市立凱旋醫院附設社區復健中心","welfare_class":"mental_health","uni_no":"76016805","address":"高雄市苓雅區凱旋二路132號8樓","city":"高雄市","coord_source":"tgos_upstream","coord_precision":"upstream","src_datasets":"165355","n_src":1,"sub_code":"T0502","permit_status":"C04","inst_code":"EEB00005085","src_system":"無來源系統"}},{"type":"Feature","geometry":{"type":"Point","coordinates":[120.281156,22.792445]},"properties":{"uid":"welfare_02945","name":"心心康復之家","welfare_class":"mental_health","uni_no":"15561508","address":"高雄市岡山區通校路300號","city":"高雄市","coord_source":"tgos_upstream","coord_precision":"upstream","src_datasets":"165355","n_src":1,"sub_code":"T0503","permit_status":"C04","inst_code":"EEC00003158","src_system":"無來源系統"}},{"type":"Feature","geometry":{"type":"Point","coordinates":[120.379221,22.604729]},"properties":{"uid":"welfare_02946","name":"高雄市立凱旋醫院附設大寮康復之家","welfare_class":"mental_health","uni_no":"76016805","address":"高雄市大寮區高雄市大寮區內坑路180號","city":"高雄市","coord_source":"google","coord_precision":"exact","src_datasets":"165355","n_src":1,"sub_code":"T0503","permit_status":"C04","inst_code":"EEC00005048","src_system":"無來源系統"}},{"type":"Feature","geometry":{"type":"Point","coordinates":[120.324203,22.625377]},"properties":{"uid":"welfare_02947","name":"高雄市立凱旋醫院附設城堡康復之家","welfare_class":"mental_health","uni_no":"76016805","address":"高雄市苓雅區高雄市苓雅區福成街2號1-3樓","city":"高雄市","coord_source":"google","coord_precision":"exact","src_datasets":"165355","n_src":1,"sub_code":"T0503","permit_status":"C04","inst_code":"EEC00005066","src_system":"無來源系統"}},{"type":"Feature","geometry":{"type":"Point","coordinates":[120.324203,22.625377]},"properties":{"uid":"welfare_02948","name":"高雄市立凱旋醫院附設康復之家","welfare_class":"mental_health","uni_no":"76016805","address":"高雄市苓雅區高雄市苓雅區福成街2號1-2樓","city":"高雄市","coord_source":"google","coord_precision":"exact","src_datasets":"165355","n_src":1,"sub_code":"T0503","permit_status":"C04","inst_code":"EEC00005075","src_system":"無來源系統"}},{"type":"Feature","geometry":{"type":"Point","coordinates":[120.323373,22.636272]},"properties":{"uid":"welfare_02949","name":"旅行心理治療所","welfare_class":"mental_health","uni_no":"91478143","address":"高雄市苓雅區憲政路138號1、2樓","city":"高雄市","coord_source":"tgos_upstream","coord_precision":"upstream","src_datasets":"165355","n_src":1,"sub_code":"T0504","permit_status":"C04","inst_code":"EED00007649","src_system":"醫事管理系統"}},{"type":"Feature","geometry":{"type":"Point","coordinates":[120.299339,22.617713]},"properties":{"uid":"welfare_02950","name":"豪家在心理諮商所","welfare_class":"mental_health","uni_no":"92178545","address":"高雄市苓雅區文武三街49號1、2樓","city":"高雄市","coord_source":"tgos_upstream","coord_precision":"upstream","src_datasets":"165355","n_src":1,"sub_code":"T0504","permit_status":"C04","inst_code":"EED00007658","src_system":"醫事管理系統"}},{"type":"Feature","geometry":{"type":"Point","coordinates":[121.526462,24.981321]},"properties":{"uid":"welfare_03785","name":"新北市新店區社區心理衛生中心","welfare_class":"mental_health","uni_no":"3770805","address":"新北市新店區中山路139號1樓","city":"新北市","coord_source":"tgos_upstream","coord_precision":"upstream","src_datasets":"165355","n_src":1,"sub_code":"T0105","permit_status":"C04","inst_code":"FAE00005544","src_system":"無來源系統"}},{"type":"Feature","geometry":{"type":"Point","coordinates":[121.501638,24.998691]},"properties":{"uid":"welfare_03786","name":"新北市中和區社區心理衛生中心","welfare_class":"mental_health","uni_no":"3770805","address":"新北市中和區南山路4巷3號2樓","city":"新北市","coord_source":"tgos_upstream","coord_precision":"upstream","src_datasets":"165355","n_src":1,"sub_code":"T0105","permit_status":"C04","inst_code":"FAE00005553","src_system":"無來源系統"}},{"type":"Feature","geometry":{"type":"Point","coordinates":[121.45814,25.023377]},"properties":{"uid":"welfare_03787","name":"新北市政府毒品危害防制中心","welfare_class":"mental_health","uni_no":"3770805","address":"新北市板橋區英士路192-1號","city":"新北市","coord_source":"tgos_upstream","coord_precision":"upstream","src_datasets":"165355","n_src":1,"sub_code":"T0106","permit_status":"C04","inst_code":"FAF00005336","src_system":"無來源系統"}},{"type":"Feature","geometry":{"type":"Point","coordinates":[121.763119,24.675007]},"properties":{"uid":"welfare_04999","name":"宜蘭縣羅東鎮社區心理衛生中心","welfare_class":"mental_health","uni_no":"40402304","address":"宜蘭縣羅東鎮北成路一段2號","city":"宜蘭縣","coord_source":"tgos_upstream","coord_precision":"upstream","src_datasets":"165355","n_src":1,"sub_code":"T0105","permit_status":"C04","inst_code":"GAE00005688","src_system":"無來源系統"}},{"type":"Feature","geometry":{"type":"Point","coordinates":[121.796767,24.692493]},"properties":{"uid":"welfare_05000","name":"宜蘭縣政府毒品危害防制中心","welfare_class":"mental_health","uni_no":"40402304","address":"宜蘭縣宜蘭市C02中路2段287號4樓","city":"宜蘭縣","coord_source":"google","coord_precision":"exact","src_datasets":"165355","n_src":1,"sub_code":"T0106","permit_status":"C04","inst_code":"GAF00005399","src_system":"無來源系統"}},{"type":"Feature","geometry":{"type":"Point","coordinates":[121.724147,24.743442]},"properties":{"uid":"welfare_05041","name":"臺北榮民總醫院員山分院附設社區復健中心","welfare_class":"mental_health","uni_no":"40405409","address":"宜蘭縣員山鄉員山路一段325號1樓","city":"宜蘭縣","coord_source":"tgos_upstream","coord_precision":"upstream","src_datasets":"165355","n_src":1,"sub_code":"T0502","permit_status":"C04","inst_code":"GEB00004282","src_system":"無來源系統"}},{"type":"Feature","geometry":{"type":"Point","coordinates":[121.288861,24.927457]},"properties":{"uid":"welfare_05231","name":"桃園市八德區社區心理衛生中心","welfare_class":"mental_health","uni_no":"43504001","address":"桃園市八德區豐田二路23號","city":"桃園市","coord_source":"tgos_upstream","coord_precision":"upstream","src_datasets":"165355","n_src":1,"sub_code":"T0105","permit_status":"C04","inst_code":"HAE00003454","src_system":"無來源系統"}},{"type":"Feature","geometry":{"type":"Point","coordinates":[121.288077,25.007756]},"properties":{"uid":"welfare_05232","name":"桃園市桃園區社區心理衛生中心","welfare_class":"mental_health","uni_no":"43504001","address":"桃園市桃園區崇法街6號","city":"桃園市","coord_source":"tgos_upstream","coord_precision":"upstream","src_datasets":"165355","n_src":1,"sub_code":"T0105","permit_status":"C04","inst_code":"HAE00003463","src_system":"無來源系統"}},{"type":"Feature","geometry":{"type":"Point","coordinates":[121.288135,25.007797]},"properties":{"uid":"welfare_05233","name":"桃園市政府毒品危害防制中心","welfare_class":"mental_health","uni_no":"43504001","address":"桃園市桃園區崇法街12-5號2樓","city":"桃園市","coord_source":"tgos_upstream","coord_precision":"upstream","src_datasets":"165355","n_src":1,"sub_code":"T0106","permit_status":"C04","inst_code":"HAF00005352","src_system":"無來源系統"}},{"type":"Feature","geometry":{"type":"Point","coordinates":[121.268497,24.97945]},"properties":{"uid":"welfare_05343","name":"桃園療養院附設康復之家","welfare_class":"mental_health","uni_no":"43862323","address":"桃園市桃園區桃園區龍壽街71-1號","city":"桃園市","coord_source":"google","coord_precision":"exact","src_datasets":"165355","n_src":1,"sub_code":"T0503","permit_status":"C04","inst_code":"HEC00002372","src_system":"無來源系統"}},{"type":"Feature","geometry":{"type":"Point","coordinates":[120.46465,23.47025]},"properties":{"uid":"welfare_05818","name":"嘉義市社區心理衛生中心","welfare_class":"mental_health","uni_no":"6247769","address":"嘉義市東區彌陀路255號","city":"嘉義市","coord_source":"tgos_upstream","coord_precision":"upstream","src_datasets":"165355","n_src":1,"sub_code":"T0105","permit_status":"C04","inst_code":"IAE00005839","src_system":"無來源系統"}},{"type":"Feature","geometry":{"type":"Point","coordinates":[120.46465,23.47025]},"properties":{"uid":"welfare_05819","name":"嘉義市政府毒品危害防制中心","welfare_class":"mental_health","uni_no":"6247769","address":"嘉義市東區彌陀路255號","city":"嘉義市","coord_source":"tgos_upstream","coord_precision":"upstream","src_datasets":"165355","n_src":1,"sub_code":"T0106","permit_status":"C04","inst_code":"IAF00005513","src_system":"無來源系統"}},{"type":"Feature","geometry":{"type":"Point","coordinates":[120.453329,23.47503]},"properties":{"uid":"welfare_05854","name":"臺中榮民總醫院嘉義分院附設日間型機構","welfare_class":"mental_health","uni_no":"66014700","address":"嘉義市東區吳鳳北路35巷4號5樓","city":"嘉義市","coord_source":"tgos_upstream","coord_precision":"upstream","src_datasets":"165355","n_src":1,"sub_code":"T0502","permit_status":"C04","inst_code":"IEB00004857","src_system":"無來源系統"}},{"type":"Feature","geometry":{"type":"Point","coordinates":[120.425334,23.465727]},"properties":{"uid":"welfare_05855","name":"臺中榮民總醫院嘉義分院附設住宿型機構","welfare_class":"mental_health","uni_no":"66014700","address":"嘉義市西區博愛路2段850號3F&5F","city":"嘉義市","coord_source":"tgos_upstream","coord_precision":"upstream","src_datasets":"165355","n_src":1,"sub_code":"T0503","permit_status":"C04","inst_code":"IEC00004847","src_system":"無來源系統"}},{"type":"Feature","geometry":{"type":"Point","coordinates":[121.073121,24.826143]},"properties":{"uid":"welfare_05941","name":"新竹縣新埔鎮社區心理衛生中心","welfare_class":"mental_health","uni_no":"46806401","address":"新竹縣新埔鎮福德街535號","city":"新竹縣","coord_source":"tgos_upstream","coord_precision":"upstream","src_datasets":"165355","n_src":1,"sub_code":"T0105","permit_status":"C04","inst_code":"JAE00005694","src_system":"無來源系統"}},{"type":"Feature","geometry":{"type":"Point","coordinates":[121.13928,24.717562]},"properties":{"uid":"welfare_05942","name":"新竹縣橫山鄉社區心理衛生中心","welfare_class":"mental_health","uni_no":"46806401","address":"新竹縣橫山鄉新興街141巷10號","city":"新竹縣","coord_source":"tgos_upstream","coord_precision":"upstream","src_datasets":"165355","n_src":1,"sub_code":"T0105","permit_status":"C04","inst_code":"JAE00005702","src_system":"無來源系統"}},{"type":"Feature","geometry":{"type":"Point","coordinates":[121.015381,24.82608]},"properties":{"uid":"welfare_05943","name":"新竹縣政府毒品危害防制中心","welfare_class":"mental_health","uni_no":"46806401","address":"新竹縣竹北市光明七街1號","city":"新竹縣","coord_source":"tgos_upstream","coord_precision":"upstream","src_datasets":"165355","n_src":1,"sub_code":"T0106","permit_status":"C04","inst_code":"JAF00005404","src_system":"無來源系統"}},{"type":"Feature","geometry":{"type":"Point","coordinates":[120.813526,24.559514]},"properties":{"uid":"welfare_06151","name":"苗栗縣苗栗市社區心理衛生中心","welfare_class":"mental_health","uni_no":"47563402","address":"苗栗縣苗栗市國華路1298號","city":"苗栗縣","coord_source":"tgos_upstream","coord_precision":"upstream","src_datasets":"165355","n_src":1,"sub_code":"T0105","permit_status":"C04","inst_code":"KAE00005710","src_system":"無來源系統"}},{"type":"Feature","geometry":{"type":"Point","coordinates":[120.915685,24.690483]},"properties":{"uid":"welfare_06152","name":"苗栗縣頭份市社區心理衛生中心","welfare_class":"mental_health","uni_no":"47563402","address":"苗栗縣頭份市顯會路74號","city":"苗栗縣","coord_source":"tgos_upstream","coord_precision":"upstream","src_datasets":"165355","n_src":1,"sub_code":"T0105","permit_status":"C04","inst_code":"KAE00005729","src_system":"無來源系統"}},{"type":"Feature","geometry":{"type":"Point","coordinates":[120.687789,23.907057]},"properties":{"uid":"welfare_06295","name":"南投縣南投市社區心理衛生中心","welfare_class":"mental_health","uni_no":"61605305","address":"南投縣南投市文昌街45號4樓","city":"南投縣","coord_source":"tgos_upstream","coord_precision":"upstream","src_datasets":"165355","n_src":1,"sub_code":"T0105","permit_status":"C04","inst_code":"MAE00005745","src_system":"無來源系統"}},{"type":"Feature","geometry":{"type":"Point","coordinates":[120.688534,23.90246]},"properties":{"uid":"welfare_06296","name":"南投縣政府毒品危害防制中心","welfare_class":"mental_health","uni_no":"61605305","address":"南投縣南投市復興路6號","city":"南投縣","coord_source":"tgos_upstream","coord_precision":"upstream","src_datasets":"165355","n_src":1,"sub_code":"T0106","permit_status":"C04","inst_code":"MAF00005429","src_system":"無來源系統"}},{"type":"Feature","geometry":{"type":"Point","coordinates":[120.542559,24.071801]},"properties":{"uid":"welfare_06512","name":"彰化縣社區心理衛生中心","welfare_class":"mental_health","uni_no":"58813700","address":"彰化縣彰化市曉陽路1號7樓","city":"彰化縣","coord_source":"tgos_upstream","coord_precision":"upstream","src_datasets":"165355","n_src":1,"sub_code":"T0105","permit_status":"C04","inst_code":"NAE00005735","src_system":"無來源系統"}},{"type":"Feature","geometry":{"type":"Point","coordinates":[120.54163,24.069095]},"properties":{"uid":"welfare_06513","name":"彰化縣政府毒品危害防制中心","welfare_class":"mental_health","uni_no":"58813700","address":"彰化縣彰化市中山路2段162號","city":"彰化縣","coord_source":"tgos_upstream","coord_precision":"upstream","src_datasets":"165355","n_src":1,"sub_code":"T0106","permit_status":"C04","inst_code":"NAF00005419","src_system":"無來源系統"}},{"type":"Feature","geometry":{"type":"Point","coordinates":[120.567061,23.958088]},"properties":{"uid":"welfare_06593","name":"芙樂奇心理諮商所","welfare_class":"mental_health","uni_no":"72443124","address":"彰化縣員林市新生里南和街64號","city":"彰化縣","coord_source":"tgos_upstream","coord_precision":"upstream","src_datasets":"165355","n_src":1,"sub_code":"T0504","permit_status":"C04","inst_code":"NED00007668","src_system":"醫事管理系統"}},{"type":"Feature","geometry":{"type":"Point","coordinates":[120.976231,24.80967]},"properties":{"uid":"welfare_06857","name":"新竹市東區社區心理衛生中心","welfare_class":"mental_health","uni_no":"98271131","address":"新竹市東區中央路241號12樓","city":"新竹市","coord_source":"tgos_upstream","coord_precision":"upstream","src_datasets":"165355","n_src":1,"sub_code":"T0105","permit_status":"C04","inst_code":"OAE00005824","src_system":"無來源系統"}},{"type":"Feature","geometry":{"type":"Point","coordinates":[120.976231,24.80967]},"properties":{"uid":"welfare_06858","name":"新竹市政府毒品危害防制中心","welfare_class":"mental_health","uni_no":"98271131","address":"新竹市東區中央路241號10樓","city":"新竹市","coord_source":"tgos_upstream","coord_precision":"upstream","src_datasets":"165355","n_src":1,"sub_code":"T0106","permit_status":"C04","inst_code":"OAF00005508","src_system":"無來源系統"}},{"type":"Feature","geometry":{"type":"Point","coordinates":[120.252566,23.677077]},"properties":{"uid":"welfare_07028","name":"雲林縣東勢鄉社區心理衛生中心","welfare_class":"mental_health","uni_no":"63504900","address":"雲林縣東勢鄉懷恩街40號","city":"雲林縣","coord_source":"tgos_upstream","coord_precision":"upstream","src_datasets":"165355","n_src":1,"sub_code":"T0105","permit_status":"C04","inst_code":"PAE00005751","src_system":"無來源系統"}},{"type":"Feature","geometry":{"type":"Point","coordinates":[120.412634,23.771872]},"properties":{"uid":"welfare_07029","name":"雲林縣二崙鄉社區心理衛生中心","welfare_class":"mental_health","uni_no":"63504900","address":"雲林縣二崙鄉中興路9號","city":"雲林縣","coord_source":"tgos_upstream","coord_precision":"upstream","src_datasets":"165355","n_src":1,"sub_code":"T0105","permit_status":"C04","inst_code":"PAE00005760","src_system":"無來源系統"}},{"type":"Feature","geometry":{"type":"Point","coordinates":[120.527514,23.697811]},"properties":{"uid":"welfare_07030","name":"雲林縣政府毒品危害防制中心","welfare_class":"mental_health","uni_no":"63504900","address":"雲林縣斗六市府文路34號","city":"雲林縣","coord_source":"tgos_upstream","coord_precision":"upstream","src_datasets":"165355","n_src":1,"sub_code":"T0106","permit_status":"C04","inst_code":"PAF00005435","src_system":"無來源系統"}},{"type":"Feature","geometry":{"type":"Point","coordinates":[120.295419,23.456009]},"properties":{"uid":"welfare_07320","name":"嘉義縣太保市社區心理衛生中心","welfare_class":"mental_health","uni_no":"66015200","address":"嘉義縣太保市太保二路113號2樓","city":"嘉義縣","coord_source":"tgos_upstream","coord_precision":"upstream","src_datasets":"165355","n_src":1,"sub_code":"T0105","permit_status":"C04","inst_code":"QAE00005778","src_system":"無來源系統"}},{"type":"Feature","geometry":{"type":"Point","coordinates":[120.292894,23.457536]},"properties":{"uid":"welfare_07321","name":"嘉義縣毒品危害防制中心","welfare_class":"mental_health","uni_no":"66015200","address":"嘉義縣太保市祥和二路東段3號","city":"嘉義縣","coord_source":"tgos_upstream","coord_precision":"upstream","src_datasets":"165355","n_src":1,"sub_code":"T0106","permit_status":"C04","inst_code":"QAF00005443","src_system":"無來源系統"}},{"type":"Feature","geometry":{"type":"Point","coordinates":[120.569014,22.612404]},"properties":{"uid":"welfare_07510","name":"屏東縣內埔鄉社區心理衛生中心","welfare_class":"mental_health","uni_no":"91008500","address":"屏東縣內埔鄉中興路191號3樓","city":"屏東縣","coord_source":"tgos_upstream","coord_precision":"upstream","src_datasets":"165355","n_src":1,"sub_code":"T0105","permit_status":"C04","inst_code":"TAE00005784","src_system":"無來源系統"}},{"type":"Feature","geometry":{"type":"Point","coordinates":[120.496408,22.675187]},"properties":{"uid":"welfare_07511","name":"屏東縣政府毒品危害防制中心","welfare_class":"mental_health","uni_no":"91008500","address":"屏東縣屏東市自由路272號","city":"屏東縣","coord_source":"tgos_upstream","coord_precision":"upstream","src_datasets":"165355","n_src":1,"sub_code":"T0106","permit_status":"C04","inst_code":"TAF00005459","src_system":"無來源系統"}},{"type":"Feature","geometry":{"type":"Point","coordinates":[121.606207,23.98214]},"properties":{"uid":"welfare_07884","name":"花蓮縣花蓮市社區心理衛生中心","welfare_class":"mental_health","uni_no":"94511201","address":"花蓮縣花蓮市林森路391號","city":"花蓮縣","coord_source":"tgos_upstream","coord_precision":"upstream","src_datasets":"165355","n_src":1,"sub_code":"T0105","permit_status":"C04","inst_code":"UAE00005800","src_system":"無來源系統"}},{"type":"Feature","geometry":{"type":"Point","coordinates":[121.606207,23.98214]},"properties":{"uid":"welfare_07885","name":"花蓮縣政府毒品危害防制中心","welfare_class":"mental_health","uni_no":"94511201","address":"花蓮縣花蓮市林森路391號","city":"花蓮縣","coord_source":"tgos_upstream","coord_precision":"upstream","src_datasets":"165355","n_src":1,"sub_code":"T0106","permit_status":"C04","inst_code":"UAF00005476","src_system":"無來源系統"}},{"type":"Feature","geometry":{"type":"Point","coordinates":[121.12056,22.783479]},"properties":{"uid":"welfare_08070","name":"臺東縣臺東市社區心理衛生中心","welfare_class":"mental_health","uni_no":"93507904","address":"臺東縣臺東市更生北路384巷50號4樓","city":"臺東縣","coord_source":"tgos_upstream","coord_precision":"upstream","src_datasets":"165355","n_src":1,"sub_code":"T0105","permit_status":"C04","inst_code":"VAE00005791","src_system":"無來源系統"}},{"type":"Feature","geometry":{"type":"Point","coordinates":[121.148769,22.757584]},"properties":{"uid":"welfare_08071","name":"臺東縣政府毒品危害防制中心","welfare_class":"mental_health","uni_no":"93507904","address":"臺東縣臺東市博愛路336號","city":"臺東縣","coord_source":"tgos_upstream","coord_precision":"upstream","src_datasets":"165355","n_src":1,"sub_code":"T0106","permit_status":"C04","inst_code":"VAF00005466","src_system":"無來源系統"}},{"type":"Feature","geometry":{"type":"Point","coordinates":[118.417006,24.440189]},"properties":{"uid":"welfare_08207","name":"金門縣政府毒品危害防制中心","welfare_class":"mental_health","uni_no":"77355471","address":"金門縣金湖鎮中正路1-1號","city":"金門縣","coord_source":"tgos_upstream","coord_precision":"upstream","src_datasets":"165355","n_src":1,"sub_code":"T0106","permit_status":"C04","inst_code":"WAF00005528","src_system":"無來源系統"}},{"type":"Feature","geometry":{"type":"Point","coordinates":[119.566218,23.569341]},"properties":{"uid":"welfare_08244","name":"澎湖縣政府毒品危害防制中心","welfare_class":"mental_health","uni_no":"96406106","address":"澎湖縣馬公市中正路115號","city":"澎湖縣","coord_source":"tgos_upstream","coord_precision":"upstream","src_datasets":"165355","n_src":1,"sub_code":"T0106","permit_status":"C04","inst_code":"XAF00005482","src_system":"無來源系統"}},{"type":"Feature","geometry":{"type":"Point","coordinates":[119.951371,26.160198]},"properties":{"uid":"welfare_08306","name":"連江縣政府毒品危害防制中心","welfare_class":"mental_health","uni_no":"78752603","address":"連江縣南竿鄉216號","city":"連江縣","coord_source":"google","coord_precision":"approximate","src_datasets":"165355","n_src":1,"sub_code":"T0106","permit_status":"C04","inst_code":"ZAF00005534","src_system":"無來源系統"}}]}