{"type":"FeatureCollection","features":[{"type":"Feature","geometry":{"type":"Point","coordinates":[121.529985,25.053815]},"properties":{"uid":"welfare_00000","name":"臺北市學生輔導諮商中心","welfare_class":"gov_welfare_office","uni_no":"3718702","address":"臺北市中山區吉林路110號3樓","city":"臺北市","coord_source":"tgos_upstream","coord_precision":"upstream","src_datasets":"165355","n_src":1,"sub_code":"T0101","permit_status":"C04","inst_code":"AAA00001268","src_system":"無來源系統"}},{"type":"Feature","geometry":{"type":"Point","coordinates":[121.563784,25.037523]},"properties":{"uid":"welfare_00001","name":"臺北市政府原住民族事務委員會","welfare_class":"gov_welfare_office","uni_no":"97977743","address":"臺北市信義區市府路1號","city":"臺北市","coord_source":"tgos_upstream","coord_precision":"upstream","src_datasets":"165355","n_src":1,"sub_code":"T0101","permit_status":"C04","inst_code":"AAA00001330","src_system":"無來源系統"}},{"type":"Feature","geometry":{"type":"Point","coordinates":[121.508783,25.03879]},"properties":{"uid":"welfare_00002","name":"臺北市家庭暴力暨性侵害防治中心","welfare_class":"gov_welfare_office","uni_no":"48947899","address":"臺北市中正區臺北市中正區延平南路123號","city":"臺北市","coord_source":"google","coord_precision":"exact","src_datasets":"165355","n_src":1,"sub_code":"T0102","permit_status":"C04","inst_code":"AAB00347354","src_system":"無來源系統"}},{"type":"Feature","geometry":{"type":"Point","coordinates":[121.507045,25.047931]},"properties":{"uid":"welfare_00015","name":"臺北市政府社會局委託財團法人天主教失智老人社會福利基金會經營管理臺北市萬華老人服務中心","welfare_class":"gov_welfare_office","uni_no":"73990893","address":"臺北市萬華區西寧南路4號A棟3樓","city":"臺北市","coord_source":"tgos_upstream","coord_precision":"upstream","src_datasets":"165355","n_src":1,"sub_code":"T0104","permit_status":"C04","inst_code":"AAD00000031","src_system":"無來源系統"}},{"type":"Feature","geometry":{"type":"Point","coordinates":[121.566614,25.054469]},"properties":{"uid":"welfare_00016","name":"財團法人台灣省私立健順養護中心受託經營管理臺北市松山老人服務暨日間照顧中心","welfare_class":"gov_welfare_office","uni_no":"76768312","address":"臺北市松山區健康路317號1、2樓","city":"臺北市","coord_source":"tgos_upstream","coord_precision":"upstream","src_datasets":"165355","n_src":1,"sub_code":"T0104","permit_status":"C04","inst_code":"AAD00000077","src_system":"無來源系統"}},{"type":"Feature","geometry":{"type":"Point","coordinates":[121.547349,25.034203]},"properties":{"uid":"welfare_00017","name":"財團法人全成社會福利基金會經營管理臺北市大安老人服務暨日間照顧中心","welfare_class":"gov_welfare_office","uni_no":"26322293","address":"臺北市大安區四維路76巷12號","city":"臺北市","coord_source":"tgos_upstream","coord_precision":"upstream","src_datasets":"165355","n_src":1,"sub_code":"T0104","permit_status":"C04","inst_code":"AAD00000130","src_system":"無來源系統"}},{"type":"Feature","geometry":{"type":"Point","coordinates":[121.503929,25.126552]},"properties":{"uid":"welfare_00018","name":"社團法人中華民國士林靈糧堂社會福利協會受託經營管理北投老人服務中心","welfare_class":"gov_welfare_office","uni_no":"42532079","address":"臺北市北投區三合街一段119號6樓","city":"臺北市","coord_source":"tgos_upstream","coord_precision":"upstream","src_datasets":"165355","n_src":1,"sub_code":"T0104","permit_status":"C04","inst_code":"AAD00000220","src_system":"無來源系統"}},{"type":"Feature","geometry":{"type":"Point","coordinates":[121.567544,25.043393]},"properties":{"uid":"welfare_00019","name":"中華民國紅心字會受託經營管理臺北市信義老人服務暨日間照顧中心","welfare_class":"gov_welfare_office","uni_no":"2276242","address":"臺北市信義區松隆路36號4樓","city":"臺北市","coord_source":"tgos_upstream","coord_precision":"upstream","src_datasets":"165355","n_src":1,"sub_code":"T0104","permit_status":"C04","inst_code":"AAD00000464","src_system":"無來源系統"}},{"type":"Feature","geometry":{"type":"Point","coordinates":[121.618388,25.070374]},"properties":{"uid":"welfare_00020","name":"臺北市內湖老人服務中心","welfare_class":"gov_welfare_office","uni_no":"48822238","address":"臺北市內湖區康樂街110巷16弄20號5樓","city":"臺北市","coord_source":"tgos_upstream","coord_precision":"upstream","src_datasets":"165355","n_src":1,"sub_code":"T0104","permit_status":"C04","inst_code":"AAD00000473","src_system":"無來源系統"}},{"type":"Feature","geometry":{"type":"Point","coordinates":[121.532376,25.111419]},"properties":{"uid":"welfare_00021","name":"臺北市政府社會局委託社團法人中華民國士林靈糧堂社會福利協會經營管理臺北市士林老人服務暨日間照顧中心","welfare_class":"gov_welfare_office","uni_no":"42532079","address":"臺北市士林區忠誠路二段53巷7號五樓","city":"臺北市","coord_source":"tgos_upstream","coord_precision":"upstream","src_datasets":"165355","n_src":1,"sub_code":"T0104","permit_status":"C04","inst_code":"AAD00000581","src_system":"無來源系統"}},{"type":"Feature","geometry":{"type":"Point","coordinates":[121.598699,25.057724]},"properties":{"uid":"welfare_00022","name":"財團法人台灣省私立健順養護中心受託經營管理臺北市南港老人服務暨日間照顧中心","welfare_class":"gov_welfare_office","uni_no":"76768312","address":"臺北市南港區重陽路187巷5號1、2樓","city":"臺北市","coord_source":"tgos_upstream","coord_precision":"upstream","src_datasets":"165355","n_src":1,"sub_code":"T0104","permit_status":"C04","inst_code":"AAD00000833","src_system":"無來源系統"}},{"type":"Feature","geometry":{"type":"Point","coordinates":[121.497487,25.037372]},"properties":{"uid":"welfare_00023","name":"財團法人台北市立心慈善基金會經營臺北市萬華龍山老人服務暨日間照顧中心","welfare_class":"gov_welfare_office","uni_no":"976178","address":"臺北市萬華區梧州街36號3樓","city":"臺北市","coord_source":"tgos_upstream","coord_precision":"upstream","src_datasets":"165355","n_src":1,"sub_code":"T0104","permit_status":"C04","inst_code":"AAD00000842","src_system":"無來源系統"}},{"type":"Feature","geometry":{"type":"Point","coordinates":[121.57651,24.988621]},"properties":{"uid":"welfare_00024","name":"臺北市文山老人服務中心","welfare_class":"gov_welfare_office","uni_no":"1000909","address":"臺北市文山區萬壽路27號6樓","city":"臺北市","coord_source":"tgos_upstream","coord_precision":"upstream","src_datasets":"165355","n_src":1,"sub_code":"T0104","permit_status":"C04","inst_code":"AAD00000860","src_system":"無來源系統"}},{"type":"Feature","geometry":{"type":"Point","coordinates":[121.57651,24.988621]},"properties":{"uid":"welfare_00025","name":"財團法人恆安社會福利慈善事業基金會受託經營管理臺北市文山老人服務中心","welfare_class":"gov_welfare_office","uni_no":"1000909","address":"臺北市文山區萬壽路27號6樓","city":"臺北市","coord_source":"tgos_upstream","coord_precision":"upstream","src_datasets":"165355","n_src":1,"sub_code":"T0104","permit_status":"C04","inst_code":"AAD00001580","src_system":"無來源系統"}},{"type":"Feature","geometry":{"type":"Point","coordinates":[121.509039,25.038926]},"properties":{"uid":"welfare_00026","name":"中華民國紅十字會台灣省分會","welfare_class":"gov_welfare_office","uni_no":"3702883","address":"臺北市中正區貴陽街一段60號","city":"臺北市","coord_source":"tgos_upstream","coord_precision":"upstream","src_datasets":"165355","n_src":1,"sub_code":"T0104","permit_status":"C04","inst_code":"AAD00002453","src_system":"無來源系統"}},{"type":"Feature","geometry":{"type":"Point","coordinates":[121.508127,25.03581]},"properties":{"uid":"welfare_00031","name":"內政部移民署","welfare_class":"gov_welfare_office","uni_no":"4122429","address":"臺北市中正區廣州街15號","city":"臺北市","coord_source":"tgos_upstream","coord_precision":"upstream","src_datasets":"165355","n_src":1,"sub_code":"T0199","permit_status":"C04","inst_code":"AAZ00000435","src_system":"無來源系統"}},{"type":"Feature","geometry":{"type":"Point","coordinates":[121.574299,25.033073]},"properties":{"uid":"welfare_00032","name":"臺北市少年輔導委員會","welfare_class":"gov_welfare_office","uni_no":"4152485","address":"臺北市信義區信義路5段180號","city":"臺北市","coord_source":"tgos_upstream","coord_precision":"upstream","src_datasets":"165355","n_src":1,"sub_code":"T0199","permit_status":"C04","inst_code":"AAZ00000688","src_system":"無來源系統"}},{"type":"Feature","geometry":{"type":"Point","coordinates":[121.515977,25.095988]},"properties":{"uid":"welfare_00034","name":"國立臺灣科學教育館","welfare_class":"gov_welfare_office","uni_no":"3734105","address":"臺北市士林區士商路189號","city":"臺北市","coord_source":"tgos_upstream","coord_precision":"upstream","src_datasets":"165355","n_src":1,"sub_code":"T0199","permit_status":"C04","inst_code":"AAZ00002361","src_system":"無來源系統"}},{"type":"Feature","geometry":{"type":"Point","coordinates":[121.52224,25.03901]},"properties":{"uid":"welfare_00035","name":"臺北市青少年發展暨家庭教育中心","welfare_class":"gov_welfare_office","uni_no":"38634320","address":"臺北市中正區仁愛路一段17號","city":"臺北市","coord_source":"tgos_upstream","coord_precision":"upstream","src_datasets":"165355","n_src":1,"sub_code":"T0203","permit_status":"C04","inst_code":"ABC00001229","src_system":"無來源系統"}},{"type":"Feature","geometry":{"type":"Point","coordinates":[120.71402,24.248291]},"properties":{"uid":"welfare_00876","name":"臺中市政府衛生局","welfare_class":"gov_welfare_office","uni_no":"55507404","address":"臺中市豐原區中興路136號","city":"臺中市","coord_source":"tgos_upstream","coord_precision":"upstream","src_datasets":"165355","n_src":1,"sub_code":"T0101","permit_status":"C04","inst_code":"BAA00003409","src_system":"無來源系統"}},{"type":"Feature","geometry":{"type":"Point","coordinates":[120.720695,24.246683]},"properties":{"uid":"welfare_00877","name":"臺中市政府教育局","welfare_class":"gov_welfare_office","uni_no":"10927401","address":"臺中市豐原區陽明街36號","city":"臺中市","coord_source":"tgos_upstream","coord_precision":"upstream","src_datasets":"165355","n_src":1,"sub_code":"T0101","permit_status":"C04","inst_code":"BAA00003850","src_system":"無來源系統"}},{"type":"Feature","geometry":{"type":"Point","coordinates":[120.647296,24.161988]},"properties":{"uid":"welfare_00878","name":"臺中市政府社會局","welfare_class":"gov_welfare_office","uni_no":"10927325","address":"臺中市西屯區臺灣大道三段99號","city":"臺中市","coord_source":"tgos_upstream","coord_precision":"upstream","src_datasets":"165355","n_src":1,"sub_code":"T0101","permit_status":"C04","inst_code":"BAA00005849","src_system":"無來源系統"}},{"type":"Feature","geometry":{"type":"Point","coordinates":[120.720695,24.246683]},"properties":{"uid":"welfare_00879","name":"臺中市家庭暴力及性侵害防治中心","welfare_class":"gov_welfare_office","uni_no":"9261666","address":"臺中市豐原區陽明街36號3樓","city":"臺中市","coord_source":"tgos_upstream","coord_precision":"upstream","src_datasets":"165355","n_src":1,"sub_code":"T0102","permit_status":"C04","inst_code":"BAB00001112","src_system":"無來源系統"}},{"type":"Feature","geometry":{"type":"Point","coordinates":[120.698569,24.058944]},"properties":{"uid":"welfare_00898","name":"教育部學生輔導諮商中心","welfare_class":"gov_welfare_office","uni_no":"57302906","address":"臺中市霧峰區中正路738之4號","city":"臺中市","coord_source":"tgos_upstream","coord_precision":"upstream","src_datasets":"165355","n_src":1,"sub_code":"T0199","permit_status":"C04","inst_code":"BAZ00001398","src_system":"無來源系統"}},{"type":"Feature","geometry":{"type":"Point","coordinates":[120.633999,24.155888]},"properties":{"uid":"welfare_00899","name":"臺中市少年輔導委員會","welfare_class":"gov_welfare_office","uni_no":"10928020","address":"臺中市南屯區干城街2號","city":"臺中市","coord_source":"tgos_upstream","coord_precision":"upstream","src_datasets":"165355","n_src":1,"sub_code":"T0199","permit_status":"C04","inst_code":"BAZ00004485","src_system":"無來源系統"}},{"type":"Feature","geometry":{"type":"Point","coordinates":[121.74733,25.125219]},"properties":{"uid":"welfare_01869","name":"基隆市警察局","welfare_class":"gov_welfare_office","uni_no":"516702","address":"基隆市仁愛區仁二路137巷24號","city":"基隆市","coord_source":"tgos_upstream","coord_precision":"upstream","src_datasets":"165355","n_src":1,"sub_code":"T0101","permit_status":"C04","inst_code":"CAA00000177","src_system":"無來源系統"}},{"type":"Feature","geometry":{"type":"Point","coordinates":[121.744507,25.131677]},"properties":{"uid":"welfare_01870","name":"基隆市政府","welfare_class":"gov_welfare_office","uni_no":"508203","address":"基隆市中正區義一路1號","city":"基隆市","coord_source":"tgos_upstream","coord_precision":"upstream","src_datasets":"165355","n_src":1,"sub_code":"T0101","permit_status":"C04","inst_code":"CAA00000366","src_system":"無來源系統"}},{"type":"Feature","geometry":{"type":"Point","coordinates":[121.759033,25.140862]},"properties":{"uid":"welfare_01871","name":"基隆市政府民政處","welfare_class":"gov_welfare_office","uni_no":"508203","address":"基隆市中正區基隆市中正區中正路236號4樓","city":"基隆市","coord_source":"google","coord_precision":"exact","src_datasets":"165355","n_src":1,"sub_code":"T0101","permit_status":"C03","inst_code":"CAA00003354","src_system":"無來源系統"}},{"type":"Feature","geometry":{"type":"Point","coordinates":[120.185032,22.989682]},"properties":{"uid":"welfare_01965","name":"臺南市政府教育局","welfare_class":"gov_welfare_office","uni_no":"36724583","address":"臺南市安平區70801臺南市安平區永華路二段6號","city":"臺南市","coord_source":"google","coord_precision":"exact","src_datasets":"165355","n_src":1,"sub_code":"T0101","permit_status":"C04","inst_code":"DAA00002840","src_system":"無來源系統"}},{"type":"Feature","geometry":{"type":"Point","coordinates":[120.184747,22.989657]},"properties":{"uid":"welfare_01966","name":"臺南市政府社會局","welfare_class":"gov_welfare_office","uni_no":"36724676","address":"臺南市安平區永華路二段6號7樓","city":"臺南市","coord_source":"tgos_upstream","coord_precision":"upstream","src_datasets":"165355","n_src":1,"sub_code":"T0101","permit_status":"C04","inst_code":"DAA00345309","src_system":"無來源系統"}},{"type":"Feature","geometry":{"type":"Point","coordinates":[120.184747,22.989657]},"properties":{"uid":"welfare_01967","name":"台南市政府社會局服務提供單位","welfare_class":"gov_welfare_office","uni_no":"36724676","address":"臺南市安平區永華路二段6號","city":"臺南市","coord_source":"tgos_upstream","coord_precision":"upstream","src_datasets":"165355","n_src":1,"sub_code":"T0101","permit_status":"C04","inst_code":"DAA00345787","src_system":"全國身心障礙福利資訊整合平台"}},{"type":"Feature","geometry":{"type":"Point","coordinates":[120.184747,22.989657]},"properties":{"uid":"welfare_01968","name":"臺南市政府家庭暴力暨性侵害防治中心","welfare_class":"gov_welfare_office","uni_no":"36793342","address":"臺南市安平區永華路二段6號6樓","city":"臺南市","coord_source":"tgos_upstream","coord_precision":"upstream","src_datasets":"165355","n_src":1,"sub_code":"T0102","permit_status":"C04","inst_code":"DAB00005323","src_system":"無來源系統"}},{"type":"Feature","geometry":{"type":"Point","coordinates":[120.210536,22.990601]},"properties":{"uid":"welfare_01985","name":"臺南市政府少年輔導委員會","welfare_class":"gov_welfare_office","uni_no":"36751743","address":"臺南市中西區北門路一段51巷18號之3","city":"臺南市","coord_source":"tgos_upstream","coord_precision":"upstream","src_datasets":"165355","n_src":1,"sub_code":"T0199","permit_status":"C04","inst_code":"DAZ00001459","src_system":"無來源系統"}},{"type":"Feature","geometry":{"type":"Point","coordinates":[120.31215,22.621777]},"properties":{"uid":"welfare_02754","name":"高雄市政府社會局家庭暴力及性侵害防治中心","welfare_class":"gov_welfare_office","uni_no":"15756031","address":"高雄市苓雅區民權一路85號10樓","city":"高雄市","coord_source":"tgos_upstream","coord_precision":"upstream","src_datasets":"165355","n_src":1,"sub_code":"T0102","permit_status":"C04","inst_code":"EAB00001506","src_system":"無來源系統"}},{"type":"Feature","geometry":{"type":"Point","coordinates":[120.720215,23.277037]},"properties":{"uid":"welfare_02778","name":"高雄市那瑪夏區公所","welfare_class":"gov_welfare_office","uni_no":"85689465","address":"高雄市那瑪夏區達卡努瓦里大光巷230號","city":"高雄市","coord_source":"tgos_upstream","coord_precision":"upstream","src_datasets":"165355","n_src":1,"sub_code":"T0107","permit_status":"C04","inst_code":"EAG00002834","src_system":"無來源系統"}},{"type":"Feature","geometry":{"type":"Point","coordinates":[120.333123,22.639467]},"properties":{"uid":"welfare_02780","name":"高雄市政府教育局學生輔導諮商中心","welfare_class":"gov_welfare_office","uni_no":"76200078","address":"高雄市三民區覺民路363號","city":"高雄市","coord_source":"tgos_upstream","coord_precision":"upstream","src_datasets":"165355","n_src":1,"sub_code":"T0199","permit_status":"C04","inst_code":"EAZ00004004","src_system":"無來源系統"}},{"type":"Feature","geometry":{"type":"Point","coordinates":[120.334057,22.640807]},"properties":{"uid":"welfare_02781","name":"高雄市政府少年輔導委員會","welfare_class":"gov_welfare_office","uni_no":"76221904","address":"高雄市三民區高雄市三民區覺民路366號9樓","city":"高雄市","coord_source":"google","coord_precision":"exact","src_datasets":"165355","n_src":1,"sub_code":"T0199","permit_status":"C04","inst_code":"EAZ00004428","src_system":"無來源系統"}},{"type":"Feature","geometry":{"type":"Point","coordinates":[121.465654,25.012153]},"properties":{"uid":"welfare_03768","name":"新北市政府社會局","welfare_class":"gov_welfare_office","uni_no":"10048046","address":"新北市板橋區中山路1段161號25樓","city":"新北市","coord_source":"tgos_upstream","coord_precision":"upstream","src_datasets":"165355","n_src":1,"sub_code":"T0101","permit_status":"C04","inst_code":"FAA00347035","src_system":"無來源系統"}},{"type":"Feature","geometry":{"type":"Point","coordinates":[121.45648,25.013759]},"properties":{"uid":"welfare_03769","name":"新北市政府家庭暴力暨性侵害防治中心","welfare_class":"gov_welfare_office","uni_no":"18253913","address":"新北市板橋區中正路10號3樓","city":"新北市","coord_source":"tgos_upstream","coord_precision":"upstream","src_datasets":"165355","n_src":1,"sub_code":"T0102","permit_status":"C04","inst_code":"FAB00347043","src_system":"無來源系統"}},{"type":"Feature","geometry":{"type":"Point","coordinates":[121.616756,24.981604]},"properties":{"uid":"welfare_03784","name":"財團法人台灣省私立健順養護中心受託經營管理臺北市中山老人住宅暨服務中心","welfare_class":"gov_welfare_office","uni_no":"76768312","address":"新北市深坑區昇高里王軍寮9號","city":"新北市","coord_source":"tgos_upstream","coord_precision":"upstream","src_datasets":"165355","n_src":1,"sub_code":"T0104","permit_status":"C04","inst_code":"FAD00000883","src_system":"無來源系統"}},{"type":"Feature","geometry":{"type":"Point","coordinates":[121.500753,25.258407]},"properties":{"uid":"welfare_03788","name":"新北市三芝區衛生所","welfare_class":"gov_welfare_office","uni_no":"33796155","address":"新北市三芝區中山路一段12號","city":"新北市","coord_source":"tgos_upstream","coord_precision":"upstream","src_datasets":"165355","n_src":1,"sub_code":"T0108","permit_status":"C04","inst_code":"FAH00002256","src_system":"無來源系統"}},{"type":"Feature","geometry":{"type":"Point","coordinates":[121.547977,24.871966]},"properties":{"uid":"welfare_03789","name":"新北市烏來區衛生所","welfare_class":"gov_welfare_office","uni_no":"33848301","address":"新北市烏來區新烏路五段109號","city":"新北市","coord_source":"tgos_upstream","coord_precision":"upstream","src_datasets":"165355","n_src":1,"sub_code":"T0108","permit_status":"C04","inst_code":"FAH00003183","src_system":"無來源系統"}},{"type":"Feature","geometry":{"type":"Point","coordinates":[121.490598,25.077856]},"properties":{"uid":"welfare_03790","name":"新北市三重新住民家庭暨婦女服務中心","welfare_class":"gov_welfare_office","uni_no":"10048046","address":"新北市三重區溪尾街73號6樓","city":"新北市","coord_source":"tgos_upstream","coord_precision":"upstream","src_datasets":"165355","n_src":1,"sub_code":"T0199","permit_status":"C04","inst_code":"FAZ00002591","src_system":"無來源系統"}},{"type":"Feature","geometry":{"type":"Point","coordinates":[121.755236,24.752478]},"properties":{"uid":"welfare_04993","name":"宜蘭縣政府教育處特教資源中心","welfare_class":"gov_welfare_office","uni_no":"40401902","address":"宜蘭縣宜蘭市民權路一段36號","city":"宜蘭縣","coord_source":"tgos_upstream","coord_precision":"upstream","src_datasets":"165355","n_src":1,"sub_code":"T0101","permit_status":"C04","inst_code":"GAA00000911","src_system":"無來源系統"}},{"type":"Feature","geometry":{"type":"Point","coordinates":[121.747761,24.754771]},"properties":{"uid":"welfare_05001","name":"宜蘭縣學生輔導諮商中心","welfare_class":"gov_welfare_office","uni_no":"40401902","address":"宜蘭縣宜蘭市泰山路60號4樓","city":"宜蘭縣","coord_source":"tgos_upstream","coord_precision":"upstream","src_datasets":"165355","n_src":1,"sub_code":"T0199","permit_status":"C04","inst_code":"GAZ00001645","src_system":"無來源系統"}},{"type":"Feature","geometry":{"type":"Point","coordinates":[121.753804,24.749141]},"properties":{"uid":"welfare_05002","name":"宜蘭縣政府警察局(宜蘭縣少年輔導委員會)","welfare_class":"gov_welfare_office","uni_no":"40401403","address":"宜蘭縣宜蘭市中山路二段167號","city":"宜蘭縣","coord_source":"tgos_upstream","coord_precision":"upstream","src_datasets":"165355","n_src":1,"sub_code":"T0199","permit_status":"C04","inst_code":"GAZ00002734","src_system":"無來源系統"}},{"type":"Feature","geometry":{"type":"Point","coordinates":[121.755236,24.752478]},"properties":{"uid":"welfare_05003","name":"宜蘭縣家庭教育中心","welfare_class":"gov_welfare_office","uni_no":"77010414","address":"宜蘭縣宜蘭市民權路一段36號","city":"宜蘭縣","coord_source":"tgos_upstream","coord_precision":"upstream","src_datasets":"165355","n_src":1,"sub_code":"T0203","permit_status":"C04","inst_code":"GBC00001764","src_system":"無來源系統"}},{"type":"Feature","geometry":{"type":"Point","coordinates":[121.300207,24.993041]},"properties":{"uid":"welfare_05214","name":"桃園市政府衛生局","welfare_class":"gov_welfare_office","uni_no":"43504001","address":"桃園市桃園區縣府路55號","city":"桃園市","coord_source":"tgos_upstream","coord_precision":"upstream","src_datasets":"165355","n_src":1,"sub_code":"T0101","permit_status":"C04","inst_code":"HAA00003421","src_system":"無來源系統"}},{"type":"Feature","geometry":{"type":"Point","coordinates":[121.299721,24.993245]},"properties":{"uid":"welfare_05215","name":"桃園市政府家庭暴力暨性侵害防治中心","welfare_class":"gov_welfare_office","uni_no":"49899797","address":"桃園市桃園區縣府路51號6樓","city":"桃園市","coord_source":"tgos_upstream","coord_precision":"upstream","src_datasets":"165355","n_src":1,"sub_code":"T0102","permit_status":"C04","inst_code":"HAB00005310","src_system":"無來源系統"}},{"type":"Feature","geometry":{"type":"Point","coordinates":[121.305105,24.995819]},"properties":{"uid":"welfare_05234","name":"桃園市政府家庭教育中心","welfare_class":"gov_welfare_office","uni_no":"49987118","address":"桃園市桃園區莒光街1號","city":"桃園市","coord_source":"tgos_upstream","coord_precision":"upstream","src_datasets":"165355","n_src":1,"sub_code":"T0199","permit_status":"C04","inst_code":"HAZ00004768","src_system":"無來源系統"}},{"type":"Feature","geometry":{"type":"Point","coordinates":[120.453676,23.481026]},"properties":{"uid":"welfare_05811","name":"嘉義市政府社會處救助及身障福利科","welfare_class":"gov_welfare_office","uni_no":"66014005","address":"嘉義市東區嘉義市東區中山路199號","city":"嘉義市","coord_source":"google","coord_precision":"approximate","src_datasets":"165355","n_src":1,"sub_code":"T0101","permit_status":"C04","inst_code":"IAA00002467","src_system":"無來源系統"}},{"type":"Feature","geometry":{"type":"Point","coordinates":[120.453676,23.481026]},"properties":{"uid":"welfare_05812","name":"嘉義市政府社會處兒少及婦女福利科","welfare_class":"gov_welfare_office","uni_no":"66014005","address":"嘉義市東區嘉義市東區中山路199號","city":"嘉義市","coord_source":"google","coord_precision":"approximate","src_datasets":"165355","n_src":1,"sub_code":"T0101","permit_status":"C04","inst_code":"IAA00002494","src_system":"無來源系統"}},{"type":"Feature","geometry":{"type":"Point","coordinates":[120.45458,23.48141]},"properties":{"uid":"welfare_05813","name":"嘉義市政府警察局","welfare_class":"gov_welfare_office","uni_no":"66601573","address":"嘉義市東區中山路195號","city":"嘉義市","coord_source":"tgos_upstream","coord_precision":"upstream","src_datasets":"165355","n_src":1,"sub_code":"T0101","permit_status":"C04","inst_code":"IAA00003277","src_system":"無來源系統"}},{"type":"Feature","geometry":{"type":"Point","coordinates":[120.43119,23.479949]},"properties":{"uid":"welfare_05814","name":"嘉義市政府衛生局","welfare_class":"gov_welfare_office","uni_no":"6247769","address":"嘉義市西區德明路1號","city":"嘉義市","coord_source":"tgos_upstream","coord_precision":"upstream","src_datasets":"165355","n_src":1,"sub_code":"T0101","permit_status":"C04","inst_code":"IAA00003862","src_system":"無來源系統"}},{"type":"Feature","geometry":{"type":"Point","coordinates":[120.453676,23.481026]},"properties":{"uid":"welfare_05815","name":"嘉義市政府社會處社會工作科","welfare_class":"gov_welfare_office","uni_no":"66014005","address":"嘉義市東區嘉義市東區中山路199號","city":"嘉義市","coord_source":"google","coord_precision":"approximate","src_datasets":"165355","n_src":1,"sub_code":"T0102","permit_status":"C04","inst_code":"IAB00002916","src_system":"無來源系統"}},{"type":"Feature","geometry":{"type":"Point","coordinates":[120.433139,23.484179]},"properties":{"uid":"welfare_05820","name":"嘉義市新住民家庭服務中心","welfare_class":"gov_welfare_office","uni_no":"66014005","address":"嘉義市西區德安路6號4F","city":"嘉義市","coord_source":"tgos_upstream","coord_precision":"upstream","src_datasets":"165355","n_src":1,"sub_code":"T0199","permit_status":"C04","inst_code":"IAZ00002237","src_system":"無來源系統"}},{"type":"Feature","geometry":{"type":"Point","coordinates":[120.459446,23.484414]},"properties":{"uid":"welfare_05821","name":"嘉義市學生輔導諮商中心","welfare_class":"gov_welfare_office","uni_no":"66014005","address":"嘉義市東區嘉義市東區山仔頂269-1號3樓","city":"嘉義市","coord_source":"tgos_upstream","coord_precision":"upstream","src_datasets":"165355","n_src":1,"sub_code":"T0199","permit_status":"C04","inst_code":"IAZ00003119","src_system":"無來源系統"}},{"type":"Feature","geometry":{"type":"Point","coordinates":[121.012918,24.826861]},"properties":{"uid":"welfare_05934","name":"新竹縣政府","welfare_class":"gov_welfare_office","uni_no":"46806205","address":"新竹縣竹北市光明六路10號","city":"新竹縣","coord_source":"tgos_upstream","coord_precision":"upstream","src_datasets":"165355","n_src":1,"sub_code":"T0101","permit_status":"C04","inst_code":"JAA00003780","src_system":"無來源系統"}},{"type":"Feature","geometry":{"type":"Point","coordinates":[121.011263,24.826934]},"properties":{"uid":"welfare_05935","name":"新竹縣政府少年輔導委員會","welfare_class":"gov_welfare_office","uni_no":"46806704","address":"新竹縣竹北市光明六路12號","city":"新竹縣","coord_source":"tgos_upstream","coord_precision":"upstream","src_datasets":"165355","n_src":1,"sub_code":"T0101","permit_status":"C04","inst_code":"JAA00004068","src_system":"無來源系統"}},{"type":"Feature","geometry":{"type":"Point","coordinates":[121.019036,24.823798]},"properties":{"uid":"welfare_05944","name":"新竹縣家庭教育中心","welfare_class":"gov_welfare_office","uni_no":"10594234","address":"新竹縣竹北市莊敬一路2號","city":"新竹縣","coord_source":"tgos_upstream","coord_precision":"upstream","src_datasets":"165355","n_src":1,"sub_code":"T0203","permit_status":"C04","inst_code":"JBC00003589","src_system":"無來源系統"}},{"type":"Feature","geometry":{"type":"Point","coordinates":[120.819712,24.563531]},"properties":{"uid":"welfare_06143","name":"苗栗縣警察局","welfare_class":"gov_welfare_office","uni_no":"49505506","address":"苗栗縣苗栗市府前路2號","city":"苗栗縣","coord_source":"tgos_upstream","coord_precision":"upstream","src_datasets":"165355","n_src":1,"sub_code":"T0101","permit_status":"C04","inst_code":"KAA00000340","src_system":"無來源系統"}},{"type":"Feature","geometry":{"type":"Point","coordinates":[120.789238,24.611598]},"properties":{"uid":"welfare_06144","name":"苗栗縣政府毒品防制及心理衛生中心","welfare_class":"gov_welfare_office","uni_no":"47563402","address":"苗栗縣後龍鎮光華路371號","city":"苗栗縣","coord_source":"tgos_upstream","coord_precision":"upstream","src_datasets":"165355","n_src":1,"sub_code":"T0101","permit_status":"C04","inst_code":"KAA00003365","src_system":"無來源系統"}},{"type":"Feature","geometry":{"type":"Point","coordinates":[120.820634,24.563144]},"properties":{"uid":"welfare_06145","name":"苗栗縣政府原住民族事務中心","welfare_class":"gov_welfare_office","uni_no":"47617961","address":"苗栗縣苗栗市苗栗市府前路3號","city":"苗栗縣","coord_source":"google","coord_precision":"exact","src_datasets":"165355","n_src":1,"sub_code":"T0101","permit_status":"C04","inst_code":"KAA00003996","src_system":"無來源系統"}},{"type":"Feature","geometry":{"type":"Point","coordinates":[120.770252,24.412813]},"properties":{"uid":"welfare_06153","name":"苗栗縣三義鄉公所","welfare_class":"gov_welfare_office","uni_no":"49500404","address":"苗栗縣三義鄉廣盛村復興路30號","city":"苗栗縣","coord_source":"tgos_upstream","coord_precision":"upstream","src_datasets":"165355","n_src":1,"sub_code":"T0107","permit_status":"C01","inst_code":"KAG00000065","src_system":"無來源系統"}},{"type":"Feature","geometry":{"type":"Point","coordinates":[120.814187,24.614069]},"properties":{"uid":"welfare_06154","name":"後龍鎮公所","welfare_class":"gov_welfare_office","uni_no":"50402704","address":"苗栗縣後龍鎮新民里中心路121-5號","city":"苗栗縣","coord_source":"tgos_upstream","coord_precision":"upstream","src_datasets":"165355","n_src":1,"sub_code":"T0107","permit_status":"C04","inst_code":"KAG00001866","src_system":"無來源系統"}},{"type":"Feature","geometry":{"type":"Point","coordinates":[120.82844,24.505942]},"properties":{"uid":"welfare_06155","name":"苗栗縣公館鄉公所","welfare_class":"gov_welfare_office","uni_no":"49501403","address":"苗栗縣公館鄉玉泉村14鄰368-10號","city":"苗栗縣","coord_source":"tgos_upstream","coord_precision":"upstream","src_datasets":"165355","n_src":1,"sub_code":"T0107","permit_status":"C04","inst_code":"KAG00002324","src_system":"無來源系統"}},{"type":"Feature","geometry":{"type":"Point","coordinates":[120.688534,23.90246]},"properties":{"uid":"welfare_06288","name":"南投縣政府衛生局","welfare_class":"gov_welfare_office","uni_no":"61605305","address":"南投縣南投市復興路6號","city":"南投縣","coord_source":"tgos_upstream","coord_precision":"upstream","src_datasets":"165355","n_src":1,"sub_code":"T0101","permit_status":"C04","inst_code":"MAA00004722","src_system":"無來源系統"}},{"type":"Feature","geometry":{"type":"Point","coordinates":[120.690399,23.902526]},"properties":{"uid":"welfare_06289","name":"南投縣政府","welfare_class":"gov_welfare_office","uni_no":"61604805","address":"南投縣南投市中興路660號","city":"南投縣","coord_source":"tgos_upstream","coord_precision":"upstream","src_datasets":"165355","n_src":1,"sub_code":"T0101","permit_status":"C04","inst_code":"MAA00345292","src_system":"無來源系統"}},{"type":"Feature","geometry":{"type":"Point","coordinates":[120.675402,23.913089]},"properties":{"uid":"welfare_06297","name":"南投縣學生輔導諮商中心","welfare_class":"gov_welfare_office","uni_no":"61617604","address":"南投縣南投市南投縣南投市祖祠路361號","city":"南投縣","coord_source":"google","coord_precision":"exact","src_datasets":"165355","n_src":1,"sub_code":"T0199","permit_status":"C04","inst_code":"MAZ00002657","src_system":"無來源系統"}},{"type":"Feature","geometry":{"type":"Point","coordinates":[120.678713,23.910062]},"properties":{"uid":"welfare_06298","name":"南投縣政府警察局","welfare_class":"gov_welfare_office","uni_no":"61606000","address":"南投縣南投市南崗二路133號","city":"南投縣","coord_source":"tgos_upstream","coord_precision":"upstream","src_datasets":"165355","n_src":1,"sub_code":"T0199","permit_status":"C04","inst_code":"MAZ00002783","src_system":"無來源系統"}},{"type":"Feature","geometry":{"type":"Point","coordinates":[120.546148,24.069951]},"properties":{"uid":"welfare_06502","name":"彰化縣政府社會處","welfare_class":"gov_welfare_office","uni_no":"58807307","address":"彰化縣彰化市中興路100號6樓","city":"彰化縣","coord_source":"tgos_upstream","coord_precision":"upstream","src_datasets":"165355","n_src":1,"sub_code":"T0101","permit_status":"C04","inst_code":"NAA00003209","src_system":"無來源系統"}},{"type":"Feature","geometry":{"type":"Point","coordinates":[120.54163,24.069095]},"properties":{"uid":"welfare_06503","name":"彰化縣衛生局","welfare_class":"gov_welfare_office","uni_no":"58813700","address":"彰化縣彰化市中山路二段162號","city":"彰化縣","coord_source":"tgos_upstream","coord_precision":"upstream","src_datasets":"165355","n_src":1,"sub_code":"T0101","permit_status":"C04","inst_code":"NAA00004244","src_system":"無來源系統"}},{"type":"Feature","geometry":{"type":"Point","coordinates":[120.534336,24.065905]},"properties":{"uid":"welfare_06514","name":"彰化縣少年輔導委員會","welfare_class":"gov_welfare_office","uni_no":"58807904","address":"彰化縣彰化市中正路二段778號2樓","city":"彰化縣","coord_source":"tgos_upstream","coord_precision":"upstream","src_datasets":"165355","n_src":1,"sub_code":"T0199","permit_status":"C04","inst_code":"NAZ00002854","src_system":"無來源系統"}},{"type":"Feature","geometry":{"type":"Point","coordinates":[120.547066,24.07672]},"properties":{"uid":"welfare_06515","name":"彰化縣教育處學生輔導諮商中心","welfare_class":"gov_welfare_office","uni_no":"58807307","address":"彰化縣彰化市彰化市公園路一段409號","city":"彰化縣","coord_source":"google","coord_precision":"exact","src_datasets":"165355","n_src":1,"sub_code":"T0199","permit_status":"C04","inst_code":"NAZ00003970","src_system":"無來源系統"}},{"type":"Feature","geometry":{"type":"Point","coordinates":[120.968546,24.806374]},"properties":{"uid":"welfare_06852","name":"新竹市少年輔導委員會","welfare_class":"gov_welfare_office","uni_no":"98274307","address":"新竹市北區中山路1號","city":"新竹市","coord_source":"tgos_upstream","coord_precision":"upstream","src_datasets":"165355","n_src":1,"sub_code":"T0101","permit_status":"C04","inst_code":"OAA00002876","src_system":"無來源系統"}},{"type":"Feature","geometry":{"type":"Point","coordinates":[120.976231,24.80967]},"properties":{"uid":"welfare_06853","name":"新竹市衛生局","welfare_class":"gov_welfare_office","uni_no":"98271131","address":"新竹市東區中央路241號10-12樓","city":"新竹市","coord_source":"tgos_upstream","coord_precision":"upstream","src_datasets":"165355","n_src":1,"sub_code":"T0101","permit_status":"C04","inst_code":"OAA00004117","src_system":"無來源系統"}},{"type":"Feature","geometry":{"type":"Point","coordinates":[120.972509,24.805696]},"properties":{"uid":"welfare_06859","name":"新竹市學生輔導諮商中心","welfare_class":"gov_welfare_office","uni_no":"46806508","address":"新竹市東區民族路33號","city":"新竹市","coord_source":"tgos_upstream","coord_precision":"upstream","src_datasets":"165355","n_src":1,"sub_code":"T0199","permit_status":"C04","inst_code":"OAZ00002394","src_system":"無來源系統"}},{"type":"Feature","geometry":{"type":"Point","coordinates":[120.526314,23.698962]},"properties":{"uid":"welfare_07021","name":"雲林縣政府","welfare_class":"gov_welfare_office","uni_no":"63504417","address":"雲林縣斗六市雲林路二段515號","city":"雲林縣","coord_source":"tgos_upstream","coord_precision":"upstream","src_datasets":"165355","n_src":1,"sub_code":"T0101","permit_status":"C04","inst_code":"PAA00004017","src_system":"無來源系統"}},{"type":"Feature","geometry":{"type":"Point","coordinates":[120.53507,23.697821]},"properties":{"uid":"welfare_07031","name":"雲林縣少年輔導委員會","welfare_class":"gov_welfare_office","uni_no":"63505106","address":"雲林縣斗六市大學路三段100號","city":"雲林縣","coord_source":"tgos_upstream","coord_precision":"upstream","src_datasets":"165355","n_src":1,"sub_code":"T0199","permit_status":"C04","inst_code":"PAZ00000412","src_system":"無來源系統"}},{"type":"Feature","geometry":{"type":"Point","coordinates":[120.526314,23.698962]},"properties":{"uid":"welfare_07032","name":"雲林縣政府教育處學生輔導諮商中心","welfare_class":"gov_welfare_office","uni_no":"63504417","address":"雲林縣斗六市雲林路二段515號","city":"雲林縣","coord_source":"tgos_upstream","coord_precision":"upstream","src_datasets":"165355","n_src":1,"sub_code":"T0199","permit_status":"C04","inst_code":"PAZ00002096","src_system":"無來源系統"}},{"type":"Feature","geometry":{"type":"Point","coordinates":[120.292894,23.457536]},"properties":{"uid":"welfare_07310","name":"嘉義縣衛生局","welfare_class":"gov_welfare_office","uni_no":"66015200","address":"嘉義縣太保市祥和二路東段3號","city":"嘉義縣","coord_source":"tgos_upstream","coord_precision":"upstream","src_datasets":"165355","n_src":1,"sub_code":"T0101","permit_status":"C04","inst_code":"QAA00000010","src_system":"無來源系統"}},{"type":"Feature","geometry":{"type":"Point","coordinates":[120.294898,23.45868]},"properties":{"uid":"welfare_07311","name":"嘉義縣警察局","welfare_class":"gov_welfare_office","uni_no":"66010401","address":"嘉義縣太保市祥和一路東段3號","city":"嘉義縣","coord_source":"tgos_upstream","coord_precision":"upstream","src_datasets":"165355","n_src":1,"sub_code":"T0101","permit_status":"C04","inst_code":"QAA00002865","src_system":"無來源系統"}},{"type":"Feature","geometry":{"type":"Point","coordinates":[120.249663,23.46608]},"properties":{"uid":"welfare_07312","name":"嘉義縣學生輔導諮商中心","welfare_class":"gov_welfare_office","uni_no":"66015102","address":"嘉義縣朴子市山通路7號","city":"嘉義縣","coord_source":"tgos_upstream","coord_precision":"upstream","src_datasets":"165355","n_src":1,"sub_code":"T0101","permit_status":"C04","inst_code":"QAA00003396","src_system":"無來源系統"}},{"type":"Feature","geometry":{"type":"Point","coordinates":[120.292508,23.457619]},"properties":{"uid":"welfare_07313","name":"嘉義縣社會局","welfare_class":"gov_welfare_office","uni_no":"36792694","address":"嘉義縣太保市祥和二路東段1號","city":"嘉義縣","coord_source":"tgos_upstream","coord_precision":"upstream","src_datasets":"165355","n_src":1,"sub_code":"T0101","permit_status":"C04","inst_code":"QAA00005277","src_system":"無來源系統"}},{"type":"Feature","geometry":{"type":"Point","coordinates":[120.593247,23.295278]},"properties":{"uid":"welfare_07322","name":"嘉義縣大埔鄉衛生所","welfare_class":"gov_welfare_office","uni_no":"66423310","address":"嘉義縣大埔鄉大埔53-1號","city":"嘉義縣","coord_source":"tgos_upstream","coord_precision":"upstream","src_datasets":"165355","n_src":1,"sub_code":"T0108","permit_status":"C04","inst_code":"QAH00346560","src_system":"失智照護管理系統"}},{"type":"Feature","geometry":{"type":"Point","coordinates":[120.534425,23.498859]},"properties":{"uid":"welfare_07323","name":"嘉義縣山區新住民家庭服務中心","welfare_class":"gov_welfare_office","uni_no":"36792694","address":"嘉義縣竹崎鄉鹿滿村鹿鳴路2號","city":"嘉義縣","coord_source":"tgos_upstream","coord_precision":"upstream","src_datasets":"165355","n_src":1,"sub_code":"T0199","permit_status":"C04","inst_code":"QAZ00000196","src_system":"無來源系統"}},{"type":"Feature","geometry":{"type":"Point","coordinates":[120.249832,23.466733]},"properties":{"uid":"welfare_07324","name":"嘉義縣海區新住民家庭服務中心","welfare_class":"gov_welfare_office","uni_no":"36792694","address":"嘉義縣朴子市朴子市山通路7號2樓","city":"嘉義縣","coord_source":"google","coord_precision":"exact","src_datasets":"165355","n_src":1,"sub_code":"T0199","permit_status":"C04","inst_code":"QAZ00000213","src_system":"無來源系統"}},{"type":"Feature","geometry":{"type":"Point","coordinates":[120.294235,23.456762]},"properties":{"uid":"welfare_07325","name":"嘉義縣家庭教育中心","welfare_class":"gov_welfare_office","uni_no":"10746725","address":"嘉義縣太保市祥和二路東段8號","city":"嘉義縣","coord_source":"tgos_upstream","coord_precision":"upstream","src_datasets":"165355","n_src":1,"sub_code":"T0203","permit_status":"C04","inst_code":"QBC00001836","src_system":"無來源系統"}},{"type":"Feature","geometry":{"type":"Point","coordinates":[120.508696,22.698457]},"properties":{"uid":"welfare_07493","name":"屏東縣政府少年輔導委員會","welfare_class":"gov_welfare_office","uni_no":"91005308","address":"屏東縣屏東市海豐街18號","city":"屏東縣","coord_source":"tgos_upstream","coord_precision":"upstream","src_datasets":"165355","n_src":1,"sub_code":"T0101","permit_status":"C04","inst_code":"TAA00003339","src_system":"無來源系統"}},{"type":"Feature","geometry":{"type":"Point","coordinates":[120.487956,22.682918]},"properties":{"uid":"welfare_07494","name":"屏東縣政府社會處社工科","welfare_class":"gov_welfare_office","uni_no":"91005200","address":"屏東縣屏東市自由路527號","city":"屏東縣","coord_source":"tgos_upstream","coord_precision":"upstream","src_datasets":"165355","n_src":1,"sub_code":"T0101","permit_status":"C04","inst_code":"TAA00003483","src_system":"無來源系統"}},{"type":"Feature","geometry":{"type":"Point","coordinates":[120.487956,22.682918]},"properties":{"uid":"welfare_07495","name":"屏東縣政府社會處","welfare_class":"gov_welfare_office","uni_no":"91005200","address":"屏東縣屏東市自由路527號","city":"屏東縣","coord_source":"tgos_upstream","coord_precision":"upstream","src_datasets":"165355","n_src":1,"sub_code":"T0101","permit_status":"C04","inst_code":"TAA00003519","src_system":"無來源系統"}},{"type":"Feature","geometry":{"type":"Point","coordinates":[120.487956,22.682918]},"properties":{"uid":"welfare_07496","name":"屏東縣政府社會處婦幼科","welfare_class":"gov_welfare_office","uni_no":"91005200","address":"屏東縣屏東市自由路527號","city":"屏東縣","coord_source":"tgos_upstream","coord_precision":"upstream","src_datasets":"165355","n_src":1,"sub_code":"T0101","permit_status":"C04","inst_code":"TAA00003528","src_system":"無來源系統"}},{"type":"Feature","geometry":{"type":"Point","coordinates":[120.487956,22.682918]},"properties":{"uid":"welfare_07497","name":"屏東縣政府社會處社會行政科","welfare_class":"gov_welfare_office","uni_no":"91005200","address":"屏東縣屏東市自由路527號","city":"屏東縣","coord_source":"tgos_upstream","coord_precision":"upstream","src_datasets":"165355","n_src":1,"sub_code":"T0101","permit_status":"C04","inst_code":"TAA00003537","src_system":"無來源系統"}},{"type":"Feature","geometry":{"type":"Point","coordinates":[120.487956,22.682918]},"properties":{"uid":"welfare_07498","name":"屏東縣政府社會處社會工作科","welfare_class":"gov_welfare_office","uni_no":"91005200","address":"屏東縣屏東市自由路527號","city":"屏東縣","coord_source":"tgos_upstream","coord_precision":"upstream","src_datasets":"165355","n_src":1,"sub_code":"T0101","permit_status":"C04","inst_code":"TAA00003546","src_system":"無來源系統"}},{"type":"Feature","geometry":{"type":"Point","coordinates":[120.487956,22.682918]},"properties":{"uid":"welfare_07499","name":"屏東縣政府社會處社會救助科","welfare_class":"gov_welfare_office","uni_no":"91005200","address":"屏東縣屏東市自由路527號","city":"屏東縣","coord_source":"tgos_upstream","coord_precision":"upstream","src_datasets":"165355","n_src":1,"sub_code":"T0101","permit_status":"C04","inst_code":"TAA00003555","src_system":"無來源系統"}},{"type":"Feature","geometry":{"type":"Point","coordinates":[120.487956,22.682918]},"properties":{"uid":"welfare_07500","name":"屏東縣政府社會處身心障礙福利科","welfare_class":"gov_welfare_office","uni_no":"91005200","address":"屏東縣屏東市自由路527號","city":"屏東縣","coord_source":"tgos_upstream","coord_precision":"upstream","src_datasets":"165355","n_src":1,"sub_code":"T0101","permit_status":"C04","inst_code":"TAA00003564","src_system":"無來源系統"}},{"type":"Feature","geometry":{"type":"Point","coordinates":[120.487956,22.682918]},"properties":{"uid":"welfare_07501","name":"屏東縣政府社會處長青科","welfare_class":"gov_welfare_office","uni_no":"91005200","address":"屏東縣屏東市自由路527號","city":"屏東縣","coord_source":"tgos_upstream","coord_precision":"upstream","src_datasets":"165355","n_src":1,"sub_code":"T0101","permit_status":"C04","inst_code":"TAA00003573","src_system":"無來源系統"}},{"type":"Feature","geometry":{"type":"Point","coordinates":[120.487956,22.682918]},"properties":{"uid":"welfare_07502","name":"屏東縣政府","welfare_class":"gov_welfare_office","uni_no":"91005200","address":"屏東縣屏東市自由路527號","city":"屏東縣","coord_source":"tgos_upstream","coord_precision":"upstream","src_datasets":"165355","n_src":1,"sub_code":"T0101","permit_status":"C04","inst_code":"TAA00345349","src_system":"無來源系統"}},{"type":"Feature","geometry":{"type":"Point","coordinates":[120.612334,22.604548]},"properties":{"uid":"welfare_07512","name":"屏東縣泰武鄉衛生所","welfare_class":"gov_welfare_office","uni_no":"92502629","address":"屏東縣泰武鄉泰武村大武山一街6號","city":"屏東縣","coord_source":"tgos_upstream","coord_precision":"upstream","src_datasets":"165355","n_src":1,"sub_code":"T0108","permit_status":"C04","inst_code":"TAH00346189","src_system":"失智照護管理系統"}},{"type":"Feature","geometry":{"type":"Point","coordinates":[120.649846,22.708797]},"properties":{"uid":"welfare_07513","name":"屏東縣瑪家鄉衛生所","welfare_class":"gov_welfare_office","uni_no":"91001915","address":"屏東縣瑪家鄉北葉村風景巷86號","city":"屏東縣","coord_source":"tgos_upstream","coord_precision":"upstream","src_datasets":"165355","n_src":1,"sub_code":"T0108","permit_status":"C04","inst_code":"TAH00346198","src_system":"失智照護管理系統"}},{"type":"Feature","geometry":{"type":"Point","coordinates":[120.501656,22.687041]},"properties":{"uid":"welfare_07514","name":"屏東縣家庭教育中心","welfare_class":"gov_welfare_office","uni_no":"37741505","address":"屏東縣屏東市華正路80號(和平國小內)","city":"屏東縣","coord_source":"tgos_upstream","coord_precision":"upstream","src_datasets":"165355","n_src":1,"sub_code":"T0199","permit_status":"C04","inst_code":"TAZ00002010","src_system":"無來源系統"}},{"type":"Feature","geometry":{"type":"Point","coordinates":[121.606207,23.98214]},"properties":{"uid":"welfare_07876","name":"花蓮縣身心健康及成癮防治所","welfare_class":"gov_welfare_office","uni_no":"94511201","address":"花蓮縣花蓮市林森路391號","city":"花蓮縣","coord_source":"tgos_upstream","coord_precision":"upstream","src_datasets":"165355","n_src":1,"sub_code":"T0101","permit_status":"C04","inst_code":"UAA00000601","src_system":"無來源系統"}},{"type":"Feature","geometry":{"type":"Point","coordinates":[121.620169,23.993198]},"properties":{"uid":"welfare_07877","name":"花蓮縣少年輔導委員會","welfare_class":"gov_welfare_office","uni_no":"94504807","address":"花蓮縣花蓮市府前路21號","city":"花蓮縣","coord_source":"tgos_upstream","coord_precision":"upstream","src_datasets":"165355","n_src":1,"sub_code":"T0101","permit_status":"C04","inst_code":"UAA00001187","src_system":"無來源系統"}},{"type":"Feature","geometry":{"type":"Point","coordinates":[121.619512,23.991426]},"properties":{"uid":"welfare_07878","name":"花蓮縣政府","welfare_class":"gov_welfare_office","uni_no":"94504503","address":"花蓮縣花蓮市府前路17號","city":"花蓮縣","coord_source":"tgos_upstream","coord_precision":"upstream","src_datasets":"165355","n_src":1,"sub_code":"T0101","permit_status":"C04","inst_code":"UAA00004472","src_system":"無來源系統"}},{"type":"Feature","geometry":{"type":"Point","coordinates":[121.63337,24.126902]},"properties":{"uid":"welfare_07886","name":"秀林鄉衛生所","welfare_class":"gov_welfare_office","uni_no":"94503906","address":"花蓮縣秀林鄉秀林村秀林路88號","city":"花蓮縣","coord_source":"tgos_upstream","coord_precision":"upstream","src_datasets":"165355","n_src":1,"sub_code":"T0108","permit_status":"C04","inst_code":"UAH00346098","src_system":"失智照護管理系統"}},{"type":"Feature","geometry":{"type":"Point","coordinates":[121.628943,23.991022]},"properties":{"uid":"welfare_07887","name":"花蓮縣新住民家庭服務中心","welfare_class":"gov_welfare_office","uni_no":"94504503","address":"花蓮縣花蓮市文苑路12號3樓","city":"花蓮縣","coord_source":"tgos_upstream","coord_precision":"upstream","src_datasets":"165355","n_src":1,"sub_code":"T0199","permit_status":"C04","inst_code":"UAZ00001777","src_system":"無來源系統"}},{"type":"Feature","geometry":{"type":"Point","coordinates":[121.619512,23.991426]},"properties":{"uid":"welfare_07888","name":"花蓮縣個管中心","welfare_class":"gov_welfare_office","uni_no":"94504503","address":"花蓮縣花蓮市府前路17號","city":"花蓮縣","coord_source":"tgos_upstream","coord_precision":"upstream","src_datasets":"165355","n_src":1,"sub_code":"T0199","permit_status":"C04","inst_code":"UAZ00345712","src_system":"全國身心障礙福利資訊整合平台"}},{"type":"Feature","geometry":{"type":"Point","coordinates":[121.58545,24.006252]},"properties":{"uid":"welfare_07889","name":"花蓮縣家庭教育中心","welfare_class":"gov_welfare_office","uni_no":"66990910","address":"花蓮縣花蓮市達固湖彎大路1號","city":"花蓮縣","coord_source":"google","coord_precision":"exact","src_datasets":"165355","n_src":1,"sub_code":"T0203","permit_status":"C04","inst_code":"UBC00002336","src_system":"無來源系統"}},{"type":"Feature","geometry":{"type":"Point","coordinates":[121.144158,22.752116]},"properties":{"uid":"welfare_08062","name":"臺東縣政府社會處","welfare_class":"gov_welfare_office","uni_no":"93506601","address":"臺東縣臺東市桂林北路201號","city":"臺東縣","coord_source":"tgos_upstream","coord_precision":"upstream","src_datasets":"165355","n_src":1,"sub_code":"T0101","permit_status":"C04","inst_code":"VAA00000376","src_system":"無來源系統"}},{"type":"Feature","geometry":{"type":"Point","coordinates":[121.15271,22.753981]},"properties":{"uid":"welfare_08063","name":"臺東縣政府教育處學生輔導諮商中心","welfare_class":"gov_welfare_office","uni_no":"93506601","address":"臺東縣臺東市臺東市中華路一段719巷51號4樓","city":"臺東縣","coord_source":"google","coord_precision":"exact","src_datasets":"165355","n_src":1,"sub_code":"T0101","permit_status":"C04","inst_code":"VAA00002068","src_system":"無來源系統"}},{"type":"Feature","geometry":{"type":"Point","coordinates":[121.151135,22.756136]},"properties":{"uid":"welfare_08064","name":"臺東縣政府少年輔導委員會","welfare_class":"gov_welfare_office","uni_no":"93506709","address":"臺東縣臺東市台東縣台東市中山路268號","city":"臺東縣","coord_source":"google","coord_precision":"exact","src_datasets":"165355","n_src":1,"sub_code":"T0101","permit_status":"C04","inst_code":"VAA00004264","src_system":"無來源系統"}},{"type":"Feature","geometry":{"type":"Point","coordinates":[121.465315,23.33455]},"properties":{"uid":"welfare_08065","name":"臺東縣政府","welfare_class":"gov_welfare_office","uni_no":"93506601","address":"臺東縣長濱鄉長濱村4鄰9號","city":"臺東縣","coord_source":"tgos_upstream","coord_precision":"upstream","src_datasets":"165355","n_src":1,"sub_code":"T0101","permit_status":"C04","inst_code":"VAA00004697","src_system":"無來源系統"}},{"type":"Feature","geometry":{"type":"Point","coordinates":[121.380875,23.10507]},"properties":{"uid":"welfare_08072","name":"臺東縣成功鎮公所","welfare_class":"gov_welfare_office","uni_no":"93502204","address":"臺東縣成功鎮台東縣成功鎮中山路176號","city":"臺東縣","coord_source":"google","coord_precision":"approximate","src_datasets":"165355","n_src":1,"sub_code":"T0107","permit_status":"C04","inst_code":"VAG00000389","src_system":"無來源系統"}},{"type":"Feature","geometry":{"type":"Point","coordinates":[121.214576,23.122856]},"properties":{"uid":"welfare_08073","name":"臺東縣池上鄉公所","welfare_class":"gov_welfare_office","uni_no":"93506601","address":"臺東縣池上鄉臺東縣池上鄉中山路101","city":"臺東縣","coord_source":"google","coord_precision":"exact","src_datasets":"165355","n_src":1,"sub_code":"T0107","permit_status":"C04","inst_code":"VAG00005203","src_system":"無來源系統"}},{"type":"Feature","geometry":{"type":"Point","coordinates":[118.417006,24.440189]},"properties":{"uid":"welfare_08203","name":"金門縣衛生局","welfare_class":"gov_welfare_office","uni_no":"77355471","address":"金門縣金湖鎮中正路1-1號4樓","city":"金門縣","coord_source":"tgos_upstream","coord_precision":"upstream","src_datasets":"165355","n_src":1,"sub_code":"T0101","permit_status":"C04","inst_code":"WAA00000555","src_system":"無來源系統"}},{"type":"Feature","geometry":{"type":"Point","coordinates":[118.319095,24.437145]},"properties":{"uid":"welfare_08204","name":"金門縣政府","welfare_class":"gov_welfare_office","uni_no":"77355129","address":"金門縣金城鎮民生路60號","city":"金門縣","coord_source":"tgos_upstream","coord_precision":"upstream","src_datasets":"165355","n_src":1,"sub_code":"T0101","permit_status":"C04","inst_code":"WAA00004047","src_system":"無來源系統"}},{"type":"Feature","geometry":{"type":"Point","coordinates":[118.380936,24.452611]},"properties":{"uid":"welfare_08208","name":"金門縣新住民家庭服務中心","welfare_class":"gov_welfare_office","uni_no":"77355129","address":"金門縣金湖鎮瓊徑路35號","city":"金門縣","coord_source":"tgos_upstream","coord_precision":"upstream","src_datasets":"165355","n_src":1,"sub_code":"T0199","permit_status":"C04","inst_code":"WAZ00000271","src_system":"無來源系統"}},{"type":"Feature","geometry":{"type":"Point","coordinates":[118.32246,24.428616]},"properties":{"uid":"welfare_08209","name":"金門縣少年輔導委員會","welfare_class":"gov_welfare_office","uni_no":"77355269","address":"金門縣金城鎮金山路15號","city":"金門縣","coord_source":"tgos_upstream","coord_precision":"upstream","src_datasets":"165355","n_src":1,"sub_code":"T0199","permit_status":"C04","inst_code":"WAZ00002611","src_system":"無來源系統"}},{"type":"Feature","geometry":{"type":"Point","coordinates":[119.56587,23.570118]},"properties":{"uid":"welfare_08240","name":"澎湖縣少年輔導委員會","welfare_class":"gov_welfare_office","uni_no":"96405900","address":"澎湖縣馬公市治平路36號","city":"澎湖縣","coord_source":"tgos_upstream","coord_precision":"upstream","src_datasets":"165355","n_src":1,"sub_code":"T0101","permit_status":"C01","inst_code":"XAA00000824","src_system":"無來源系統"}},{"type":"Feature","geometry":{"type":"Point","coordinates":[119.578357,23.571012]},"properties":{"uid":"welfare_08245","name":"澎湖縣政府","welfare_class":"gov_welfare_office","uni_no":"96405802","address":"澎湖縣馬公市中華路242號3樓","city":"澎湖縣","coord_source":"tgos_upstream","coord_precision":"upstream","src_datasets":"165355","n_src":1,"sub_code":"T0199","permit_status":"C04","inst_code":"XAZ00000333","src_system":"無來源系統"}},{"type":"Feature","geometry":{"type":"Point","coordinates":[119.569103,23.576263]},"properties":{"uid":"welfare_08246","name":"澎湖縣政府學生輔導諮商中心","welfare_class":"gov_welfare_office","uni_no":"96405802","address":"澎湖縣馬公市三多路450號","city":"澎湖縣","coord_source":"tgos_upstream","coord_precision":"upstream","src_datasets":"165355","n_src":1,"sub_code":"T0199","permit_status":"C04","inst_code":"XAZ00001800","src_system":"無來源系統"}},{"type":"Feature","geometry":{"type":"Point","coordinates":[119.566486,23.570357]},"properties":{"uid":"welfare_08247","name":"澎湖縣政府社會處","welfare_class":"gov_welfare_office","uni_no":"96405802","address":"澎湖縣馬公市治平路32號","city":"澎湖縣","coord_source":"tgos_upstream","coord_precision":"upstream","src_datasets":"165355","n_src":1,"sub_code":"T0199","permit_status":"C04","inst_code":"XAZ00003646","src_system":"無來源系統"}},{"type":"Feature","geometry":{"type":"Point","coordinates":[119.952173,26.15538]},"properties":{"uid":"welfare_08303","name":"連江縣衛生福利局社會福利科","welfare_class":"gov_welfare_office","uni_no":"78752603","address":"連江縣南竿鄉介壽村156號3樓","city":"連江縣","coord_source":"tgos_upstream","coord_precision":"upstream","src_datasets":"165355","n_src":1,"sub_code":"T0101","permit_status":"C04","inst_code":"ZAA00000020","src_system":"無來源系統"}},{"type":"Feature","geometry":{"type":"Point","coordinates":[119.949403,26.161144]},"properties":{"uid":"welfare_08304","name":"連江縣衛生福利局","welfare_class":"gov_welfare_office","uni_no":"78752603","address":"連江縣南竿鄉復興村216號","city":"連江縣","coord_source":"tgos_upstream","coord_precision":"upstream","src_datasets":"165355","n_src":1,"sub_code":"T0101","permit_status":"C04","inst_code":"ZAA00000048","src_system":"無來源系統"}},{"type":"Feature","geometry":{"type":"Point","coordinates":[120.960672,22.59486]},"properties":{"uid":"welfare_08318","name":"臺東縣金峰鄉公所","welfare_class":"gov_welfare_office","uni_no":"93503301","address":"臺東縣金峰鄉嘉蘭村4鄰166號","city":"臺東縣","coord_source":"tgos_upstream","coord_precision":"upstream","src_datasets":"165355","n_src":1,"sub_code":"T0107","permit_status":"C04","inst_code":"VAG00000091","src_system":"衛福部照顧服務管理資訊平台"}},{"type":"Feature","geometry":{"type":"Point","coordinates":[120.450909,23.48359]},"properties":{"uid":"welfare_08320","name":"嘉義市家庭教育中心","welfare_class":"gov_welfare_office","uni_no":"37741250","address":"嘉義市東區嘉義市東區山子頂269-1號","city":"嘉義市","coord_source":"tgos_upstream","coord_precision":"upstream","src_datasets":"165355","n_src":1,"sub_code":"T0203","permit_status":"C04","inst_code":"IBC00003049","src_system":"衛福部照顧服務管理資訊平台"}},{"type":"Feature","geometry":{"type":"Point","coordinates":[121.744507,25.131677]},"properties":{"uid":"welfare_08321","name":"基隆市政府社會處","welfare_class":"gov_welfare_office","uni_no":"508203","address":"基隆市中正區義一路1號","city":"基隆市","coord_source":"tgos_upstream","coord_precision":"upstream","src_datasets":"165355","n_src":1,"sub_code":"T0101","permit_status":"C04","inst_code":"CAA00003723","src_system":"衛福部照顧服務管理資訊平台"}},{"type":"Feature","geometry":{"type":"Point","coordinates":[120.976231,24.80967]},"properties":{"uid":"welfare_08322","name":"新竹市政府","welfare_class":"gov_welfare_office","uni_no":"46806508","address":"新竹市東區中央路241號4、5、8樓","city":"新竹市","coord_source":"tgos_upstream","coord_precision":"upstream","src_datasets":"165355","n_src":1,"sub_code":"T0101","permit_status":"C04","inst_code":"OAA00004036","src_system":"衛福部照顧服務管理資訊平台"}},{"type":"Feature","geometry":{"type":"Point","coordinates":[120.527514,23.697811]},"properties":{"uid":"welfare_08323","name":"雲林縣衛生局","welfare_class":"gov_welfare_office","uni_no":"63504900","address":"雲林縣斗六市府文路34號","city":"雲林縣","coord_source":"tgos_upstream","coord_precision":"upstream","src_datasets":"165355","n_src":1,"sub_code":"T0101","permit_status":"C04","inst_code":"PAA00004440","src_system":"衛福部照顧服務管理資訊平台"}},{"type":"Feature","geometry":{"type":"Point","coordinates":[120.323972,22.625924]},"properties":{"uid":"welfare_08324","name":"高雄市長期照顧管理中心","welfare_class":"gov_welfare_office","uni_no":"76011604","address":"高雄市苓雅區凱旋二路132號","city":"高雄市","coord_source":"tgos_upstream","coord_precision":"upstream","src_datasets":"165355","n_src":1,"sub_code":"T0109","permit_status":"C04","inst_code":"EAJ00007412","src_system":"衛福部照顧服務管理資訊平台"}},{"type":"Feature","geometry":{"type":"Point","coordinates":[120.688534,23.90246]},"properties":{"uid":"welfare_08325","name":"南投縣長期照顧管理中心","welfare_class":"gov_welfare_office","uni_no":"61605305","address":"南投縣南投市復興路6號","city":"南投縣","coord_source":"tgos_upstream","coord_precision":"upstream","src_datasets":"165355","n_src":1,"sub_code":"T0109","permit_status":"C04","inst_code":"MAJ00007423","src_system":"衛福部照顧服務管理資訊平台"}},{"type":"Feature","geometry":{"type":"Point","coordinates":[120.542559,24.071801]},"properties":{"uid":"welfare_08326","name":"彰化縣長期照顧管理中心","welfare_class":"gov_welfare_office","uni_no":"58813700","address":"彰化縣彰化市曉陽路1號5樓","city":"彰化縣","coord_source":"tgos_upstream","coord_precision":"upstream","src_datasets":"165355","n_src":1,"sub_code":"T0109","permit_status":"C04","inst_code":"NAJ00007431","src_system":"衛福部照顧服務管理資訊平台"}},{"type":"Feature","geometry":{"type":"Point","coordinates":[120.527109,23.697742]},"properties":{"uid":"welfare_08327","name":"雲林縣長期照顧管理中心","welfare_class":"gov_welfare_office","uni_no":"63504900","address":"雲林縣斗六市公園路75號","city":"雲林縣","coord_source":"tgos_upstream","coord_precision":"upstream","src_datasets":"165355","n_src":1,"sub_code":"T0109","permit_status":"C04","inst_code":"PAJ00007448","src_system":"衛福部照顧服務管理資訊平台"}},{"type":"Feature","geometry":{"type":"Point","coordinates":[120.292894,23.457536]},"properties":{"uid":"welfare_08328","name":"嘉義縣長期照顧管理中心","welfare_class":"gov_welfare_office","uni_no":"66015200","address":"嘉義縣太保市祥和2路東段3號","city":"嘉義縣","coord_source":"offline_l2","coord_precision":"exact","src_datasets":"165355","n_src":1,"sub_code":"T0109","permit_status":"C04","inst_code":"QAJ00007456","src_system":"衛福部照顧服務管理資訊平台"}},{"type":"Feature","geometry":{"type":"Point","coordinates":[121.148769,22.757584]},"properties":{"uid":"welfare_08329","name":"臺東縣長期照顧管理中心","welfare_class":"gov_welfare_office","uni_no":"93507904","address":"臺東縣臺東市博愛路336號","city":"臺東縣","coord_source":"tgos_upstream","coord_precision":"upstream","src_datasets":"165355","n_src":1,"sub_code":"T0109","permit_status":"C04","inst_code":"VAJ00007460","src_system":"衛福部照顧服務管理資訊平台"}},{"type":"Feature","geometry":{"type":"Point","coordinates":[121.617151,23.991433]},"properties":{"uid":"welfare_08330","name":"花蓮縣長期照顧管理中心","welfare_class":"gov_welfare_office","uni_no":"94504709","address":"花蓮縣花蓮市新興路200號","city":"花蓮縣","coord_source":"tgos_upstream","coord_precision":"upstream","src_datasets":"165355","n_src":1,"sub_code":"T0109","permit_status":"C04","inst_code":"UAJ00007470","src_system":"衛福部照顧服務管理資訊平台"}},{"type":"Feature","geometry":{"type":"Point","coordinates":[121.75472,24.758623]},"properties":{"uid":"welfare_08331","name":"宜蘭縣長期照護服務管理所","welfare_class":"gov_welfare_office","uni_no":"42219916","address":"宜蘭縣宜蘭市聖後街141號","city":"宜蘭縣","coord_source":"tgos_upstream","coord_precision":"upstream","src_datasets":"165355","n_src":1,"sub_code":"T0109","permit_status":"C04","inst_code":"GAJ00007483","src_system":"衛福部照顧服務管理資訊平台"}},{"type":"Feature","geometry":{"type":"Point","coordinates":[119.566218,23.569341]},"properties":{"uid":"welfare_08332","name":"澎湖縣長期照顧管理中心","welfare_class":"gov_welfare_office","uni_no":"96406106","address":"澎湖縣馬公市中正路115號","city":"澎湖縣","coord_source":"tgos_upstream","coord_precision":"upstream","src_datasets":"165355","n_src":1,"sub_code":"T0109","permit_status":"C04","inst_code":"XAJ00007495","src_system":"衛福部照顧服務管理資訊平台"}},{"type":"Feature","geometry":{"type":"Point","coordinates":[118.417006,24.440189]},"properties":{"uid":"welfare_08333","name":"金門縣衛生局照管中心","welfare_class":"gov_welfare_office","uni_no":"77355471","address":"金門縣金湖鎮新市里中正路1-1號4樓","city":"金門縣","coord_source":"tgos_upstream","coord_precision":"upstream","src_datasets":"165355","n_src":1,"sub_code":"T0109","permit_status":"C04","inst_code":"WAJ00007504","src_system":"衛福部照顧服務管理資訊平台"}},{"type":"Feature","geometry":{"type":"Point","coordinates":[119.949403,26.161144]},"properties":{"uid":"welfare_08334","name":"連江縣長期照顧管理中心","welfare_class":"gov_welfare_office","uni_no":"78752603","address":"連江縣南竿鄉復興村216號","city":"連江縣","coord_source":"tgos_upstream","coord_precision":"upstream","src_datasets":"165355","n_src":1,"sub_code":"T0109","permit_status":"C04","inst_code":"ZAJ00007510","src_system":"衛福部照顧服務管理資訊平台"}},{"type":"Feature","geometry":{"type":"Point","coordinates":[121.532692,25.060483]},"properties":{"uid":"welfare_08335","name":"臺北市長期照顧管理中心","welfare_class":"gov_welfare_office","uni_no":"3776408","address":"臺北市中山區錦州街233號","city":"臺北市","coord_source":"tgos_upstream","coord_precision":"upstream","src_datasets":"165355","n_src":1,"sub_code":"T0109","permit_status":"C04","inst_code":"AAJ00007524","src_system":"衛福部照顧服務管理資訊平台"}},{"type":"Feature","geometry":{"type":"Point","coordinates":[121.723204,25.12103]},"properties":{"uid":"welfare_08336","name":"基隆市長期照顧管理中心","welfare_class":"gov_welfare_office","uni_no":"516800","address":"基隆市安樂區安樂路二段164號5樓","city":"基隆市","coord_source":"tgos_upstream","coord_precision":"upstream","src_datasets":"165355","n_src":1,"sub_code":"T0109","permit_status":"C04","inst_code":"CAJ00007531","src_system":"衛福部照顧服務管理資訊平台"}},{"type":"Feature","geometry":{"type":"Point","coordinates":[121.45814,25.023377]},"properties":{"uid":"welfare_08337","name":"新北市政府長期照顧管理中心","welfare_class":"gov_welfare_office","uni_no":"3770805","address":"新北市板橋區英士路192-1號","city":"新北市","coord_source":"tgos_upstream","coord_precision":"upstream","src_datasets":"165355","n_src":1,"sub_code":"T0109","permit_status":"C04","inst_code":"FAJ00007547","src_system":"衛福部照顧服務管理資訊平台"}},{"type":"Feature","geometry":{"type":"Point","coordinates":[120.820839,24.563576]},"properties":{"uid":"welfare_08338","name":"苗栗縣政府長期照護管理中心","welfare_class":"gov_welfare_office","uni_no":"39782072","address":"苗栗縣苗栗市府前路1號5樓","city":"苗栗縣","coord_source":"tgos_upstream","coord_precision":"upstream","src_datasets":"165355","n_src":1,"sub_code":"T0109","permit_status":"C04","inst_code":"KAJ00007551","src_system":"衛福部照顧服務管理資訊平台"}},{"type":"Feature","geometry":{"type":"Point","coordinates":[120.71402,24.248291]},"properties":{"uid":"welfare_08339","name":"臺中市長期照顧管理中心","welfare_class":"gov_welfare_office","uni_no":"55507404","address":"臺中市豐原區中興路136號","city":"臺中市","coord_source":"tgos_upstream","coord_precision":"upstream","src_datasets":"165355","n_src":1,"sub_code":"T0109","permit_status":"C04","inst_code":"BAJ00007569","src_system":"衛福部照顧服務管理資訊平台"}},{"type":"Feature","geometry":{"type":"Point","coordinates":[120.43119,23.479949]},"properties":{"uid":"welfare_08340","name":"嘉義市長期照顧管理中心","welfare_class":"gov_welfare_office","uni_no":"85593428","address":"嘉義市西區德明路1號","city":"嘉義市","coord_source":"tgos_upstream","coord_precision":"upstream","src_datasets":"165355","n_src":1,"sub_code":"T0109","permit_status":"C04","inst_code":"IAJ00007571","src_system":"衛福部照顧服務管理資訊平台"}},{"type":"Feature","geometry":{"type":"Point","coordinates":[120.186286,22.991871]},"properties":{"uid":"welfare_08341","name":"臺南市政府照顧服務管理中心","welfare_class":"gov_welfare_office","uni_no":"36724676","address":"臺南市安平區中華西路二段315號6樓","city":"臺南市","coord_source":"tgos_upstream","coord_precision":"upstream","src_datasets":"165355","n_src":1,"sub_code":"T0109","permit_status":"C04","inst_code":"DAJ00007585","src_system":"衛福部照顧服務管理資訊平台"}},{"type":"Feature","geometry":{"type":"Point","coordinates":[121.300207,24.993041]},"properties":{"uid":"welfare_08342","name":"桃園市長期照顧管理中心","welfare_class":"gov_welfare_office","uni_no":"43504001","address":"桃園市桃園區縣府路55號1樓","city":"桃園市","coord_source":"tgos_upstream","coord_precision":"upstream","src_datasets":"165355","n_src":1,"sub_code":"T0109","permit_status":"C04","inst_code":"HAJ00007590","src_system":"衛福部照顧服務管理資訊平台"}},{"type":"Feature","geometry":{"type":"Point","coordinates":[121.012918,24.826861]},"properties":{"uid":"welfare_08343","name":"新竹縣長期照顧管理中心","welfare_class":"gov_welfare_office","uni_no":"46806401","address":"新竹縣竹北市光明六路10號B棟4樓","city":"新竹縣","coord_source":"tgos_upstream","coord_precision":"upstream","src_datasets":"165355","n_src":1,"sub_code":"T0109","permit_status":"C04","inst_code":"JAJ00007606","src_system":"衛福部照顧服務管理資訊平台"}},{"type":"Feature","geometry":{"type":"Point","coordinates":[120.976231,24.80967]},"properties":{"uid":"welfare_08344","name":"新竹市長期照顧管理中心","welfare_class":"gov_welfare_office","uni_no":"98271131","address":"新竹市東區新竹市中央路241號10樓","city":"新竹市","coord_source":"google","coord_precision":"exact","src_datasets":"165355","n_src":1,"sub_code":"T0109","permit_status":"C04","inst_code":"OAJ00007610","src_system":"衛福部照顧服務管理資訊平台"}},{"type":"Feature","geometry":{"type":"Point","coordinates":[120.487956,22.682918]},"properties":{"uid":"welfare_08345","name":"屏東縣長期照護管理中心","welfare_class":"gov_welfare_office","uni_no":"36864556","address":"屏東縣屏東市自由路527號","city":"屏東縣","coord_source":"tgos_upstream","coord_precision":"upstream","src_datasets":"165355","n_src":1,"sub_code":"T0109","permit_status":"C04","inst_code":"TAJ00007624","src_system":"衛福部照顧服務管理資訊平台"}}]}