{
"type": "FeatureCollection",
"name": "aquaculture_release_survey_g70",
"crs": { "type": "name", "properties": { "name": "urn:ogc:def:crs:OGC:1.3:CRS84" } },
"features": [
{ "type": "Feature", "properties": { "魚種別": "吳郭魚", "縣市": "臺南市", "所屬縣市": "67000", "魚塭面積(公頃)-小計": "1275.6404", "已完成調查魚塭口數-小計": "1996", "養殖戶數-小計": "836", "放養量-在池(尾、粒、隻)": "21551260", "新放養量-在池(尾、粒、隻)": "139072100", "魚苗培育-魚塭面積(公頃)": "13.6049", "種魚繁殖-魚塭面積(公頃)": "1.1445", "中間養殖-魚塭面積(公頃)": "138.4705", "成魚養成-魚塭面積(公頃)": "1117.5691" }, "geometry": { "type": "Point", "coordinates": [ 120.227, 23.001 ] } },
{ "type": "Feature", "properties": { "魚種別": "吳郭魚", "縣市": "屏東縣", "所屬縣市": "10013", "魚塭面積(公頃)-小計": "64.2253", "已完成調查魚塭口數-小計": "304", "養殖戶數-小計": "121", "放養量-在池(尾、粒、隻)": "3852320", "新放養量-在池(尾、粒、隻)": "2876000", "魚苗培育-魚塭面積(公頃)": "0.2501", "種魚繁殖-魚塭面積(公頃)": "2.7617", "中間養殖-魚塭面積(公頃)": "8.1193", "成魚養成-魚塭面積(公頃)": "53.0942" }, "geometry": { "type": "Point", "coordinates": [ 120.488, 22.6824 ] } },
{ "type": "Feature", "properties": { "魚種別": "吳郭魚", "縣市": "雲林縣", "所屬縣市": "10009", "魚塭面積(公頃)-小計": "226.3728", "已完成調查魚塭口數-小計": "377", "養殖戶數-小計": "214", "放養量-在池(尾、粒、隻)": "5377100", "新放養量-在池(尾、粒、隻)": "2878200", "魚苗培育-魚塭面積(公頃)": "1.5642", "種魚繁殖-魚塭面積(公頃)": "0", "中間養殖-魚塭面積(公頃)": "10.6728", "成魚養成-魚塭面積(公頃)": "214.1358" }, "geometry": { "type": "Point", "coordinates": [ 120.4313, 23.7092 ] } },
{ "type": "Feature", "properties": { "魚種別": "吳郭魚", "縣市": "嘉義縣", "所屬縣市": "10010", "魚塭面積(公頃)-小計": "839.4867", "已完成調查魚塭口數-小計": "1635", "養殖戶數-小計": "644", "放養量-在池(尾、粒、隻)": "10234200", "新放養量-在池(尾、粒、隻)": "62982801", "魚苗培育-魚塭面積(公頃)": "0", "種魚繁殖-魚塭面積(公頃)": "9.6838", "中間養殖-魚塭面積(公頃)": "79.373", "成魚養成-魚塭面積(公頃)": "749.8244" }, "geometry": { "type": "Point", "coordinates": [ 120.574, 23.4518 ] } },
{ "type": "Feature", "properties": { "魚種別": "吳郭魚", "縣市": "彰化縣", "所屬縣市": "10007", "魚塭面積(公頃)-小計": "18.878", "已完成調查魚塭口數-小計": "66", "養殖戶數-小計": "24", "放養量-在池(尾、粒、隻)": "766600", "新放養量-在池(尾、粒、隻)": "2309600", "魚苗培育-魚塭面積(公頃)": "0", "種魚繁殖-魚塭面積(公頃)": "0", "中間養殖-魚塭面積(公頃)": "1.8753", "成魚養成-魚塭面積(公頃)": "17.0027" }, "geometry": { "type": "Point", "coordinates": [ 120.5419, 24.0517 ] } },
{ "type": "Feature", "properties": { "魚種別": "吳郭魚", "縣市": "高雄市", "所屬縣市": "64000", "魚塭面積(公頃)-小計": "142.1977", "已完成調查魚塭口數-小計": "318", "養殖戶數-小計": "130", "放養量-在池(尾、粒、隻)": "2241502", "新放養量-在池(尾、粒、隻)": "13946500", "魚苗培育-魚塭面積(公頃)": "0", "種魚繁殖-魚塭面積(公頃)": "0.6243", "中間養殖-魚塭面積(公頃)": "0", "成魚養成-魚塭面積(公頃)": "141.2467" }, "geometry": { "type": "Point", "coordinates": [ 120.301, 22.6273 ] } },
{ "type": "Feature", "properties": { "魚種別": "吳郭魚", "縣市": "宜蘭縣", "所屬縣市": "10002", "魚塭面積(公頃)-小計": "6.4228", "已完成調查魚塭口數-小計": "41", "養殖戶數-小計": "25", "放養量-在池(尾、粒、隻)": "109500", "新放養量-在池(尾、粒、隻)": "54003", "魚苗培育-魚塭面積(公頃)": "0", "種魚繁殖-魚塭面積(公頃)": "0", "中間養殖-魚塭面積(公頃)": "0.3682", "成魚養成-魚塭面積(公頃)": "6.0546" }, "geometry": { "type": "Point", "coordinates": [ 121.7536, 24.7021 ] } },
{ "type": "Feature", "properties": { "魚種別": "吳郭魚", "縣市": "花蓮縣", "所屬縣市": "10015", "魚塭面積(公頃)-小計": "125.6979", "已完成調查魚塭口數-小計": "238", "養殖戶數-小計": "77", "放養量-在池(尾、粒、隻)": "3314971", "新放養量-在池(尾、粒、隻)": "3206000", "魚苗培育-魚塭面積(公頃)": "0", "種魚繁殖-魚塭面積(公頃)": "0", "中間養殖-魚塭面積(公頃)": "6.1268", "成魚養成-魚塭面積(公頃)": "118.1924" }, "geometry": { "type": "Point", "coordinates": [ 121.6042, 23.9871 ] } },
{ "type": "Feature", "properties": { "魚種別": "吳郭魚", "縣市": "臺東縣", "所屬縣市": "10014", "魚塭面積(公頃)-小計": "0.35", "已完成調查魚塭口數-小計": "3", "養殖戶數-小計": "1", "放養量-在池(尾、粒、隻)": "0", "新放養量-在池(尾、粒、隻)": "2000", "魚苗培育-魚塭面積(公頃)": "0.35", "種魚繁殖-魚塭面積(公頃)": "0", "中間養殖-魚塭面積(公頃)": "0", "成魚養成-魚塭面積(公頃)": "0" }, "geometry": { "type": "Point", "coordinates": [ 121.1132, 22.7583 ] } },
{ "type": "Feature", "properties": { "魚種別": "吳郭魚", "縣市": "新竹縣", "所屬縣市": "10004", "魚塭面積(公頃)-小計": "159.3286", "已完成調查魚塭口數-小計": "53", "養殖戶數-小計": "48", "放養量-在池(尾、粒、隻)": "1727500", "新放養量-在池(尾、粒、隻)": "0", "魚苗培育-魚塭面積(公頃)": "0", "種魚繁殖-魚塭面積(公頃)": "0", "中間養殖-魚塭面積(公頃)": "4.4487", "成魚養成-魚塭面積(公頃)": "154.8799" }, "geometry": { "type": "Point", "coordinates": [ 121.0177, 24.7033 ] } },
{ "type": "Feature", "properties": { "魚種別": "吳郭魚", "縣市": "新竹市", "所屬縣市": "10018", "魚塭面積(公頃)-小計": "2.1093", "已完成調查魚塭口數-小計": "2", "養殖戶數-小計": "2", "放養量-在池(尾、粒、隻)": "5000", "新放養量-在池(尾、粒、隻)": "5000", "魚苗培育-魚塭面積(公頃)": "0", "種魚繁殖-魚塭面積(公頃)": "0", "中間養殖-魚塭面積(公頃)": "0", "成魚養成-魚塭面積(公頃)": "2.1093" }, "geometry": { "type": "Point", "coordinates": [ 120.9647, 24.8015 ] } },
{ "type": "Feature", "properties": { "魚種別": "鰻魚", "縣市": "臺南市", "所屬縣市": "67000", "魚塭面積(公頃)-小計": "54.3475", "已完成調查魚塭口數-小計": "116", "養殖戶數-小計": "20", "放養量-在池(尾、粒、隻)": "2766000", "新放養量-在池(尾、粒、隻)": "40000", "魚苗培育-魚塭面積(公頃)": "0", "種魚繁殖-魚塭面積(公頃)": "0", "中間養殖-魚塭面積(公頃)": "0", "成魚養成-魚塭面積(公頃)": "54.3475" }, "geometry": { "type": "Point", "coordinates": [ 120.227, 23.001 ] } },
{ "type": "Feature", "properties": { "魚種別": "鰻魚", "縣市": "屏東縣", "所屬縣市": "10013", "魚塭面積(公頃)-小計": "14.5371", "已完成調查魚塭口數-小計": "78", "養殖戶數-小計": "18", "放養量-在池(尾、粒、隻)": "1158820", "新放養量-在池(尾、粒、隻)": "1320000", "魚苗培育-魚塭面積(公頃)": "0", "種魚繁殖-魚塭面積(公頃)": "0.063", "中間養殖-魚塭面積(公頃)": "1.9838", "成魚養成-魚塭面積(公頃)": "12.4903" }, "geometry": { "type": "Point", "coordinates": [ 120.488, 22.6824 ] } },
{ "type": "Feature", "properties": { "魚種別": "鰻魚", "縣市": "雲林縣", "所屬縣市": "10009", "魚塭面積(公頃)-小計": "140.2896", "已完成調查魚塭口數-小計": "802", "養殖戶數-小計": "213", "放養量-在池(尾、粒、隻)": "12624502", "新放養量-在池(尾、粒、隻)": "160000", "魚苗培育-魚塭面積(公頃)": "0", "種魚繁殖-魚塭面積(公頃)": "0", "中間養殖-魚塭面積(公頃)": "3.3551", "成魚養成-魚塭面積(公頃)": "136.9345" }, "geometry": { "type": "Point", "coordinates": [ 120.4313, 23.7092 ] } },
{ "type": "Feature", "properties": { "魚種別": "鰻魚", "縣市": "嘉義縣", "所屬縣市": "10010", "魚塭面積(公頃)-小計": "67.0175", "已完成調查魚塭口數-小計": "195", "養殖戶數-小計": "35", "放養量-在池(尾、粒、隻)": "4195800", "新放養量-在池(尾、粒、隻)": "771000", "魚苗培育-魚塭面積(公頃)": "0", "種魚繁殖-魚塭面積(公頃)": "0", "中間養殖-魚塭面積(公頃)": "11.0472", "成魚養成-魚塭面積(公頃)": "55.9703" }, "geometry": { "type": "Point", "coordinates": [ 120.574, 23.4518 ] } },
{ "type": "Feature", "properties": { "魚種別": "鰻魚", "縣市": "彰化縣", "所屬縣市": "10007", "魚塭面積(公頃)-小計": "24.2099", "已完成調查魚塭口數-小計": "161", "養殖戶數-小計": "55", "放養量-在池(尾、粒、隻)": "3925100", "新放養量-在池(尾、粒、隻)": "0", "魚苗培育-魚塭面積(公頃)": "0", "種魚繁殖-魚塭面積(公頃)": "0", "中間養殖-魚塭面積(公頃)": "0", "成魚養成-魚塭面積(公頃)": "24.2099" }, "geometry": { "type": "Point", "coordinates": [ 120.5419, 24.0517 ] } },
{ "type": "Feature", "properties": { "魚種別": "鰻魚", "縣市": "高雄市", "所屬縣市": "64000", "魚塭面積(公頃)-小計": "5.5321", "已完成調查魚塭口數-小計": "24", "養殖戶數-小計": "11", "放養量-在池(尾、粒、隻)": "126000", "新放養量-在池(尾、粒、隻)": "511050", "魚苗培育-魚塭面積(公頃)": "0", "種魚繁殖-魚塭面積(公頃)": "0.0302", "中間養殖-魚塭面積(公頃)": "0", "成魚養成-魚塭面積(公頃)": "5.5019" }, "geometry": { "type": "Point", "coordinates": [ 120.301, 22.6273 ] } },
{ "type": "Feature", "properties": { "魚種別": "鰻魚", "縣市": "花蓮縣", "所屬縣市": "10015", "魚塭面積(公頃)-小計": "0.796", "已完成調查魚塭口數-小計": "3", "養殖戶數-小計": "1", "放養量-在池(尾、粒、隻)": "0", "新放養量-在池(尾、粒、隻)": "400000", "魚苗培育-魚塭面積(公頃)": "0.796", "種魚繁殖-魚塭面積(公頃)": "0", "中間養殖-魚塭面積(公頃)": "0", "成魚養成-魚塭面積(公頃)": "0" }, "geometry": { "type": "Point", "coordinates": [ 121.6042, 23.9871 ] } },
{ "type": "Feature", "properties": { "魚種別": "七星鱸魚", "縣市": "臺南市", "所屬縣市": "67000", "魚塭面積(公頃)-小計": "1.5631", "已完成調查魚塭口數-小計": "3", "養殖戶數-小計": "2", "放養量-在池(尾、粒、隻)": "6000", "新放養量-在池(尾、粒、隻)": "55000", "魚苗培育-魚塭面積(公頃)": "0", "種魚繁殖-魚塭面積(公頃)": "0", "中間養殖-魚塭面積(公頃)": "0", "成魚養成-魚塭面積(公頃)": "1.5631" }, "geometry": { "type": "Point", "coordinates": [ 120.227, 23.001 ] } },
{ "type": "Feature", "properties": { "魚種別": "七星鱸魚", "縣市": "屏東縣", "所屬縣市": "10013", "魚塭面積(公頃)-小計": "3.4374", "已完成調查魚塭口數-小計": "14", "養殖戶數-小計": "7", "放養量-在池(尾、粒、隻)": "100000", "新放養量-在池(尾、粒、隻)": "228000", "魚苗培育-魚塭面積(公頃)": "0", "種魚繁殖-魚塭面積(公頃)": "0", "中間養殖-魚塭面積(公頃)": "0", "成魚養成-魚塭面積(公頃)": "3.4374" }, "geometry": { "type": "Point", "coordinates": [ 120.488, 22.6824 ] } },
{ "type": "Feature", "properties": { "魚種別": "七星鱸魚", "縣市": "雲林縣", "所屬縣市": "10009", "魚塭面積(公頃)-小計": "15.1088", "已完成調查魚塭口數-小計": "39", "養殖戶數-小計": "18", "放養量-在池(尾、粒、隻)": "370000", "新放養量-在池(尾、粒、隻)": "520000", "魚苗培育-魚塭面積(公頃)": "0", "種魚繁殖-魚塭面積(公頃)": "0", "中間養殖-魚塭面積(公頃)": "0.1505", "成魚養成-魚塭面積(公頃)": "14.9583" }, "geometry": { "type": "Point", "coordinates": [ 120.4313, 23.7092 ] } },
{ "type": "Feature", "properties": { "魚種別": "七星鱸魚", "縣市": "嘉義縣", "所屬縣市": "10010", "魚塭面積(公頃)-小計": "68.623", "已完成調查魚塭口數-小計": "166", "養殖戶數-小計": "64", "放養量-在池(尾、粒、隻)": "1158120", "新放養量-在池(尾、粒、隻)": "5463100", "魚苗培育-魚塭面積(公頃)": "0", "種魚繁殖-魚塭面積(公頃)": "0", "中間養殖-魚塭面積(公頃)": "5.4015", "成魚養成-魚塭面積(公頃)": "63.2215" }, "geometry": { "type": "Point", "coordinates": [ 120.574, 23.4518 ] } },
{ "type": "Feature", "properties": { "魚種別": "七星鱸魚", "縣市": "彰化縣", "所屬縣市": "10007", "魚塭面積(公頃)-小計": "0.9677", "已完成調查魚塭口數-小計": "6", "養殖戶數-小計": "2", "放養量-在池(尾、粒、隻)": "10200", "新放養量-在池(尾、粒、隻)": "0", "魚苗培育-魚塭面積(公頃)": "0", "種魚繁殖-魚塭面積(公頃)": "0", "中間養殖-魚塭面積(公頃)": "0", "成魚養成-魚塭面積(公頃)": "0.9677" }, "geometry": { "type": "Point", "coordinates": [ 120.5419, 24.0517 ] } },
{ "type": "Feature", "properties": { "魚種別": "七星鱸魚", "縣市": "高雄市", "所屬縣市": "64000", "魚塭面積(公頃)-小計": "7.9309", "已完成調查魚塭口數-小計": "13", "養殖戶數-小計": "6", "放養量-在池(尾、粒、隻)": "130300", "新放養量-在池(尾、粒、隻)": "680000", "魚苗培育-魚塭面積(公頃)": "0.1884", "種魚繁殖-魚塭面積(公頃)": "0", "中間養殖-魚塭面積(公頃)": "0", "成魚養成-魚塭面積(公頃)": "7.7425" }, "geometry": { "type": "Point", "coordinates": [ 120.301, 22.6273 ] } },
{ "type": "Feature", "properties": { "魚種別": "七星鱸魚", "縣市": "花蓮縣", "所屬縣市": "10015", "魚塭面積(公頃)-小計": "1.3171", "已完成調查魚塭口數-小計": "3", "養殖戶數-小計": "2", "放養量-在池(尾、粒、隻)": "55000", "新放養量-在池(尾、粒、隻)": "0", "魚苗培育-魚塭面積(公頃)": "0", "種魚繁殖-魚塭面積(公頃)": "0", "中間養殖-魚塭面積(公頃)": "0", "成魚養成-魚塭面積(公頃)": "1.3171" }, "geometry": { "type": "Point", "coordinates": [ 121.6042, 23.9871 ] } },
{ "type": "Feature", "properties": { "魚種別": "七星鱸魚", "縣市": "臺東縣", "所屬縣市": "10014", "魚塭面積(公頃)-小計": "0.1627", "已完成調查魚塭口數-小計": "2", "養殖戶數-小計": "1", "放養量-在池(尾、粒、隻)": "0", "新放養量-在池(尾、粒、隻)": "16000", "魚苗培育-魚塭面積(公頃)": "0", "種魚繁殖-魚塭面積(公頃)": "0", "中間養殖-魚塭面積(公頃)": "0", "成魚養成-魚塭面積(公頃)": "0.1627" }, "geometry": { "type": "Point", "coordinates": [ 121.1132, 22.7583 ] } },
{ "type": "Feature", "properties": { "魚種別": "七星鱸魚", "縣市": "新竹縣", "所屬縣市": "10004", "魚塭面積(公頃)-小計": "5.04", "已完成調查魚塭口數-小計": "7", "養殖戶數-小計": "5", "放養量-在池(尾、粒、隻)": "151000", "新放養量-在池(尾、粒、隻)": "0", "魚苗培育-魚塭面積(公頃)": "0", "種魚繁殖-魚塭面積(公頃)": "0.6081", "中間養殖-魚塭面積(公頃)": "0", "成魚養成-魚塭面積(公頃)": "4.4319" }, "geometry": { "type": "Point", "coordinates": [ 121.0177, 24.7033 ] } },
{ "type": "Feature", "properties": { "魚種別": "七星鱸魚", "縣市": "新竹市", "所屬縣市": "10018", "魚塭面積(公頃)-小計": "0.1158", "已完成調查魚塭口數-小計": "1", "養殖戶數-小計": "1", "放養量-在池(尾、粒、隻)": "0", "新放養量-在池(尾、粒、隻)": "1500", "魚苗培育-魚塭面積(公頃)": "0", "種魚繁殖-魚塭面積(公頃)": "0", "中間養殖-魚塭面積(公頃)": "0", "成魚養成-魚塭面積(公頃)": "0.1158" }, "geometry": { "type": "Point", "coordinates": [ 120.9647, 24.8015 ] } },
{ "type": "Feature", "properties": { "魚種別": "虱目魚", "縣市": "臺南市", "所屬縣市": "67000", "魚塭面積(公頃)-小計": "3640.7796", "已完成調查魚塭口數-小計": "5574", "養殖戶數-小計": "1921", "放養量-在池(尾、粒、隻)": "10713150", "新放養量-在池(尾、粒、隻)": "83542300", "魚苗培育-魚塭面積(公頃)": "0", "種魚繁殖-魚塭面積(公頃)": "0", "中間養殖-魚塭面積(公頃)": "442.4919", "成魚養成-魚塭面積(公頃)": "3198.2877" }, "geometry": { "type": "Point", "coordinates": [ 120.227, 23.001 ] } },
{ "type": "Feature", "properties": { "魚種別": "虱目魚", "縣市": "屏東縣", "所屬縣市": "10013", "魚塭面積(公頃)-小計": "174.514", "已完成調查魚塭口數-小計": "422", "養殖戶數-小計": "102", "放養量-在池(尾、粒、隻)": "637118", "新放養量-在池(尾、粒、隻)": "47393650", "魚苗培育-魚塭面積(公頃)": "3.5369", "種魚繁殖-魚塭面積(公頃)": "0.6609", "中間養殖-魚塭面積(公頃)": "28.0088", "成魚養成-魚塭面積(公頃)": "142.3074" }, "geometry": { "type": "Point", "coordinates": [ 120.488, 22.6824 ] } },
{ "type": "Feature", "properties": { "魚種別": "虱目魚", "縣市": "雲林縣", "所屬縣市": "10009", "魚塭面積(公頃)-小計": "14.7321", "已完成調查魚塭口數-小計": "53", "養殖戶數-小計": "38", "放養量-在池(尾、粒、隻)": "69400", "新放養量-在池(尾、粒、隻)": "326750", "魚苗培育-魚塭面積(公頃)": "0", "種魚繁殖-魚塭面積(公頃)": "0", "中間養殖-魚塭面積(公頃)": "0.9557", "成魚養成-魚塭面積(公頃)": "13.7764" }, "geometry": { "type": "Point", "coordinates": [ 120.4313, 23.7092 ] } },
{ "type": "Feature", "properties": { "魚種別": "虱目魚", "縣市": "嘉義縣", "所屬縣市": "10010", "魚塭面積(公頃)-小計": "2182.2247", "已完成調查魚塭口數-小計": "4590", "養殖戶數-小計": "1448", "放養量-在池(尾、粒、隻)": "878001", "新放養量-在池(尾、粒、隻)": "29659760", "魚苗培育-魚塭面積(公頃)": "0", "種魚繁殖-魚塭面積(公頃)": "0", "中間養殖-魚塭面積(公頃)": "17.1292", "成魚養成-魚塭面積(公頃)": "2164.5249" }, "geometry": { "type": "Point", "coordinates": [ 120.574, 23.4518 ] } },
{ "type": "Feature", "properties": { "魚種別": "虱目魚", "縣市": "彰化縣", "所屬縣市": "10007", "魚塭面積(公頃)-小計": "17.9135", "已完成調查魚塭口數-小計": "43", "養殖戶數-小計": "28", "放養量-在池(尾、粒、隻)": "270600", "新放養量-在池(尾、粒、隻)": "33050", "魚苗培育-魚塭面積(公頃)": "0", "種魚繁殖-魚塭面積(公頃)": "0", "中間養殖-魚塭面積(公頃)": "0", "成魚養成-魚塭面積(公頃)": "17.9135" }, "geometry": { "type": "Point", "coordinates": [ 120.5419, 24.0517 ] } },
{ "type": "Feature", "properties": { "魚種別": "虱目魚", "縣市": "高雄市", "所屬縣市": "64000", "魚塭面積(公頃)-小計": "1996.0257", "已完成調查魚塭口數-小計": "3717", "養殖戶數-小計": "1334", "放養量-在池(尾、粒、隻)": "3901204", "新放養量-在池(尾、粒、隻)": "49713881", "魚苗培育-魚塭面積(公頃)": "4.2701", "種魚繁殖-魚塭面積(公頃)": "0", "中間養殖-魚塭面積(公頃)": "10.6252", "成魚養成-魚塭面積(公頃)": "1981.1304" }, "geometry": { "type": "Point", "coordinates": [ 120.301, 22.6273 ] } },
{ "type": "Feature", "properties": { "魚種別": "虱目魚", "縣市": "宜蘭縣", "所屬縣市": "10002", "魚塭面積(公頃)-小計": "3.5521", "已完成調查魚塭口數-小計": "17", "養殖戶數-小計": "10", "放養量-在池(尾、粒、隻)": "37500", "新放養量-在池(尾、粒、隻)": "546000", "魚苗培育-魚塭面積(公頃)": "0", "種魚繁殖-魚塭面積(公頃)": "0", "中間養殖-魚塭面積(公頃)": "0.7774", "成魚養成-魚塭面積(公頃)": "2.7747" }, "geometry": { "type": "Point", "coordinates": [ 121.7536, 24.7021 ] } },
{ "type": "Feature", "properties": { "魚種別": "虱目魚", "縣市": "新竹縣", "所屬縣市": "10004", "魚塭面積(公頃)-小計": "0.5427", "已完成調查魚塭口數-小計": "1", "養殖戶數-小計": "1", "放養量-在池(尾、粒、隻)": "0", "新放養量-在池(尾、粒、隻)": "10000", "魚苗培育-魚塭面積(公頃)": "0", "種魚繁殖-魚塭面積(公頃)": "0", "中間養殖-魚塭面積(公頃)": "0", "成魚養成-魚塭面積(公頃)": "0.5427" }, "geometry": { "type": "Point", "coordinates": [ 121.0177, 24.7033 ] } },
{ "type": "Feature", "properties": { "魚種別": "虱目魚", "縣市": "澎湖縣", "所屬縣市": "10016", "魚塭面積(公頃)-小計": "0.1635", "已完成調查魚塭口數-小計": "1", "養殖戶數-小計": "1", "放養量-在池(尾、粒、隻)": "6000", "新放養量-在池(尾、粒、隻)": "0", "魚苗培育-魚塭面積(公頃)": "0", "種魚繁殖-魚塭面積(公頃)": "0", "中間養殖-魚塭面積(公頃)": "0", "成魚養成-魚塭面積(公頃)": "0.1635" }, "geometry": { "type": "Point", "coordinates": [ 119.5664, 23.5712 ] } },
{ "type": "Feature", "properties": { "魚種別": "白蝦", "縣市": "臺南市", "所屬縣市": "67000", "魚塭面積(公頃)-小計": "210.976", "已完成調查魚塭口數-小計": "529", "養殖戶數-小計": "250", "放養量-在池(尾、粒、隻)": "5583000", "新放養量-在池(尾、粒、隻)": "335351000", "魚苗培育-魚塭面積(公頃)": "1.3504", "種魚繁殖-魚塭面積(公頃)": "0", "中間養殖-魚塭面積(公頃)": "2.0466", "成魚養成-魚塭面積(公頃)": "207.579" }, "geometry": { "type": "Point", "coordinates": [ 120.227, 23.001 ] } },
{ "type": "Feature", "properties": { "魚種別": "白蝦", "縣市": "屏東縣", "所屬縣市": "10013", "魚塭面積(公頃)-小計": "122.747", "已完成調查魚塭口數-小計": "623", "養殖戶數-小計": "301", "放養量-在池(尾、粒、隻)": "11150016", "新放養量-在池(尾、粒、隻)": "191547501", "魚苗培育-魚塭面積(公頃)": "0.6357", "種魚繁殖-魚塭面積(公頃)": "0", "中間養殖-魚塭面積(公頃)": "14.5521", "成魚養成-魚塭面積(公頃)": "107.5592" }, "geometry": { "type": "Point", "coordinates": [ 120.488, 22.6824 ] } },
{ "type": "Feature", "properties": { "魚種別": "白蝦", "縣市": "雲林縣", "所屬縣市": "10009", "魚塭面積(公頃)-小計": "77.6182", "已完成調查魚塭口數-小計": "259", "養殖戶數-小計": "153", "放養量-在池(尾、粒、隻)": "11600000", "新放養量-在池(尾、粒、隻)": "100545000", "魚苗培育-魚塭面積(公頃)": "0.1176", "種魚繁殖-魚塭面積(公頃)": "0", "中間養殖-魚塭面積(公頃)": "0.0662", "成魚養成-魚塭面積(公頃)": "77.4344" }, "geometry": { "type": "Point", "coordinates": [ 120.4313, 23.7092 ] } },
{ "type": "Feature", "properties": { "魚種別": "白蝦", "縣市": "嘉義縣", "所屬縣市": "10010", "魚塭面積(公頃)-小計": "187.0414", "已完成調查魚塭口數-小計": "680", "養殖戶數-小計": "291", "放養量-在池(尾、粒、隻)": "0", "新放養量-在池(尾、粒、隻)": "967032003", "魚苗培育-魚塭面積(公頃)": "1.2462", "種魚繁殖-魚塭面積(公頃)": "0", "中間養殖-魚塭面積(公頃)": "4.4524", "成魚養成-魚塭面積(公頃)": "181.3428" }, "geometry": { "type": "Point", "coordinates": [ 120.574, 23.4518 ] } },
{ "type": "Feature", "properties": { "魚種別": "白蝦", "縣市": "彰化縣", "所屬縣市": "10007", "魚塭面積(公頃)-小計": "36.5044", "已完成調查魚塭口數-小計": "121", "養殖戶數-小計": "43", "放養量-在池(尾、粒、隻)": "7640000", "新放養量-在池(尾、粒、隻)": "19834000", "魚苗培育-魚塭面積(公頃)": "0", "種魚繁殖-魚塭面積(公頃)": "0", "中間養殖-魚塭面積(公頃)": "0.3272", "成魚養成-魚塭面積(公頃)": "36.1772" }, "geometry": { "type": "Point", "coordinates": [ 120.5419, 24.0517 ] } },
{ "type": "Feature", "properties": { "魚種別": "白蝦", "縣市": "高雄市", "所屬縣市": "64000", "魚塭面積(公頃)-小計": "65.4271", "已完成調查魚塭口數-小計": "736", "養殖戶數-小計": "284", "放養量-在池(尾、粒、隻)": "307571200", "新放養量-在池(尾、粒、隻)": "29602601200", "魚苗培育-魚塭面積(公頃)": "6.8241", "種魚繁殖-魚塭面積(公頃)": "0.6721", "中間養殖-魚塭面積(公頃)": "1.8233", "成魚養成-魚塭面積(公頃)": "56.1076" }, "geometry": { "type": "Point", "coordinates": [ 120.301, 22.6273 ] } },
{ "type": "Feature", "properties": { "魚種別": "白蝦", "縣市": "宜蘭縣", "所屬縣市": "10002", "魚塭面積(公頃)-小計": "133.1114", "已完成調查魚塭口數-小計": "647", "養殖戶數-小計": "200", "放養量-在池(尾、粒、隻)": "120000", "新放養量-在池(尾、粒、隻)": "143922300", "魚苗培育-魚塭面積(公頃)": "0", "種魚繁殖-魚塭面積(公頃)": "0", "中間養殖-魚塭面積(公頃)": "0.9491", "成魚養成-魚塭面積(公頃)": "132.1623" }, "geometry": { "type": "Point", "coordinates": [ 121.7536, 24.7021 ] } },
{ "type": "Feature", "properties": { "魚種別": "白蝦", "縣市": "花蓮縣", "所屬縣市": "10015", "魚塭面積(公頃)-小計": "1.1793", "已完成調查魚塭口數-小計": "10", "養殖戶數-小計": "3", "放養量-在池(尾、粒、隻)": "0", "新放養量-在池(尾、粒、隻)": "4870000", "魚苗培育-魚塭面積(公頃)": "0", "種魚繁殖-魚塭面積(公頃)": "0", "中間養殖-魚塭面積(公頃)": "0.174", "成魚養成-魚塭面積(公頃)": "1.0053" }, "geometry": { "type": "Point", "coordinates": [ 121.6042, 23.9871 ] } },
{ "type": "Feature", "properties": { "魚種別": "白蝦", "縣市": "臺東縣", "所屬縣市": "10014", "魚塭面積(公頃)-小計": "5.3001", "已完成調查魚塭口數-小計": "26", "養殖戶數-小計": "9", "放養量-在池(尾、粒、隻)": "2180000", "新放養量-在池(尾、粒、隻)": "12960000", "魚苗培育-魚塭面積(公頃)": "4.635", "種魚繁殖-魚塭面積(公頃)": "0.1501", "中間養殖-魚塭面積(公頃)": "0", "成魚養成-魚塭面積(公頃)": "0.515" }, "geometry": { "type": "Point", "coordinates": [ 121.1132, 22.7583 ] } },
{ "type": "Feature", "properties": { "魚種別": "白蝦", "縣市": "新竹縣", "所屬縣市": "10004", "魚塭面積(公頃)-小計": "0.8197", "已完成調查魚塭口數-小計": "5", "養殖戶數-小計": "2", "放養量-在池(尾、粒、隻)": "0", "新放養量-在池(尾、粒、隻)": "280000", "魚苗培育-魚塭面積(公頃)": "0", "種魚繁殖-魚塭面積(公頃)": "0", "中間養殖-魚塭面積(公頃)": "0", "成魚養成-魚塭面積(公頃)": "0.8197" }, "geometry": { "type": "Point", "coordinates": [ 121.0177, 24.7033 ] } },
{ "type": "Feature", "properties": { "魚種別": "白蝦", "縣市": "澎湖縣", "所屬縣市": "10016", "魚塭面積(公頃)-小計": "0.454", "已完成調查魚塭口數-小計": "2", "養殖戶數-小計": "1", "放養量-在池(尾、粒、隻)": "0", "新放養量-在池(尾、粒、隻)": "600000", "魚苗培育-魚塭面積(公頃)": "0", "種魚繁殖-魚塭面積(公頃)": "0", "中間養殖-魚塭面積(公頃)": "0.454", "成魚養成-魚塭面積(公頃)": "0" }, "geometry": { "type": "Point", "coordinates": [ 119.5664, 23.5712 ] } },
{ "type": "Feature", "properties": { "魚種別": "白蝦", "縣市": "新竹市", "所屬縣市": "10018", "魚塭面積(公頃)-小計": "0.3691", "已完成調查魚塭口數-小計": "1", "養殖戶數-小計": "1", "放養量-在池(尾、粒、隻)": "0", "新放養量-在池(尾、粒、隻)": "100000", "魚苗培育-魚塭面積(公頃)": "0", "種魚繁殖-魚塭面積(公頃)": "0", "中間養殖-魚塭面積(公頃)": "0", "成魚養成-魚塭面積(公頃)": "0.3691" }, "geometry": { "type": "Point", "coordinates": [ 120.9647, 24.8015 ] } },
{ "type": "Feature", "properties": { "魚種別": "白蝦", "縣市": "金門縣", "所屬縣市": "09020", "魚塭面積(公頃)-小計": "10.7528", "已完成調查魚塭口數-小計": "5", "養殖戶數-小計": "4", "放養量-在池(尾、粒、隻)": "0", "新放養量-在池(尾、粒、隻)": "4925000", "魚苗培育-魚塭面積(公頃)": "0", "種魚繁殖-魚塭面積(公頃)": "0", "中間養殖-魚塭面積(公頃)": "0", "成魚養成-魚塭面積(公頃)": "10.7528" }, "geometry": { "type": "Point", "coordinates": [ 118.3186, 24.4485 ] } },
{ "type": "Feature", "properties": { "魚種別": "文蛤", "縣市": "臺南市", "所屬縣市": "67000", "魚塭面積(公頃)-小計": "3066.0943", "已完成調查魚塭口數-小計": "1830", "養殖戶數-小計": "626", "放養量-在池(尾、粒、隻)": "327370200", "新放養量-在池(尾、粒、隻)": "1698930500", "魚苗培育-魚塭面積(公頃)": "0", "種魚繁殖-魚塭面積(公頃)": "0", "中間養殖-魚塭面積(公頃)": "8.6933", "成魚養成-魚塭面積(公頃)": "3057.401" }, "geometry": { "type": "Point", "coordinates": [ 120.227, 23.001 ] } },
{ "type": "Feature", "properties": { "魚種別": "文蛤", "縣市": "雲林縣", "所屬縣市": "10009", "魚塭面積(公頃)-小計": "3224.7771", "已完成調查魚塭口數-小計": "3420", "養殖戶數-小計": "2434", "放養量-在池(尾、粒、隻)": "1681778000", "新放養量-在池(尾、粒、隻)": "9243562566", "魚苗培育-魚塭面積(公頃)": "6.9474", "種魚繁殖-魚塭面積(公頃)": "0.3966", "中間養殖-魚塭面積(公頃)": "164.9522", "成魚養成-魚塭面積(公頃)": "3051.9807" }, "geometry": { "type": "Point", "coordinates": [ 120.4313, 23.7092 ] } },
{ "type": "Feature", "properties": { "魚種別": "文蛤", "縣市": "嘉義縣", "所屬縣市": "10010", "魚塭面積(公頃)-小計": "685.5656", "已完成調查魚塭口數-小計": "614", "養殖戶數-小計": "368", "放養量-在池(尾、粒、隻)": "23700000", "新放養量-在池(尾、粒、隻)": "744290009", "魚苗培育-魚塭面積(公頃)": "0", "種魚繁殖-魚塭面積(公頃)": "0", "中間養殖-魚塭面積(公頃)": "0", "成魚養成-魚塭面積(公頃)": "685.5656" }, "geometry": { "type": "Point", "coordinates": [ 120.574, 23.4518 ] } },
{ "type": "Feature", "properties": { "魚種別": "文蛤", "縣市": "彰化縣", "所屬縣市": "10007", "魚塭面積(公頃)-小計": "1301.6558", "已完成調查魚塭口數-小計": "1192", "養殖戶數-小計": "593", "放養量-在池(尾、粒、隻)": "1395094500", "新放養量-在池(尾、粒、隻)": "935080000", "魚苗培育-魚塭面積(公頃)": "49.1067", "種魚繁殖-魚塭面積(公頃)": "0", "中間養殖-魚塭面積(公頃)": "0", "成魚養成-魚塭面積(公頃)": "1252.5491" }, "geometry": { "type": "Point", "coordinates": [ 120.5419, 24.0517 ] } },
{ "type": "Feature", "properties": { "魚種別": "金目鱸", "縣市": "臺南市", "所屬縣市": "67000", "魚塭面積(公頃)-小計": "76.5268", "已完成調查魚塭口數-小計": "119", "養殖戶數-小計": "53", "放養量-在池(尾、粒、隻)": "428000", "新放養量-在池(尾、粒、隻)": "3303995", "魚苗培育-魚塭面積(公頃)": "0.5454", "種魚繁殖-魚塭面積(公頃)": "0", "中間養殖-魚塭面積(公頃)": "2.1789", "成魚養成-魚塭面積(公頃)": "73.8025" }, "geometry": { "type": "Point", "coordinates": [ 120.227, 23.001 ] } },
{ "type": "Feature", "properties": { "魚種別": "金目鱸", "縣市": "屏東縣", "所屬縣市": "10013", "魚塭面積(公頃)-小計": "152.4107", "已完成調查魚塭口數-小計": "635", "養殖戶數-小計": "187", "放養量-在池(尾、粒、隻)": "4059844", "新放養量-在池(尾、粒、隻)": "25246000", "魚苗培育-魚塭面積(公頃)": "0.1658", "種魚繁殖-魚塭面積(公頃)": "0.1403", "中間養殖-魚塭面積(公頃)": "9.7786", "成魚養成-魚塭面積(公頃)": "142.326" }, "geometry": { "type": "Point", "coordinates": [ 120.488, 22.6824 ] } },
{ "type": "Feature", "properties": { "魚種別": "金目鱸", "縣市": "雲林縣", "所屬縣市": "10009", "魚塭面積(公頃)-小計": "22.1741", "已完成調查魚塭口數-小計": "54", "養殖戶數-小計": "16", "放養量-在池(尾、粒、隻)": "720000", "新放養量-在池(尾、粒、隻)": "533000", "魚苗培育-魚塭面積(公頃)": "0", "種魚繁殖-魚塭面積(公頃)": "0", "中間養殖-魚塭面積(公頃)": "0.1296", "成魚養成-魚塭面積(公頃)": "22.0445" }, "geometry": { "type": "Point", "coordinates": [ 120.4313, 23.7092 ] } },
{ "type": "Feature", "properties": { "魚種別": "金目鱸", "縣市": "嘉義縣", "所屬縣市": "10010", "魚塭面積(公頃)-小計": "281.0149", "已完成調查魚塭口數-小計": "786", "養殖戶數-小計": "194", "放養量-在池(尾、粒、隻)": "3573650", "新放養量-在池(尾、粒、隻)": "21292304", "魚苗培育-魚塭面積(公頃)": "0", "種魚繁殖-魚塭面積(公頃)": "0", "中間養殖-魚塭面積(公頃)": "5.8523", "成魚養成-魚塭面積(公頃)": "275.1626" }, "geometry": { "type": "Point", "coordinates": [ 120.574, 23.4518 ] } },
{ "type": "Feature", "properties": { "魚種別": "金目鱸", "縣市": "彰化縣", "所屬縣市": "10007", "魚塭面積(公頃)-小計": "0.1146", "已完成調查魚塭口數-小計": "2", "養殖戶數-小計": "1", "放養量-在池(尾、粒、隻)": "350", "新放養量-在池(尾、粒、隻)": "0", "魚苗培育-魚塭面積(公頃)": "0", "種魚繁殖-魚塭面積(公頃)": "0", "中間養殖-魚塭面積(公頃)": "0", "成魚養成-魚塭面積(公頃)": "0.1146" }, "geometry": { "type": "Point", "coordinates": [ 120.5419, 24.0517 ] } },
{ "type": "Feature", "properties": { "魚種別": "金目鱸", "縣市": "高雄市", "所屬縣市": "64000", "魚塭面積(公頃)-小計": "319.0222", "已完成調查魚塭口數-小計": "1033", "養殖戶數-小計": "393", "放養量-在池(尾、粒、隻)": "5193602", "新放養量-在池(尾、粒、隻)": "28991122", "魚苗培育-魚塭面積(公頃)": "0.7614", "種魚繁殖-魚塭面積(公頃)": "0.5213", "中間養殖-魚塭面積(公頃)": "1.8997", "成魚養成-魚塭面積(公頃)": "315.8398" }, "geometry": { "type": "Point", "coordinates": [ 120.301, 22.6273 ] } },
{ "type": "Feature", "properties": { "魚種別": "金目鱸", "縣市": "臺東縣", "所屬縣市": "10014", "魚塭面積(公頃)-小計": "0.0893", "已完成調查魚塭口數-小計": "1", "養殖戶數-小計": "1", "放養量-在池(尾、粒、隻)": "0", "新放養量-在池(尾、粒、隻)": "16000", "魚苗培育-魚塭面積(公頃)": "0.0893", "種魚繁殖-魚塭面積(公頃)": "0", "中間養殖-魚塭面積(公頃)": "0", "成魚養成-魚塭面積(公頃)": "0" }, "geometry": { "type": "Point", "coordinates": [ 121.1132, 22.7583 ] } },
{ "type": "Feature", "properties": { "魚種別": "龍膽石斑", "縣市": "臺南市", "所屬縣市": "67000", "魚塭面積(公頃)-小計": "190.841", "已完成調查魚塭口數-小計": "600", "養殖戶數-小計": "179", "放養量-在池(尾、粒、隻)": "805025", "新放養量-在池(尾、粒、隻)": "1735536", "魚苗培育-魚塭面積(公頃)": "23.7285", "種魚繁殖-魚塭面積(公頃)": "1.8572", "中間養殖-魚塭面積(公頃)": "20.922", "成魚養成-魚塭面積(公頃)": "144.3333" }, "geometry": { "type": "Point", "coordinates": [ 120.227, 23.001 ] } },
{ "type": "Feature", "properties": { "魚種別": "龍膽石斑", "縣市": "屏東縣", "所屬縣市": "10013", "魚塭面積(公頃)-小計": "196.7224", "已完成調查魚塭口數-小計": "1006", "養殖戶數-小計": "348", "放養量-在池(尾、粒、隻)": "1943838", "新放養量-在池(尾、粒、隻)": "4571433", "魚苗培育-魚塭面積(公頃)": "0.8868", "種魚繁殖-魚塭面積(公頃)": "4.4928", "中間養殖-魚塭面積(公頃)": "15.7664", "成魚養成-魚塭面積(公頃)": "175.5764" }, "geometry": { "type": "Point", "coordinates": [ 120.488, 22.6824 ] } },
{ "type": "Feature", "properties": { "魚種別": "龍膽石斑", "縣市": "雲林縣", "所屬縣市": "10009", "魚塭面積(公頃)-小計": "37.4711", "已完成調查魚塭口數-小計": "116", "養殖戶數-小計": "58", "放養量-在池(尾、粒、隻)": "89038", "新放養量-在池(尾、粒、隻)": "3638400", "魚苗培育-魚塭面積(公頃)": "0.2858", "種魚繁殖-魚塭面積(公頃)": "0", "中間養殖-魚塭面積(公頃)": "10.1156", "成魚養成-魚塭面積(公頃)": "27.0697" }, "geometry": { "type": "Point", "coordinates": [ 120.4313, 23.7092 ] } },
{ "type": "Feature", "properties": { "魚種別": "龍膽石斑", "縣市": "嘉義縣", "所屬縣市": "10010", "魚塭面積(公頃)-小計": "84.0374", "已完成調查魚塭口數-小計": "348", "養殖戶數-小計": "80", "放養量-在池(尾、粒、隻)": "120170", "新放養量-在池(尾、粒、隻)": "57290852", "魚苗培育-魚塭面積(公頃)": "20.3602", "種魚繁殖-魚塭面積(公頃)": "0.4252", "中間養殖-魚塭面積(公頃)": "43.2752", "成魚養成-魚塭面積(公頃)": "19.9768" }, "geometry": { "type": "Point", "coordinates": [ 120.574, 23.4518 ] } },
{ "type": "Feature", "properties": { "魚種別": "龍膽石斑", "縣市": "彰化縣", "所屬縣市": "10007", "魚塭面積(公頃)-小計": "0.3168", "已完成調查魚塭口數-小計": "3", "養殖戶數-小計": "1", "放養量-在池(尾、粒、隻)": "1600", "新放養量-在池(尾、粒、隻)": "0", "魚苗培育-魚塭面積(公頃)": "0", "種魚繁殖-魚塭面積(公頃)": "0", "中間養殖-魚塭面積(公頃)": "0", "成魚養成-魚塭面積(公頃)": "0.3168" }, "geometry": { "type": "Point", "coordinates": [ 120.5419, 24.0517 ] } },
{ "type": "Feature", "properties": { "魚種別": "龍膽石斑", "縣市": "高雄市", "所屬縣市": "64000", "魚塭面積(公頃)-小計": "116.5698", "已完成調查魚塭口數-小計": "484", "養殖戶數-小計": "215", "放養量-在池(尾、粒、隻)": "4875932", "新放養量-在池(尾、粒、隻)": "5530840", "魚苗培育-魚塭面積(公頃)": "3.8271", "種魚繁殖-魚塭面積(公頃)": "0", "中間養殖-魚塭面積(公頃)": "1.3432", "成魚養成-魚塭面積(公頃)": "111.3995" }, "geometry": { "type": "Point", "coordinates": [ 120.301, 22.6273 ] } },
{ "type": "Feature", "properties": { "魚種別": "龍膽石斑", "縣市": "宜蘭縣", "所屬縣市": "10002", "魚塭面積(公頃)-小計": "3.5439", "已完成調查魚塭口數-小計": "17", "養殖戶數-小計": "10", "放養量-在池(尾、粒、隻)": "13600", "新放養量-在池(尾、粒、隻)": "1480", "魚苗培育-魚塭面積(公頃)": "0", "種魚繁殖-魚塭面積(公頃)": "0", "中間養殖-魚塭面積(公頃)": "0.3583", "成魚養成-魚塭面積(公頃)": "3.1856" }, "geometry": { "type": "Point", "coordinates": [ 121.7536, 24.7021 ] } },
{ "type": "Feature", "properties": { "魚種別": "龍膽石斑", "縣市": "澎湖縣", "所屬縣市": "10016", "魚塭面積(公頃)-小計": "1.3697", "已完成調查魚塭口數-小計": "8", "養殖戶數-小計": "6", "放養量-在池(尾、粒、隻)": "7930", "新放養量-在池(尾、粒、隻)": "5000", "魚苗培育-魚塭面積(公頃)": "0", "種魚繁殖-魚塭面積(公頃)": "0", "中間養殖-魚塭面積(公頃)": "0.8167", "成魚養成-魚塭面積(公頃)": "0.553" }, "geometry": { "type": "Point", "coordinates": [ 119.5664, 23.5712 ] } },
{ "type": "Feature", "properties": { "魚種別": "青斑(點帶、馬拉巴、紅點、黑點)", "縣市": "臺南市", "所屬縣市": "67000", "魚塭面積(公頃)-小計": "283.6298", "已完成調查魚塭口數-小計": "812", "養殖戶數-小計": "203", "放養量-在池(尾、粒、隻)": "3325990", "新放養量-在池(尾、粒、隻)": "1857925", "魚苗培育-魚塭面積(公頃)": "15.1061", "種魚繁殖-魚塭面積(公頃)": "0", "中間養殖-魚塭面積(公頃)": "10.953", "成魚養成-魚塭面積(公頃)": "257.5707" }, "geometry": { "type": "Point", "coordinates": [ 120.227, 23.001 ] } },
{ "type": "Feature", "properties": { "魚種別": "青斑(點帶、馬拉巴、紅點、黑點)", "縣市": "屏東縣", "所屬縣市": "10013", "魚塭面積(公頃)-小計": "196.3527", "已完成調查魚塭口數-小計": "841", "養殖戶數-小計": "356", "放養量-在池(尾、粒、隻)": "12018590", "新放養量-在池(尾、粒、隻)": "10729210", "魚苗培育-魚塭面積(公頃)": "0.9659", "種魚繁殖-魚塭面積(公頃)": "0.9518", "中間養殖-魚塭面積(公頃)": "2.4832", "成魚養成-魚塭面積(公頃)": "191.9518" }, "geometry": { "type": "Point", "coordinates": [ 120.488, 22.6824 ] } },
{ "type": "Feature", "properties": { "魚種別": "青斑(點帶、馬拉巴、紅點、黑點)", "縣市": "雲林縣", "所屬縣市": "10009", "魚塭面積(公頃)-小計": "0.2209", "已完成調查魚塭口數-小計": "3", "養殖戶數-小計": "3", "放養量-在池(尾、粒、隻)": "300", "新放養量-在池(尾、粒、隻)": "1100000", "魚苗培育-魚塭面積(公頃)": "0.0929", "種魚繁殖-魚塭面積(公頃)": "0", "中間養殖-魚塭面積(公頃)": "0", "成魚養成-魚塭面積(公頃)": "0.128" }, "geometry": { "type": "Point", "coordinates": [ 120.4313, 23.7092 ] } },
{ "type": "Feature", "properties": { "魚種別": "青斑(點帶、馬拉巴、紅點、黑點)", "縣市": "嘉義縣", "所屬縣市": "10010", "魚塭面積(公頃)-小計": "65.3332", "已完成調查魚塭口數-小計": "208", "養殖戶數-小計": "71", "放養量-在池(尾、粒、隻)": "373000", "新放養量-在池(尾、粒、隻)": "7773300", "魚苗培育-魚塭面積(公頃)": "2.9363", "種魚繁殖-魚塭面積(公頃)": "0", "中間養殖-魚塭面積(公頃)": "8.2888", "成魚養成-魚塭面積(公頃)": "54.1081" }, "geometry": { "type": "Point", "coordinates": [ 120.574, 23.4518 ] } },
{ "type": "Feature", "properties": { "魚種別": "青斑(點帶、馬拉巴、紅點、黑點)", "縣市": "彰化縣", "所屬縣市": "10007", "魚塭面積(公頃)-小計": "1.5564", "已完成調查魚塭口數-小計": "9", "養殖戶數-小計": "3", "放養量-在池(尾、粒、隻)": "6600", "新放養量-在池(尾、粒、隻)": "500", "魚苗培育-魚塭面積(公頃)": "0", "種魚繁殖-魚塭面積(公頃)": "0", "中間養殖-魚塭面積(公頃)": "0", "成魚養成-魚塭面積(公頃)": "1.5564" }, "geometry": { "type": "Point", "coordinates": [ 120.5419, 24.0517 ] } },
{ "type": "Feature", "properties": { "魚種別": "青斑(點帶、馬拉巴、紅點、黑點)", "縣市": "高雄市", "所屬縣市": "64000", "魚塭面積(公頃)-小計": "200.3424", "已完成調查魚塭口數-小計": "859", "養殖戶數-小計": "299", "放養量-在池(尾、粒、隻)": "7171425", "新放養量-在池(尾、粒、隻)": "35047303", "魚苗培育-魚塭面積(公頃)": "2.734", "種魚繁殖-魚塭面積(公頃)": "0.1096", "中間養殖-魚塭面積(公頃)": "1.6125", "成魚養成-魚塭面積(公頃)": "195.4607" }, "geometry": { "type": "Point", "coordinates": [ 120.301, 22.6273 ] } },
{ "type": "Feature", "properties": { "魚種別": "青斑(點帶、馬拉巴、紅點、黑點)", "縣市": "宜蘭縣", "所屬縣市": "10002", "魚塭面積(公頃)-小計": "3.9548", "已完成調查魚塭口數-小計": "23", "養殖戶數-小計": "9", "放養量-在池(尾、粒、隻)": "132500", "新放養量-在池(尾、粒、隻)": "10000", "魚苗培育-魚塭面積(公頃)": "0", "種魚繁殖-魚塭面積(公頃)": "0", "中間養殖-魚塭面積(公頃)": "0", "成魚養成-魚塭面積(公頃)": "3.9548" }, "geometry": { "type": "Point", "coordinates": [ 121.7536, 24.7021 ] } },
{ "type": "Feature", "properties": { "魚種別": "青斑(點帶、馬拉巴、紅點、黑點)", "縣市": "澎湖縣", "所屬縣市": "10016", "魚塭面積(公頃)-小計": "3.9656", "已完成調查魚塭口數-小計": "37", "養殖戶數-小計": "18", "放養量-在池(尾、粒、隻)": "57240", "新放養量-在池(尾、粒、隻)": "100500", "魚苗培育-魚塭面積(公頃)": "0", "種魚繁殖-魚塭面積(公頃)": "0", "中間養殖-魚塭面積(公頃)": "1.0351", "成魚養成-魚塭面積(公頃)": "2.9305" }, "geometry": { "type": "Point", "coordinates": [ 119.5664, 23.5712 ] } },
{ "type": "Feature", "properties": { "魚種別": "青斑(點帶、馬拉巴、紅點、黑點)", "縣市": "新竹市", "所屬縣市": "10018", "魚塭面積(公頃)-小計": "1.1224", "已完成調查魚塭口數-小計": "2", "養殖戶數-小計": "2", "放養量-在池(尾、粒、隻)": "6000", "新放養量-在池(尾、粒、隻)": "3000", "魚苗培育-魚塭面積(公頃)": "0", "種魚繁殖-魚塭面積(公頃)": "0", "中間養殖-魚塭面積(公頃)": "0", "成魚養成-魚塭面積(公頃)": "1.1224" }, "geometry": { "type": "Point", "coordinates": [ 120.9647, 24.8015 ] } },
{ "type": "Feature", "properties": { "魚種別": "青斑(點帶、馬拉巴、紅點、黑點)", "縣市": "金門縣", "所屬縣市": "09020", "魚塭面積(公頃)-小計": "0.7195", "已完成調查魚塭口數-小計": "3", "養殖戶數-小計": "1", "放養量-在池(尾、粒、隻)": "0", "新放養量-在池(尾、粒、隻)": "6000000", "魚苗培育-魚塭面積(公頃)": "0.7195", "種魚繁殖-魚塭面積(公頃)": "0", "中間養殖-魚塭面積(公頃)": "0", "成魚養成-魚塭面積(公頃)": "0" }, "geometry": { "type": "Point", "coordinates": [ 118.3186, 24.4485 ] } }
]
}
