{
"type": "FeatureCollection",
"name": "aquaculture_cage_net",
"crs": { "type": "name", "properties": { "name": "urn:ogc:def:crs:OGC:1.3:CRS84" } },
"features": [
{ "type": "Feature", "properties": { "public_no": "澎漁權字第0087號", "township": "馬公市", "location": "五德碼頭地先向西約150公尺" }, "geometry": { "type": "Polygon", "coordinates": [ [ [ 119.578694444, 23.528169444000071 ], [ 119.578561111, 23.527925 ], [ 119.577702778, 23.528366667000057 ], [ 119.577827778000028, 23.5286 ], [ 119.578694444, 23.528169444000071 ] ] ] } },
{ "type": "Feature", "properties": { "public_no": "澎漁權字第0119號", "township": "西嶼鄉", "location": "二崁村烏崁山邊地先向東南約650公尺海域" }, "geometry": { "type": "Polygon", "coordinates": [ [ [ 119.527463889000046, 23.614055556000039 ], [ 119.52625, 23.614811111000051 ], [ 119.526802778000047, 23.61556111100009 ], [ 119.528022222, 23.614808333000042 ], [ 119.527463889000046, 23.614055556000039 ] ] ] } },
{ "type": "Feature", "properties": { "public_no": "澎漁權字第0134號", "township": "馬公市", "location": "嵵裡俗稱後井山地先向東北約700公尺處海域" }, "geometry": { "type": "Polygon", "coordinates": [ [ [ 119.577930556000069, 23.533427778000089 ], [ 119.577377778000027, 23.53425 ], [ 119.578647222000086, 23.534952778000047 ], [ 119.5791, 23.534147222000058 ], [ 119.577930556000069, 23.533427778000089 ] ] ] } },
{ "type": "Feature", "properties": { "public_no": "澎漁權字第0139號", "township": "西嶼鄉", "location": "竹灣村俗稱崎底地先向南約200公尺" }, "geometry": { "type": "Polygon", "coordinates": [ [ [ 119.526663889000019, 23.62776944400008 ], [ 119.526336111000091, 23.628625 ], [ 119.527222222000091, 23.628997222000066 ], [ 119.527558333, 23.628147222000052 ], [ 119.526663889000019, 23.62776944400008 ] ] ] } },
{ "type": "Feature", "properties": { "public_no": "澎漁權字第0141號", "township": "西嶼鄉", "location": "西嶼鄉竹灣村龜山頭地先向東約200公尺" }, "geometry": { "type": "Polygon", "coordinates": [ [ [ 119.519327778000047, 23.626269444000059 ], [ 119.518902778000097, 23.6265 ], [ 119.520511111000019, 23.628875 ], [ 119.520944444000065, 23.628627778000066 ], [ 119.519327778000047, 23.626269444000059 ] ] ] } },
{ "type": "Feature", "properties": { "public_no": "澎漁權字第0154號", "township": "白沙鄉", "location": "通樑村俗稱汕尾地先向東約550公尺海域" }, "geometry": { "type": "Polygon", "coordinates": [ [ [ 119.571752778000018, 23.647688889000051 ], [ 119.571163889000104, 23.648466667000037 ], [ 119.573452778000046, 23.650133333000042 ], [ 119.574044444000037, 23.649375 ], [ 119.571752778000018, 23.647688889000051 ] ] ] } },
{ "type": "Feature", "properties": { "public_no": "澎漁權字第0170號", "township": "馬公市", "location": "馬公市五德里雞母塢山向西北地先" }, "geometry": { "type": "Polygon", "coordinates": [ [ [ 119.579280556000072, 23.534586111000067 ], [ 119.578841667, 23.535425 ], [ 119.580952778000096, 23.536161111000069 ], [ 119.581369444000075, 23.535361111000043 ], [ 119.579280556000072, 23.534586111000067 ] ] ] } },
{ "type": "Feature", "properties": { "public_no": "澎漁權字第0213號", "township": "馬公市", "location": "馬公市五德里碼頭東北角地先約149公尺海域" }, "geometry": { "type": "Polygon", "coordinates": [ [ [ 119.587141667000083, 23.531875 ], [ 119.586727778000068, 23.531988889000047 ], [ 119.586983333000035, 23.532688889000042 ], [ 119.587380556000085, 23.532591667000077 ], [ 119.587141667000083, 23.531875 ] ] ] } },
{ "type": "Feature", "properties": { "public_no": "澎漁權字第0219號", "township": "西嶼鄉", "location": "西嶼鄉竹灣村俗稱灣底地先向東約308公尺" }, "geometry": { "type": "Polygon", "coordinates": [ [ [ 119.521261111000058, 23.62511388900009 ], [ 119.520486111000082, 23.625708333000091 ], [ 119.521136111000033, 23.626419444000078 ], [ 119.52187222200007, 23.625816667000038 ], [ 119.521261111000058, 23.62511388900009 ] ] ] } },
{ "type": "Feature", "properties": { "public_no": "澎漁權字第0220號", "township": "西嶼鄉", "location": "西嶼鄉竹灣村俗稱崎皮地先向東南約312公尺海域" }, "geometry": { "type": "Polygon", "coordinates": [ [ [ 119.521594444000016, 23.624677778000091 ], [ 119.521261111000058, 23.62494444400005 ], [ 119.5220388890001, 23.625927778000062 ], [ 119.522472222000033, 23.62554166700005 ], [ 119.521594444000016, 23.624677778000091 ] ] ] } },
{ "type": "Feature", "properties": { "public_no": "澎漁權字第0224號", "township": "西嶼鄉", "location": "竹灣村俗稱二龜鼻地先181公尺海域" }, "geometry": { "type": "Polygon", "coordinates": [ [ [ 119.522683333000032, 23.622375 ], [ 119.521552778, 23.623944444000074 ], [ 119.522172222000108, 23.62429166700008 ], [ 119.523336111000049, 23.622919444000047 ], [ 119.522683333000032, 23.622375 ] ] ] } },
{ "type": "Feature", "properties": { "public_no": "澎漁權字第0230號", "township": "西嶼鄉", "location": "西嶼鄉二崁村俗稱烏崁山地先向東北約508公尺" }, "geometry": { "type": "Polygon", "coordinates": [ [ [ 119.523655556000108, 23.617088889000058 ], [ 119.523175, 23.617586111000037 ], [ 119.524061111000037, 23.619177778000051 ], [ 119.524669444000097, 23.618916667000065 ], [ 119.523655556000108, 23.617088889000058 ] ] ] } },
{ "type": "Feature", "properties": { "public_no": "澎漁權字第0231號", "township": "西嶼鄉", "location": "竹灣村龜山地先向東北約330公尺海域" }, "geometry": { "type": "Polygon", "coordinates": [ [ [ 119.523747222, 23.62335 ], [ 119.523108333000096, 23.62391388900005 ], [ 119.52378055600002, 23.624447222000072 ], [ 119.524283333000085, 23.624011111000073 ], [ 119.523747222, 23.62335 ] ] ] } },
{ "type": "Feature", "properties": { "public_no": "澎漁權字第0232號", "township": "馬公市", "location": "五德里雞母塢山北地先向東北約200公尺海域" }, "geometry": { "type": "Polygon", "coordinates": [ [ [ 119.586825, 23.532716667000045 ], [ 119.587125, 23.53375 ], [ 119.587602778000019, 23.533744444000035 ], [ 119.587330556000097, 23.532741667000039 ], [ 119.586825, 23.532716667000045 ] ] ] } },
{ "type": "Feature", "properties": { "public_no": "澎漁權字第0233號", "township": "馬公市", "location": "五德里雞母塢山地先向東北" }, "geometry": { "type": "Polygon", "coordinates": [ [ [ 119.587330556000097, 23.532741667000039 ], [ 119.587602778000019, 23.533744444000035 ], [ 119.588091667000072, 23.533733333000043 ], [ 119.587822222, 23.532741667000039 ], [ 119.587330556000097, 23.532741667000039 ] ] ] } },
{ "type": "Feature", "properties": { "public_no": "澎漁權字第0234號", "township": "西嶼鄉", "location": "竹灣村俗稱崎皮地先向南約515公尺海域" }, "geometry": { "type": "Polygon", "coordinates": [ [ [ 119.527116667000087, 23.623408333000043 ], [ 119.524775, 23.625063889000046 ], [ 119.525516667000034, 23.625577778000036 ], [ 119.527875000000108, 23.623980556000049 ], [ 119.527116667000087, 23.623408333000043 ] ] ] } },
{ "type": "Feature", "properties": { "public_no": "澎漁權字第0235號", "township": "西嶼鄉", "location": "竹灣村俗稱崎皮地先向南約410公尺海域" }, "geometry": { "type": "Polygon", "coordinates": [ [ [ 119.524566667000045, 23.624977778000073 ], [ 119.52401111100005, 23.625486111000043 ], [ 119.524963889000105, 23.626319444000046 ], [ 119.525580556000023, 23.625755556000058 ], [ 119.524566667000045, 23.624977778000073 ] ] ] } },
{ "type": "Feature", "properties": { "public_no": "澎漁權字第0238號", "township": "白沙鄉", "location": "瓦硐村碼頭地先向西南約530公尺海域" }, "geometry": { "type": "Polygon", "coordinates": [ [ [ 119.576933333000056, 23.650775 ], [ 119.576002778000088, 23.651097222000089 ], [ 119.576702778000026, 23.653225 ], [ 119.577652778000015, 23.652916667000056 ], [ 119.576933333000056, 23.650775 ] ] ] } },
{ "type": "Feature", "properties": { "public_no": "澎漁權字第0239號", "township": "白沙鄉", "location": "通樑村汕尾地先向東南約700公尺海域" }, "geometry": { "type": "Polygon", "coordinates": [ [ [ 119.570463889000052, 23.646813889000043 ], [ 119.569786111000099, 23.647083333000069 ], [ 119.569788889000051, 23.649213889000066 ], [ 119.570430556000019, 23.648894444000064 ], [ 119.570463889000052, 23.646813889000043 ] ] ] } },
{ "type": "Feature", "properties": { "public_no": "澎漁權字第0240號", "township": "白沙鄉", "location": "通樑村汕尾地先向東南約740公尺海域" }, "geometry": { "type": "Polygon", "coordinates": [ [ [ 119.569547222000097, 23.646394444000066 ], [ 119.568561111, 23.646541667000065 ], [ 119.5687, 23.647225 ], [ 119.569680556000094, 23.647066667000047 ], [ 119.569547222000097, 23.646394444000066 ] ] ] } },
{ "type": "Feature", "properties": { "public_no": "澎漁權字第0242號", "township": "馬公市", "location": "菜園里俗稱沙滬坪地先向南約485公尺海域" }, "geometry": { "type": "Polygon", "coordinates": [ [ [ 119.593211111000073, 23.5436 ], [ 119.592466667000053, 23.544211111000038 ], [ 119.592702778000103, 23.544797222000057 ], [ 119.593433333, 23.5442 ], [ 119.593211111000073, 23.5436 ] ] ] } },
{ "type": "Feature", "properties": { "public_no": "澎漁權字第0243號", "township": "西嶼鄉", "location": "竹灣村龜頭灣地先向東北約250公尺海域" }, "geometry": { "type": "Polygon", "coordinates": [ [ [ 119.523138889000052, 23.621455556000058 ], [ 119.522883333000095, 23.622 ], [ 119.523583333000033, 23.622575 ], [ 119.524061111000037, 23.622283333000041 ], [ 119.523138889000052, 23.621455556000058 ] ] ] } },
{ "type": "Feature", "properties": { "public_no": "澎漁權字第0254號", "township": "白沙鄉", "location": "通樑村汕尾地先向東南960公尺海域" }, "geometry": { "type": "Polygon", "coordinates": [ [ [ 119.571822222000037, 23.644880556000089 ], [ 119.570333333, 23.64524166700005 ], [ 119.571108333000097, 23.646936111000059 ], [ 119.572561111000027, 23.646547222000038 ], [ 119.571822222000037, 23.644880556000089 ] ] ] } },
{ "type": "Feature", "properties": { "public_no": "澎漁權字第0256號", "township": "白沙鄉", "location": "白沙鄉通梁村汕尾地先向東南約1140公尺海域" }, "geometry": { "type": "Polygon", "coordinates": [ [ [ 119.570144444000107, 23.641508333000047 ], [ 119.568719444000067, 23.641891667000039 ], [ 119.569494444000043, 23.643561111000054 ], [ 119.570905556000071, 23.643172222000089 ], [ 119.570144444000107, 23.641508333000047 ] ] ] } },
{ "type": "Feature", "properties": { "public_no": "澎漁權字第0265號", "township": "西嶼鄉", "location": "西嶼鄉二崁村俗稱烏崁山地先向東北約508公尺海域" }, "geometry": { "type": "Polygon", "coordinates": [ [ [ 119.523175, 23.617586111000037 ], [ 119.522627778000015, 23.618158333000054 ], [ 119.523388889000103, 23.61946944400006 ], [ 119.524061111000037, 23.619177778000051 ], [ 119.523175, 23.617586111000037 ] ] ] } },
{ "type": "Feature", "properties": { "public_no": "澎漁權字第0268號", "township": "白沙鄉", "location": "白沙鄉員貝村漁港南堤以南地先海域" }, "geometry": { "type": "Polygon", "coordinates": [ [ [ 119.627686111, 23.643658333000076 ], [ 119.627686111, 23.644527778000054 ], [ 119.629283333000103, 23.644527778000054 ], [ 119.629283333000103, 23.643658333000076 ], [ 119.627686111, 23.643658333000076 ] ] ] } },
{ "type": "Feature", "properties": { "public_no": "澎漁權字第0269號", "township": "白沙鄉", "location": "白沙鄉員貝村漁港南堤以南地先海域" }, "geometry": { "type": "Polygon", "coordinates": [ [ [ 119.627686111, 23.64464722200006 ], [ 119.627686111, 23.645494444000065 ], [ 119.629283333000103, 23.645494444000065 ], [ 119.629283333000103, 23.64464722200006 ], [ 119.627686111, 23.64464722200006 ] ] ] } },
{ "type": "Feature", "properties": { "public_no": "澎漁權字第0271號", "township": "西嶼鄉", "location": "西嶼鄉竹灣村俗稱灣底地先向東約434公尺海域" }, "geometry": { "type": "Polygon", "coordinates": [ [ [ 119.521936111000059, 23.624266667000086 ], [ 119.521594444000016, 23.624677778000091 ], [ 119.522472222000033, 23.62554166700005 ], [ 119.522897222000097, 23.625147222000066 ], [ 119.521936111000059, 23.624266667000086 ] ] ] } },
{ "type": "Feature", "properties": { "public_no": "澎漁權字第0295號", "township": "馬公市", "location": "菜園及嵵裡海域" }, "geometry": { "type": "Polygon", "coordinates": [ [ [ 119.57845, 23.539175 ], [ 119.57845, 23.540997222000044 ], [ 119.579886111000064, 23.540997222000044 ], [ 119.579886111000064, 23.539175 ], [ 119.57845, 23.539175 ] ] ] } },
{ "type": "Feature", "properties": { "public_no": "澎漁權字第0297號", "township": "馬公市", "location": "菜園及嵵裡海域" }, "geometry": { "type": "Polygon", "coordinates": [ [ [ 119.57845, 23.538072222000039 ], [ 119.57845, 23.539011111000036 ], [ 119.581355556000062, 23.539011111000036 ], [ 119.581355556000062, 23.538072222000039 ], [ 119.57845, 23.538072222000039 ] ] ] } },
{ "type": "Feature", "properties": { "public_no": "澎漁權字第0298號", "township": "馬公市", "location": "菜園及嵵裡海域" }, "geometry": { "type": "Polygon", "coordinates": [ [ [ 119.575866667000014, 23.537161111000046 ], [ 119.575866667000014, 23.538072222000039 ], [ 119.578875, 23.538072222000039 ], [ 119.578875, 23.537161111000046 ], [ 119.575866667000014, 23.537161111000046 ] ] ] } },
{ "type": "Feature", "properties": { "public_no": "澎漁權字第0299號", "township": "馬公市", "location": "馬公市菜園及嵵裡海域" }, "geometry": { "type": "Polygon", "coordinates": [ [ [ 119.576975, 23.539175 ], [ 119.576975, 23.540997222000044 ], [ 119.57845, 23.540997222000044 ], [ 119.57845, 23.539175 ], [ 119.576975, 23.539175 ] ] ] } },
{ "type": "Feature", "properties": { "public_no": "澎漁權字第0300號", "township": "馬公市", "location": "菜園及嵵裡海域" }, "geometry": { "type": "Polygon", "coordinates": [ [ [ 119.575866667000014, 23.533852778000039 ], [ 119.575866667000014, 23.53518888900004 ], [ 119.577938889000052, 23.53518888900004 ], [ 119.577938889000052, 23.533852778000039 ], [ 119.575866667000014, 23.533852778000039 ] ] ] } },
{ "type": "Feature", "properties": { "public_no": "澎漁權字第0301號", "township": "西嶼鄉", "location": "西嶼鄉二崁村海域" }, "geometry": { "type": "Polygon", "coordinates": [ [ [ 119.524166667000031, 23.611944444000073 ], [ 119.523055556000031, 23.612222222000071 ], [ 119.523611111000037, 23.614444444000071 ], [ 119.524444444000096, 23.614166667000063 ], [ 119.524166667000031, 23.611944444000073 ] ] ] } },
{ "type": "Feature", "properties": { "public_no": "澎漁權字第0302號", "township": "西嶼鄉", "location": "西嶼鄉二崁村海域" }, "geometry": { "type": "Polygon", "coordinates": [ [ [ 119.525277778000032, 23.611666667000065 ], [ 119.524166667000031, 23.611944444000073 ], [ 119.524444444000096, 23.614166667000063 ], [ 119.525555556000086, 23.613888889000066 ], [ 119.525277778000032, 23.611666667000065 ] ] ] } },
{ "type": "Feature", "properties": { "public_no": "澎漁權字第0303號", "township": "西嶼鄉", "location": "西嶼鄉二崁村海域" }, "geometry": { "type": "Polygon", "coordinates": [ [ [ 119.526388889000032, 23.611388889000068 ], [ 119.525277778000032, 23.611666667000065 ], [ 119.525555556000086, 23.613888889000066 ], [ 119.526944444000037, 23.613611111000068 ], [ 119.526388889000032, 23.611388889000068 ] ] ] } },
{ "type": "Feature", "properties": { "public_no": "澎漁權字第0304號", "township": "西嶼鄉", "location": "西嶼鄉二崁村海域" }, "geometry": { "type": "Polygon", "coordinates": [ [ [ 119.526388889000032, 23.611388889000068 ], [ 119.526944444000037, 23.613611111000068 ], [ 119.527777778000086, 23.613333333000071 ], [ 119.5275, 23.611388889000068 ], [ 119.526388889000032, 23.611388889000068 ] ] ] } },
{ "type": "Feature", "properties": { "public_no": "澎漁權字第0305號", "township": "西嶼鄉", "location": "西嶼鄉二崁村海域" }, "geometry": { "type": "Polygon", "coordinates": [ [ [ 119.523888889000091, 23.609722222000073 ], [ 119.522777778000091, 23.61 ], [ 119.523055556000031, 23.612222222000071 ], [ 119.524166667000031, 23.611944444000073 ], [ 119.523888889000091, 23.609722222000073 ] ] ] } },
{ "type": "Feature", "properties": { "public_no": "澎漁權字第0306號", "township": "西嶼鄉", "location": "西嶼鄉二崁村海域" }, "geometry": { "type": "Polygon", "coordinates": [ [ [ 119.525, 23.609444444000076 ], [ 119.523888889000091, 23.609722222000073 ], [ 119.524166667000031, 23.611944444000073 ], [ 119.525277778000032, 23.611666667000065 ], [ 119.525, 23.609444444000076 ] ] ] } },
{ "type": "Feature", "properties": { "public_no": "澎漁權字第0307號", "township": "西嶼鄉", "location": "西嶼鄉二崁村海域" }, "geometry": { "type": "Polygon", "coordinates": [ [ [ 119.526111111000091, 23.609166667000068 ], [ 119.525, 23.609444444000076 ], [ 119.525277778000032, 23.611666667000065 ], [ 119.526388889000032, 23.611388889000068 ], [ 119.526111111000091, 23.609166667000068 ] ] ] } },
{ "type": "Feature", "properties": { "public_no": "澎漁權字第0308號", "township": "西嶼鄉", "location": "西嶼鄉二崁村海域" }, "geometry": { "type": "Polygon", "coordinates": [ [ [ 119.526111111000091, 23.609166667000068 ], [ 119.526388889000032, 23.611388889000068 ], [ 119.5275, 23.611388889000068 ], [ 119.526944444000037, 23.609166667000068 ], [ 119.526111111000091, 23.609166667000068 ] ] ] } },
{ "type": "Feature", "properties": { "public_no": "屏枋漁(專)字第0242號\r\n恆漁專字第005號\r\n恆漁專字第010號\r\n恆漁專字第011號\r\n恆漁專字第014號\r\n恆漁專字第016號\r\n恆漁專字第017號", "township": "恆春區", "location": "屏東縣竹坑外海至海口外海9基點內之海域" }, "geometry": { "type": "Polygon", "coordinates": [ [ [ 120.696133932000066, 22.108559348000085 ], [ 120.696072624000067, 22.108842539000079 ], [ 120.695829470000035, 22.109608665000053 ], [ 120.695514599000035, 22.110351766000065 ], [ 120.695130477000021, 22.111066029000085 ], [ 120.694680107000067, 22.111745859000052 ], [ 120.694167015000062, 22.112385939000092 ], [ 120.693595216000062, 22.112981258000048 ], [ 120.692969184000049, 22.113527155000043 ], [ 120.692293820000032, 22.114019359000054 ], [ 120.691574409000054, 22.114454015000035 ], [ 120.690816583000014, 22.11482772100004 ], [ 120.690026272000068, 22.115137555000047 ], [ 120.689209665000021, 22.11538108700006 ], [ 120.688373149000086, 22.115556413000036 ], [ 120.687523277000082, 22.115662161000046 ], [ 120.686666700000046, 22.115697501000056 ], [ 120.68581012300001, 22.115662161000046 ], [ 120.684960251, 22.115556413000036 ], [ 120.684331612000051, 22.115424657000062 ], [ 120.684301117000018, 22.115418265000073 ], [ 120.68412373700005, 22.11538108700006 ], [ 120.683307128000024, 22.115137555000047 ], [ 120.682516817000078, 22.11482772100004 ], [ 120.681758991000038, 22.114454015000035 ], [ 120.681039580000061, 22.114019359000054 ], [ 120.680364216000044, 22.113527155000043 ], [ 120.67973818400003, 22.112981258000048 ], [ 120.67916638600002, 22.112385940000081 ], [ 120.678653293000025, 22.111745859000052 ], [ 120.678202923000072, 22.111066029000085 ], [ 120.677818800000068, 22.110351767000054 ], [ 120.677503930000057, 22.109608665000053 ], [ 120.677260775000036, 22.108842540000069 ], [ 120.677197575000037, 22.108550575000038 ], [ 120.668433299000071, 22.10855 ], [ 120.668433299000071, 22.128733331000092 ], [ 120.69899999900008, 22.128766670000061 ], [ 120.70145, 22.1204 ], [ 120.70255, 22.112216671000056 ], [ 120.6986167, 22.10855 ], [ 120.696149640000044, 22.108550209000043 ], [ 120.696133932000066, 22.108559348000085 ] ] ] } }
]
}
