{
"type": "FeatureCollection",
"name": "exclusive_fishery_rights",
"crs": { "type": "name", "properties": { "name": "urn:ogc:def:crs:OGC:1.3:CRS84" } },
"features": [
{ "type": "Feature", "properties": { "編號": "1", "漁業權人": "澎湖縣白沙鄉赤崁村紫菜生產合作社", "面積": "", "起始日期": "2006-11-23", "終止日期": "2016-11-22", "經營漁業總類": "紫菜", "專用漁業權執照編號": "農漁專字第壹號", "漁場位置及區域": "澎湖縣白沙鄉姑婆嶼北側潮間帶、屈爪嶼東北側潮間帶、北嶼北側潮間帶、小白沙嶼北側潮間帶、南面掛嶼北側潮間帶、西嶼鄉空殼嶼北側潮間帶", "排除區域": "", "所屬縣市": "10016" }, "geometry": { "type": "Point", "coordinates": [ 119.5664, 23.5712 ] } },
{ "type": "Feature", "properties": { "編號": "2", "漁業權人": "澎湖縣湖西鄉錠鉤嶼紫菜生產合作社", "面積": "", "起始日期": "2006-12-29", "終止日期": "2016-12-28", "經營漁業總類": "紫菜", "專用漁業權執照編號": "農漁專字第貳號", "漁場位置及區域": "澎湖縣湖西鄉錠鉤嶼北側潮間帶", "排除區域": "", "所屬縣市": "10016" }, "geometry": { "type": "Point", "coordinates": [ 119.5664, 23.5712 ] } },
{ "type": "Feature", "properties": { "編號": "3", "漁業權人": "澎湖縣湖西鄉查某嶼紫菜生產合作社", "面積": "", "起始日期": "2008-02-04", "終止日期": "2018-02-03", "經營漁業總類": "紫菜", "專用漁業權執照編號": "農漁專字第參號", "漁場位置及區域": "澎湖縣湖西鄉查某嶼北側潮間帶", "排除區域": "", "所屬縣市": "10016" }, "geometry": { "type": "Point", "coordinates": [ 119.5664, 23.5712 ] } },
{ "type": "Feature", "properties": { "編號": "5", "漁業權人": "彰化區漁會", "面積": "324.9平方公里", "起始日期": "2009-06-05", "終止日期": "2019-06-04", "經營漁業總類": "流刺網漁業、叉手網或張網漁業、一支釣漁業、淺海養殖", "專用漁業權執照編號": "農漁專字第伍號", "漁場位置及區域": "彰化縣沿岸地區自平均低潮線起向外海延伸3浬及潮間帶之海域（基點A731：東經120度9.15分，北緯23度51.42分、基點A741：東經120度14.47分，北緯23度50.58分、基點A76：東經120度24.55分，北緯24度13.97分、基點A77：東經120度29.16分，北緯24度11.88分）", "排除區域": "彰濱工業區、彰濱火力發電廠、大城海埔地工業區預定區域、大肚溪口野生動物保護區（北起台中火力發電廠邊界，南至伸港區海埔新生地田尾排水溝以北，西至海域約2公里處(至平均低潮線負1.19公尺)）、螻蛄蝦繁殖保育區、各港區範圍及其航道之海域", "所屬縣市": "10007" }, "geometry": { "type": "Point", "coordinates": [ 120.5419, 24.0517 ] } },
{ "type": "Feature", "properties": { "編號": "6", "漁業權人": "南龍區漁會", "面積": "137.58平方公里", "起始日期": "2010-03-15", "終止日期": "2020-03-14", "經營漁業總類": "延繩釣漁業、流刺網漁業、地曳網漁業、一支釣漁業。", "專用漁業權執照編號": "農漁專字第陸號", "漁場位置及區域": "苗栗縣竹南鎮及後龍鎮沿岸地區自平均低潮線起向外海延伸3浬之海域（基點A82：東經120度40.17分，北緯24度37.74分、基點A83：東經120度50.05分，北緯24度46.24分、基點A84：東經120度52.64分，北緯24度44.17分、基點A821：東經120度42.39分，北緯24度34.60分）", "排除區域": "灣瓦保育區、香山人工魚礁區、香山保護礁區、定置漁業權區、區劃漁業權區、各港區範圍及其航道之海域", "所屬縣市": "10005" }, "geometry": { "type": "Point", "coordinates": [ 120.8214, 24.5602 ] } },
{ "type": "Feature", "properties": { "編號": "7", "漁業權人": "林園區漁會", "面積": "39.6平方公里", "起始日期": "2010-04-19", "終止日期": "2020-04-18", "經營漁業總類": "延繩釣漁業、流刺網漁業、叉手網漁業、一支釣漁業", "專用漁業權執照編號": "農漁專字第柒號", "漁場位置及區域": "高雄市林園地區沿岸海域自平均低潮線起向外海延伸3浬之海域（A59：東經120度21.64分，北緯22度30.46分、基點A58：東經120度19.07分，北緯22度28.45分、基點A56：東經120度23.36分，北緯22度25.93分、基點A57：東經120度25.45分，北緯22度28.68分、基點A571：東經120度25.05，北緯22度28.53分)", "排除區域": "高雄二港口大林浦外海卸油浮筒之禁航區及禁錨區、各港區範圍及其航道之海域", "所屬縣市": "64000" }, "geometry": { "type": "Point", "coordinates": [ 120.301, 22.6273 ] } },
{ "type": "Feature", "properties": { "編號": "8", "漁業權人": "琉球區漁會", "面積": "150.4平方公里", "起始日期": "2010-06-01", "終止日期": "2020-05-31", "經營漁業總類": "延繩釣漁業、一支釣漁業、採介貝類漁業、箱網養殖漁業", "專用漁業權執照編號": "農漁專字第捌號", "漁場位置及區域": "屏東縣琉球鄉最突出位置設定4基點，各基點向外延伸3浬為半徑畫圓，所包覆海域範圍，並以最外緣為界之海域（基點O25：東經120度23.40分，北緯22度20.82分、基點O26：東經120度22.78分，北緯22度21.35分、基點O27：東經120度21.32分，北緯22度20.79分、基點O28：東經120度20.5分，北緯22度19.38分)", "排除區域": "琉球資源保育區、潮間帶、各港區範圍及其航道之海域", "所屬縣市": "10013" }, "geometry": { "type": "Point", "coordinates": [ 120.488, 22.6824 ] } },
{ "type": "Feature", "properties": { "編號": "9", "漁業權人": "通苑區漁會", "面積": "123.25平方公里", "起始日期": "2010-08-02", "終止日期": "2020-08-01", "經營漁業總類": "延繩釣漁業、流刺網漁業、一支釣漁業、魚苗採捕漁業", "專用漁業權執照編號": "農漁專字第玖號", "漁場位置及區域": "苗栗縣通霄鎮及苑裡鎮沿岸海域自平均低潮線起向外海延伸3浬之海域（A81：東經120度37.28分，北緯24度26.46分、基點A80：東經120度34.35分，北緯24度28.27分、基點A82：東經120度40.17分，北緯24度37.74分、基點A821：東經120度42.39分，北緯24度34.60分）", "排除區域": "通霄精鹽廠海水引入館設置區、通霄發電廠取排水專用海域、各港區範圍及其航道，及其他政府依法公告具排他性之海域", "所屬縣市": "10005" }, "geometry": { "type": "Point", "coordinates": [ 120.8214, 24.5602 ] } },
{ "type": "Feature", "properties": { "編號": "10", "漁業權人": "新港區漁會", "面積": "436.01平方公里", "起始日期": "2010-11-22", "終止日期": "2020-11-21", "經營漁業總類": "延繩釣漁業、流刺網漁業、一支釣漁業、鏢魚漁業、曳繩釣漁業", "專用漁業權執照編號": "農漁專字第拾號", "漁場位置及區域": "台東縣長濱鄉、成功鎮及東河鄉沿岸海域自平均低潮線起向外海延伸3浬之海域(基點A32:東經121度29.74分，北緯23度26.10分、基點A31：東經121度32.85分，北緯23度25.04分、基點07：東經121度28.83分，北緯23度07.19分、基點A34：東經121度16.19分，北緯22度49.43分、基點A33：東經121度11.52分，北緯22度51.01分)", "排除區域": "漁業資源保育區、定置漁業權區、各港區範圍及其航道之海域，及其他政府依法公告具排他性之海域", "所屬縣市": "10014" }, "geometry": { "type": "Point", "coordinates": [ 121.1132, 22.7583 ] } },
{ "type": "Feature", "properties": { "編號": "11", "漁業權人": "興達港區漁會", "面積": "38平方公里", "起始日期": "2011-06-17", "終止日期": "2021-06-16", "經營漁業總類": "流刺網漁業、叉手網漁業、張網漁業、一支釣漁業。", "專用漁業權執照編號": "農漁專字第拾壹號", "漁場位置及區域": "高雄市茄萣區沿岸海域自平均低潮線起向外海延伸3浬之海域（基點A616：東經120度11.59分，北緯22度50.90分、基點A615：東經120度08.57分，北緯22度49.79分、基點A62：東經120度07.71分，北緯22度53.03分、基點A63：東經120度10.55分，北緯22度54.74分）", "排除區域": "興達電廠卸煤系統區、各港區範圍及其航道之海域，及其他政府依法公告具排他性之海域", "所屬縣市": "64000" }, "geometry": { "type": "Point", "coordinates": [ 120.301, 22.6273 ] } },
{ "type": "Feature", "properties": { "編號": "12", "漁業權人": "雲林區漁會", "面積": "94.52平方公里", "起始日期": "2012-10-11", "終止日期": "2022-10-10", "經營漁業總類": "刺網漁業、叉手網漁業、一支釣漁業、籠具漁業、淺海養", "專用漁業權執照編號": "農漁專字第拾貳號", "漁場位置及區域": "雲林縣沿海地區自平均低潮線向外延伸3浬及潮間帶界線內之海域(基點A70：東經120度8.84分，北緯23度31.1分、基點A741：東經120度14.47分，北緯23度50.58分、基點A731：東經120度9.15分，北緯23度51.42分、基點A69：東經120度4.03分，北緯23度31.51分、基點A691：東經120度7.33分，北緯23度，31.28分)", "排除區域": "雲林離島式基礎工業區編定及登記範圍、坊盛土石採取區、各港區範圍及其航道之海域，及其他政府依法公告具排他性之海域", "所屬縣市": "10009" }, "geometry": { "type": "Point", "coordinates": [ 120.4313, 23.7092 ] } },
{ "type": "Feature", "properties": { "編號": "13", "漁業權人": "台中區漁會", "面積": "75.68平方公里", "起始日期": "2012-10-12", "終止日期": "2022-10-11", "經營漁業總類": "延繩釣漁業、一支釣漁業、刺網漁業、?鱙漁業", "專用漁業權執照編號": "農漁專字第拾參號", "漁場位置及區域": "台中市大甲溪口以北沿海地區自低潮線起向外延伸3浬之海域(基點A78:東經120度33.22分，北緯24度20.89分、基點A79:東經120度30.01分，北緯24度22.18分、基點A80:東經120度34.35分，北緯24度28.27分、基點A81:東經120度37.28分，北緯24度26.46分)", "排除區域": "大安海水浴場、各港區範圍及其航道，及其他政府依法公告具排他性之海域", "所屬縣市": "66000" }, "geometry": { "type": "Point", "coordinates": [ 120.6478, 24.1477 ] } },
{ "type": "Feature", "properties": { "編號": "14", "漁業權人": "花蓮區漁會", "面積": "564.74平方公里", "起始日期": "2012-10-08", "終止日期": "2022-10-07", "經營漁業總類": "巾著網漁業、刺網漁業、延繩釣漁業、一支釣漁業、曳繩釣漁業、?鱙漁業、鏢魚漁業", "專用漁業權執照編號": "農漁專字第拾肆號", "漁場位置及區域": "花蓮縣花蓮轄區沿岸自平均低潮線向外延伸3 浬之海域(基點A27:東經121度49.49分，北緯24度17.67分、基點A28:東經121度46.44分，北緯24度18.85分、基點A29:東經121度43.18分，北緯24度09.04分、基點A30:東經121度42.10分，北緯24度00.83分、基點A31:東經121度32.85分，北緯23度25.04分、基點A32:東經121度29.74分，北緯23度26.10分)", "排除區域": "漁業資源保育區、定置漁業權區、磯崎海域遊憩活動分區及各港區範圍及其航道，及其他政府依法公告具排他性之海域", "所屬縣市": "10015" }, "geometry": { "type": "Point", "coordinates": [ 121.6042, 23.9871 ] } },
{ "type": "Feature", "properties": { "編號": "15", "漁業權人": "南縣區漁會", "面積": "182.5平方公里", "起始日期": "2014-04-07", "終止日期": "2024-04-06", "經營漁業總類": "刺網漁業、叉手網漁業、一支釣漁業", "專用漁業權執照編號": "農漁專字第拾伍號", "漁場位置及區域": "臺南市北門區八掌溪至七股區曾文溪兩基點自海岸線平均低潮線向外延伸三浬所示界線內不含潮間帶之海域(基點A64：東經120度0.59分，北緯23度0.78分；基點A65：東經120度2.81分，北緯23度2.54分；基點A66：東經119度58.89分，北緯23度3.89分；基點A67：東經120度3.6分，北緯23度19.89分、基點A68:東經120度6.35分，北緯23度19.68分、浮動基點:東經120度4.01分，北緯23度2.87分)", "排除區域": "馬沙溝濱海遊憩區、七股潟湖區、北門潟湖區、漁港港區範圍及其航道之海域", "所屬縣市": "67000" }, "geometry": { "type": "Point", "coordinates": [ 120.227, 23.001 ] } },
{ "type": "Feature", "properties": { "編號": "16", "漁業權人": "枋寮區漁會", "面積": "160.12平方公里", "起始日期": "2014-04-03", "終止日期": "2024-04-02", "經營漁業總類": "延繩釣漁業、刺網漁業、一支釣漁業、?鱙漁業、魚苗採捕漁業、箱網養殖漁業", "專用漁業權執照編號": "農漁專字第拾陸號", "漁場位置及區域": "屏東縣枋寮鄉大庄村至獅子鄉竹坑村兩基點自海岸線平均低潮線向外海延伸至三浬所示界線內之海域(基點A48：東經120度38.40分，北緯22度9.78分；基點A49：東經120度41.58分，北緯22度10.68分；基點A50：東經120度36.12分，北緯22度13.80分；基點A51：東經120度35.40分，北緯22度20.94分、基點A53：東經120度33.18分，北緯22度23.58)分", "排除區域": "漁港港區範圍及其航道之海域", "所屬縣市": "10013" }, "geometry": { "type": "Point", "coordinates": [ 120.488, 22.6824 ] } },
{ "type": "Feature", "properties": { "編號": "17", "漁業權人": "永安區漁會", "面積": "23.6平方公里", "起始日期": "2014-05-27", "終止日期": "2024-05-26", "經營漁業總類": "刺網漁業、魚苗採捕漁業、一支釣漁業", "專用漁業權執照編號": "農漁專字第拾柒號", "漁場位置及區域": "高雄市永安區沿岸海域自平均低潮線起向外海延伸3浬之海域（基點A613：東經120度9．74分，北緯22度47．04分、基點A614：東經120度12．76分，北緯22度48．21分、基點A615：東經120度8．57分，北緯22度49．79分、基點A616：東經120度1159分，北緯22度50．9分）", "排除區域": "台電興達發電廠卸煤營運海域範圍、中油永安液化天然氣接收港區範圍，及各港區範圍及其航道，及其他政府依法公告具排他性之海域", "所屬縣市": "64000" }, "geometry": { "type": "Point", "coordinates": [ 120.301, 22.6273 ] } },
{ "type": "Feature", "properties": { "編號": "18", "漁業權人": "東港區漁會", "面積": "44.39平方公里", "起始日期": "2014-08-27", "終止日期": "2024-08-26", "經營漁業總類": "拖網漁業、延繩釣漁業、刺網漁業、一支釣漁業、叉手網漁業、籠具漁業", "專用漁業權執照編號": "農漁專字第拾捌號", "漁場位置及區域": "屏東縣東港鎮、新園鄉沿岸海域自平均低潮線起向外海延伸3浬之海域（基點A54：東經120度27.30分，北緯22度23.13分、基點A55：東經120度28.86分，北緯22度25.84分、基點A56：東經120度23.36分，北緯22度25.93分、基點A57：東經120度25.45分，北緯22度28.68分）", "排除區域": "大鵬灣國家風景區海域、及各港區範圍及其航道，及其他政府依法公告具排他性之海域", "所屬縣市": "10013" }, "geometry": { "type": "Point", "coordinates": [ 120.488, 22.6824 ] } }
]
}
