{
"type": "FeatureCollection",
"name": "fishery_restricted_zones",
"crs": { "type": "name", "properties": { "name": "urn:ogc:def:crs:OGC:1.3:CRS84" } },
"features": [
{ "type": "Feature", "properties": { "field001": "宜蘭縣—蘇澳漁業資源保育區86/07/02 86府農漁字第77536號", "field002": "漁業法WGS-84(漁業署)", "field003": "1.? 蘇澳鎮港邊里澳仔角附近，自低潮線向外海延伸200公尺沿岸海域，海岸線長約2公里。2.未經公告開放供漁民捕撈，漁民不得擅自進入保育區採捕水產動植物。3.保育對象：九孔、紫菜、龍蝦、石花菜及其他貝類。", "field004": "24°36.635'N;121°51.845'E", "field005": "24°36.320'N;121°52.764'E", "field006": "", "field007": "", "field008": "", "field009": "", "field010": "", "field011": "", "field012": "0.25", "field013": "宜蘭縣政府", "field014": "屬「禁止採捕」等", "field015": "" }, "geometry": { "type": "Point", "coordinates": [ 121.7536, 24.7021 ] } },
{ "type": "Feature", "properties": { "field001": "宜蘭縣—頭城漁業資源保育區86/07/02 86府農漁字第77536號", "field002": "漁業法WGS-84(漁業署)", "field003": "1.? 蘇澳鎮港邊里澳仔角附近，自低潮線向外海延伸200公尺沿岸海域，海岸線長約16公里。2.未經公告開放供漁民捕撈，漁民不得擅自進入保育區採捕水產動植物。3.保育對象：九孔、紫菜、龍蝦、石花菜及其他貝類。", "field004": "24°59.025'N;121°57.957'E", "field005": "24°53.055'N;121°50.834'E", "field006": "", "field007": "", "field008": "", "field009": "", "field010": "", "field011": "", "field012": "0.25", "field013": "宜蘭縣政府", "field014": "屬「禁止採捕」等", "field015": "" }, "geometry": { "type": "Point", "coordinates": [ 121.7536, 24.7021 ] } },
{ "type": "Feature", "properties": { "field001": "基隆市—基隆市水產動植物保育區88/12/27 88基府建漁字第120469號", "field002": "漁業法WGS-84(漁業署)", "field003": "1.自基隆市行政轄區之所有沿岸水域，由低潮線向外延伸1000公尺之海域，海岸線長約20公里。2.保育區全年禁止採捕保育種類，如有必要時由該府另行公告開放採捕時間。3.保育對象：九孔、龍蝦、?仔。", "field004": "25°10.64'N;121°42.05'E", "field005": "25°08.24'N;121°47.81'E", "field006": "", "field007": "", "field008": "", "field009": "", "field010": "", "field011": "", "field012": "13.56", "field013": "基隆市政府", "field014": "屬「多功能使用」保護等級", "field015": "" }, "geometry": { "type": "Point", "coordinates": [ 121.7419, 25.1276 ] } },
{ "type": "Feature", "properties": { "field001": "新北市—貢寮水產動植物繁殖保育區101/04/05北府農漁字第10142435241號", "field002": "漁業法WGS-84(漁業署)", "field003": "貢寮區福連里卯澳至洋寮鼻距岸300公尺之海域。1.石花菜每年10月1日起至次年4月15日只禁止採捕或販賣。2.九孔殼長未滿4公分者禁止採捕，試驗研究或養殖目的且經該府核准者，不予禁止。3.龍蝦殼長未滿20公分者禁止採捕，試驗研究或養殖目的且經該府核准者，不予禁止。4.海膽不含刺殼長未滿8公分者禁止採捕，試驗研究或養殖目的且經該府核准者，不予禁止。5.禁止使用潛水器材採捕九孔、海膽、龍蝦、石花菜。6.禁止非以釣具類魚具之漁船進入保育區範圍內作業。7.保育對象：九孔、海膽、龍蝦、石花菜。", "field004": "25°01.166'N;121°59.345'E", "field005": ".25°00.955' N;121°59.379'E", "field006": "", "field007": "", "field008": "", "field009": "", "field010": "", "field011": "", "field012": "0.13", "field013": "新北市政府", "field014": "屬「多功能使用」保護等級", "field015": "" }, "geometry": { "type": "Point", "coordinates": [ 121.5598, 25.0118 ] } },
{ "type": "Feature", "properties": { "field001": "新北市—萬里水產動植物繁殖保育區101/04/05北府農漁字第10142435241號", "field002": "漁業法WGS-84(漁業署)", "field003": "萬里區基金公路野柳隧道口至東澳距岸300公尺海域。1.石花菜每年10月1日起至次年4月15日只禁止採捕或販賣。2.九孔殼長未滿4公分者禁止採捕，試驗研究或養殖目的且經該府核准者，不予禁止。3.龍蝦殼長未滿20公分者禁止採捕，試驗研究或養殖目的且經該府核准者，不予禁止。4.海膽不含刺殼長未滿8公分者禁止採捕，試驗研究或養殖目的且經該府核准者，不予禁止。5.禁止使用潛水器材採捕九孔、海膽、龍蝦、石花菜。6.禁止非以釣具類魚具之漁船進入保育區範圍內作業。7.保育對象：九孔、海膽、龍蝦、石花菜。", "field004": "25°12.389'N;121°41.071'E", "field005": "25°12.264 'N;121°41.640' E", "field006": "", "field007": "", "field008": "", "field009": "", "field010": "", "field011": "", "field012": "0.24", "field013": "新北市政府", "field014": "屬「多功能使用」保護等級", "field015": "" }, "geometry": { "type": "Point", "coordinates": [ 121.5598, 25.0118 ] } },
{ "type": "Feature", "properties": { "field001": "新北市—瑞芳保育區103/11/04北府農漁字第10332356021號", "field002": "漁業法WGS-84(漁業署)", "field003": "深澳昭明宮東北方300公尺凸岬(A)至深澳漁港北堤(F)為基點，自A點距岸580公尺及F點東南東方300公尺連線以內海域。1. 石花菜自每年10月1日起至次年4月15日禁止採捕。2.九孔殼長未滿4公分者禁止採捕。3.龍蝦長未滿20公分者禁止採捕。4.海膽不含刺殼長未滿8公分者禁止採捕。5.麒麟菜自每年9月1日起至次年3月15日禁止採捕。6.大法螺、珊瑚與礁石禁止採捕。7.珊瑚礁魚類魚體長未滿20公分者禁止採捕。8.禁止使用潛水器材採捕石花菜、麒麟菜、九孔、龍蝦、海膽、大法螺、珊瑚礁魚類、珊瑚與礁石等。9.禁止以非釣具類漁具之漁船進入保育區範圍內作業。", "field004": "N 25° 8'3.776\", E121°48'51.502\"", "field005": "N 25° 8'22.678\", E121°48'51.502\"", "field006": "N 25° 8'22.678\", E121°49'52.744\"", "field007": "N 25° 7'51.35\", E121°49'52.744\"", "field008": "N 25° 7'51.35\", E121°49'35.137\"", "field009": "N 25° 7'55.172\", E121°49'26.307\"", "field010": "", "field011": "", "field012": "1.24", "field013": "新北市政府", "field014": "屬「多功能使用」保護等級", "field015": "" }, "geometry": { "type": "Point", "coordinates": [ 121.5598, 25.0118 ] } },
{ "type": "Feature", "properties": { "field001": "苗栗縣—灣瓦海瓜子繁殖保育區99/01/20府農漁字第09900120192號", "field002": "漁業法WGS-84(漁業署)", "field003": "1.每年12月1日起至次年3月31日止為禁捕期，於公告禁捕期，不得以任何方式進入保育區範圍內採捕保育種類。2.保育對象：國姓蟯貝(海瓜子)。", "field004": "24°36'16\"N;120°43'23\"E", "field005": "24°36'08\"N;120°43'18\"E", "field006": "24°36'08\"N;120°43'14\"E", "field007": ".24°36'16\"N;120°43'20\"E", "field008": "", "field009": "", "field010": "", "field011": "", "field012": "0.02", "field013": "苗栗縣政府", "field014": "屬「多功能使用」保護等級", "field015": "" }, "geometry": { "type": "Point", "coordinates": [ 120.8214, 24.5602 ] } },
{ "type": "Feature", "properties": { "field001": "彰化縣—伸港螻蛄蝦繁殖保育區95/03/07府農畜字第0950043796號", "field002": "漁業法WGS-84(漁業署)", "field003": "1.自伸港蚵寮村出海道路西北側離岸600公尺外海域，以A、B、 C、D點座標所連成方形區域內均屬之，保育總面積為38公頃。2.保育區內以Ⅰ、Ⅱ、Ⅲ、Ⅳ點座標所連成方形區域內為 『核心區』，保育面積為20公頃。3.『核心區』係完全禁漁區，不得以任何方式進入採捕保育種類或進行破壞水產生物棲地環境之行為。4.本保育區之「養護區」範圍之開放採捕期間，視保育成效再另行公告。許可期間及區域內採捕螻蛄蝦，禁止採捕頭胸甲長小於13mm之雌蝦及頭胸甲長小於11mm之雄蝦，且應按月向彰化區漁會或當地 「螻蛄蝦管理委員會」申報採捕量，全年採捕量達 200萬尾時，由本府公告全面禁止採捕。5.保育對象：螻蛄蝦。", "field004": "24°10'08\"N;120°27'43\"E", "field005": "24°10'08\"N;120°27'22\"E", "field006": "22°09'47\"N;120°27'08\"E", "field007": "24°09'47\"N;120°27'29\"E", "field008": "", "field009": "", "field010": "", "field011": "", "field012": "0.38", "field013": "彰化縣政府", "field014": "1.「核心區」屬「禁止採捕」保護等級。2.「養護區」屬「多功能使用」保護等級。", "field015": "" }, "geometry": { "type": "Point", "coordinates": [ 120.5419, 24.0517 ] } },
{ "type": "Feature", "properties": { "field001": "彰化縣—伸港（二）螻蛄蝦繁殖保育區101/08/23府農漁字第1010238331A號", "field002": "漁業法WGS-84(漁業署)", "field003": "1.位於伸港螻蛄蝦繁殖保育區北側，範圍以A\"、B\"、C\"、D\"點座標所連成方形區域內均屬之，面積約24公頃，均為「核心區」。2.本保育區範圍內之「核心區」，除經主管機關核准之學術研究外，全年禁止採捕螻蛄蝦、二枚貝及其他水產動植物。3.保育對象：螻蛄蝦。", "field004": "24°10'24.15\"N 120°27'17.14\"E", "field005": "24°10'22.11\"N 120°27'23.88\"E", "field006": "24°10'55.85\"N 120°27'32.05\"E", "field007": "24°10'58.27\"N 120°27'23.55\"E", "field008": "", "field009": "", "field010": "", "field011": "", "field012": "0.24", "field013": "彰化縣政府", "field014": "", "field015": "" }, "geometry": { "type": "Point", "coordinates": [ 120.5419, 24.0517 ] } },
{ "type": "Feature", "properties": { "field001": "彰化縣—王功螻蛄蝦繁殖保育區101/08/23府農漁字第1010238331A號", "field002": "漁業法WGS-84(漁業署)", "field003": "1.?範圍以A、B、 C、D點座標所連成方形區域內均屬之，總面積約42公頃。2.保育區內以I、II、III、IV點座標連成方形區域為「核心區」，面積為17.5公頃。3.除「核心區」外，其餘範圍為「養護區」面積為24.5公頃。4.本保育區範圍內之「核心區」，除經主管機關核准之學術研究外，全年禁止採捕螻蛄蝦、二枚貝及其他水產動植物。5.「養護區」內僅供生態教學，漁業生態體驗活動及學術研究，且需經本府核准者為限。本區只開放示範採捕螻蛄蝦，完後原地放生，不得帶出保育區。6.保育對象：螻蛄蝦。", "field004": "23°58'16.03\"N 120°19'0.29\"E", "field005": "23°58'11.30\"N 120°19'19.73\"E", "field006": ".23°57'56.05\"N 120°18'46.72\"E", "field007": "23°57'47.73\"N 120°19'1.94\"E", "field008": "23°58'12.95\"N 120°19'3.01\"E(核心區I)", "field009": ".23°58'10.06\"N 120°19'13.98\"E(核心區II)", "field010": "23°57'59.54\"N 120°18'52.97\"E(核心區III)", "field011": "23°57'53.54\"N 120°19'2.80\"E(核心區IV)", "field012": "0.42", "field013": "彰化縣政府", "field014": "", "field015": "" }, "geometry": { "type": "Point", "coordinates": [ 120.5419, 24.0517 ] } },
{ "type": "Feature", "properties": { "field001": "台東縣—綠島漁業資源保育區(三)193/11/08府農漁字第0930089811號", "field002": "漁業法WGS-84(漁業署)", "field003": "1.台東縣綠島全島沿岸自低潮線向外海延伸200公尺之沿岸水域，海岸線長約12公里，以A、C兩點沿低潮線及向外海延伸200公尺之B、D兩點之間形成的範圍內，水域面積(公頃)：240公頃。為便於管理再細分為6個分區：(1)南寮分區：自「龜灣鼻」以北至「燈塔」前(機場側)以南，自低潮線向外延伸200公尺之海域。(A1-D1)(2)中寮分區：自「燈塔」前(機場側)以北至「公館鼻」以西，自低潮線向外延伸200公尺之海域。(A2-D2)(3)公館分區：自「公館鼻」以東起至「龜灣鼻」以南，自低潮線向外延伸200公尺之海域。(A3-D3)(4)龜灣分區：自「大白沙潛水步道」以北至「大哥隧道」北向入口以南，自低潮線向外延伸200公尺之海域。(5)石朗分區：自「石朗浮潛區潛水步道」南300公尺以北至「南寮漁港」南方防波堤，自低潮線向外延伸75公尺之海域，並包含潮間帶。(A5-D5)(6)柴口分區：自「柴口浮潛區潛水步道」東100公尺、西400公尺，自低潮線向外延伸100公尺之海域，並包含潮間帶。(A6-D6)2.於本保育區?從事各項觀光、遊憩、漁撈活動或進行開發等，不得有破壞海洋生物、棲地環境之行為。3.石?與柴口分區規劃成浮潛區，全??開放採捕。其餘分區開放採捕期間禁止採捕體長未滿20公分之龍蝦或殼長未滿5公分之九孔，且不得攜帶水肺採捕各類水產動植物，另「龜灣分區」尚不得採捕「燕魚」。除開放採捕期間外，不得以任何方式採捕各類水產動植物。4.保育對象：各類水產動植物。", "field004": "22°39’7.8''N;121°28’28.4''E(A5)", "field005": "22°39’8.2''N;121°28’22.8''E(B5)", "field006": "22°39’33''N;121°28’27'E(C5)", "field007": "22°39’32.9''N;121°28’24.6''E(D5)", "field008": "22°40’30''N;121°28’45''E(A6)", "field009": "22°40’36.8''N;121°28’46''E(B6)", "field010": "22°40’38.4''N;121°29’1.4'E(C6)", "field011": "22°40’43.8''N;121°28’56.7''E(D6)", "field012": "", "field013": "台東縣政府", "field014": "1.「石朗與柴口分區」屬「禁止採捕」保護等級。\n2.「南寮、中寮、公館及龜灣分區」屬「多功能使用」保護等級。", "field015": "綠島漁業資源保育區(一)至(三)面積合計5.77平方公里" }, "geometry": { "type": "Point", "coordinates": [ 121.1132, 22.7583 ] } },
{ "type": "Feature", "properties": { "field001": "台東縣—小馬漁業資源保育區89/05/10府農漁字第039618號", "field002": "漁業法WGS-84(漁業署)", "field003": "1.成功鎮都歷(C1)起至小馬(C3)間，由C1至C2連線以南，C3至C4連線以北，自低潮線向外海延伸200公尺沿岸海域，海岸線長約5公里。2.保育區範圍內全年禁止採捕保育對象，如有必要時由本府另行公告開放採捕期間。3.本保育區公告開放採捕期間禁止採捕體長未滿二十公分之龍蝦及殼長未滿四公分之九孔。4.保育對象：龍蝦、九孔。", "field004": "23°01'12.6\"N;121°20'10.3\"E(C1)", "field005": "23°01'14.1\"N;121°20'17.1\"E(C2)", "field006": "22°59'58.6\"N;121°19'16.3\"E(C3)", "field007": "22°59'58\"N;121°19'23.4\"E(C4)", "field008": "", "field009": "", "field010": "", "field011": "", "field012": "0.78", "field013": "台東縣政府", "field014": "屬「多功能使用」保護等級", "field015": "" }, "geometry": { "type": "Point", "coordinates": [ 121.1132, 22.7583 ] } },
{ "type": "Feature", "properties": { "field001": "台東縣—小港漁業資源保育區89/05/10府農漁字第039618號", "field002": "漁業法WGS-84(漁業署)", "field003": "1.成功鎮都歷(C1)起至小馬(C3)間，由C1至C2連線以南，C3至C4連線以北，自低潮線向外海延伸200公尺沿岸海域，海岸線長約5公里。2.保育區範圍內全年禁止採捕保育對象，如有必要時由本府另行公告開放採捕期間。3.本保育區公告開放採捕期間禁止採捕體長未滿二十公分之龍蝦及殼長未滿四公分之九孔。4.保育對象：龍蝦、九孔。", "field004": "23°10'11.9\"N;121°24'16.2\"E(B1)", "field005": ".23°10'15.2\"N;121°24'22.3\"E(B2)", "field006": "23°10.250' N;121°24.237' E(B3)", "field007": "23°09'27.4''N;121°24'24\"E(B4)", "field008": "", "field009": "", "field010": "", "field011": "", "field012": "0.45", "field013": "台東縣政府", "field014": "屬「多功能使用」保護等級", "field015": "" }, "geometry": { "type": "Point", "coordinates": [ 121.1132, 22.7583 ] } },
{ "type": "Feature", "properties": { "field001": "台東縣—宜灣漁業資源保育區89/05/10府農漁字第039618號", "field002": "漁業法WGS-84(漁業署)", "field003": "1.成功鎮宜灣(A1)起至重安(A3)間，由A1至A2連線以南，A3至A4連線以北，自低潮線向外海延伸200公尺沿岸海域，海岸線長約3公里。2.保育區範圍內全年禁止採捕保育對象，如有必要時由本府另行公告開放採捕期間。3.本保育區公告開放採捕期間禁止採捕體長未滿二十公分之龍蝦及殼長未滿四公分之九孔。4.保育對象：龍蝦、九孔。", "field004": "23°12'20.7\"N;121°23'47.4\"E(A1)", "field005": "23°12'19.2\"N;121°23'54.1\"E(A2)", "field006": "23°11'22.9\"N;121°23'51.2\"E(A3)", "field007": "23°11'23.9''N;121°23'58.1\"E(A4)", "field008": "", "field009": "", "field010": "", "field011": "", "field012": "0.51", "field013": "台東縣政府", "field014": "屬「多功能使用」保護等級", "field015": "" }, "geometry": { "type": "Point", "coordinates": [ 121.1132, 22.7583 ] } },
{ "type": "Feature", "properties": { "field001": "台東縣—富山漁業資源保育區99/07/06府農漁字第0993024524B號", "field002": "漁業法WGS-84(漁業署)", "field003": "保育區內水產動植物：1.北起A點（臺十一線－潮來橋），南至E點（臺十一線一百五十四公里處）之沿岸平均高潮線向外海延伸約五ＯＯ公尺，與B、D、F三點所圍成之海域；另以C點（安天宮）與D點為分界，以北為永續使用區，以南為核心區。2.於本保育區?從事各項生態導覽等活動，不得有破壞海洋生物棲地環境之行為。3.「核心區」除為試驗研究目的，並經本府許可外，不得以任何方式採捕各類水產動植物。4.「永續使用區」除為試驗研究目的及其他必要事項，並經本府許可外，不得以任何方式採捕各類水產動植物。5.保育對象：保育區內水產動物均屬之。", "field004": "22°50'46.6\" N;121°11'20.9 \"E(A)", "field005": ".22°50'45.6\" N;121°11'38.5 \"E(B)", "field006": "22°50'18.9\" N;121°11'18.5 \"E(C)", "field007": "22°50'17.1\" N;121°11'36 \"E(D)", "field008": "22°50'02.8\" N;121°11'08.4 \"E(E)", "field009": "22°49'58.4\" N;121°11'25.5 \"E(F)", "field010": "", "field011": "", "field012": "0.73", "field013": "台東縣政府", "field014": "1.?????? 「核心區」屬「禁止採捕」保護等級。\n2.「永續使用區」屬「多功能使用」保護等級。", "field015": "" }, "geometry": { "type": "Point", "coordinates": [ 121.1132, 22.7583 ] } },
{ "type": "Feature", "properties": { "field001": "花蓮縣—壽豐鄉鹽寮保育區89/01/12 89府農漁字第003049號", "field002": "漁業法WGS-84(漁業署)", "field003": "1.自本縣壽豐鄉鹽寮村台11縣第八號橋起至第十號橋止由低潮線向外延伸200公尺之海域。2.本保育區公告開放採捕期間禁止採捕體長未滿20公分之龍蝦及殼長未滿4公分之九孔。3.保育對象：龍蝦、九孔。", "field004": "23°53'13.7\"N;121°35'42.7\"E", "field005": ".23°51'44.2\"N;121°35'23.7\"E", "field006": "23°51'42.9\"N;121°35'30.7\"E", "field007": "23°53'12.5\"N;121°35'49.6\"E", "field008": "", "field009": "", "field010": "", "field011": "", "field012": "0.68", "field013": "花蓮縣政府", "field014": "屬「多功能使用」保護等級", "field015": "" }, "geometry": { "type": "Point", "coordinates": [ 121.6042, 23.9871 ] } },
{ "type": "Feature", "properties": { "field001": "花蓮縣—壽豐鄉水璉保育區89/01/12 89府農漁字第003049號", "field002": "漁業法WGS-84(漁業署)", "field003": "1.自本縣壽豐鄉鹽寮村台11縣水璉鼻起至第二十號橋止由低潮線向外延伸200公尺之海域。2.本保育區公告開放採捕期間禁止採捕體長未滿20公分之龍蝦及殼長未滿4公分之九孔。3.保育對象：龍蝦、九孔。", "field004": "23°43'35.6\"N;121°32'53.9\"E", "field005": ".23°43'12.4\"N;121°32'29.9\"E", "field006": "23°43'7.9\"N;121°32'35\"E", "field007": "23°43'31.2\"N;121°32'59\"E", "field008": "", "field009": "", "field010": "", "field011": "", "field012": "0.27", "field013": "花蓮縣政府", "field014": "屬「多功能使用」保護等級", "field015": "" }, "geometry": { "type": "Point", "coordinates": [ 121.6042, 23.9871 ] } },
{ "type": "Feature", "properties": { "field001": "花蓮縣—豐濱鄉高山保育區89/01/12 89府農漁字第003049號", "field002": "漁業法WGS-84(漁業署)", "field003": "1.自本縣豐濱鄉磯崎村台11縣高山站牌起至第二十二號橋止由低潮線向外延伸200公尺之海域。2.本保育區公告開放採捕期間禁止採捕體長未滿20公分之龍蝦及殼長未滿4公分之九孔。3.保育對象：龍蝦、九孔。", "field004": "23°41'12\"N;121°32'26\"E", "field005": "23°40'30.7\"N;121°32'17.9\"E", "field006": "23°41'10.8\"N;121°32'32.9\"E", "field007": "23°40'29.5\"N;121°32'24.8\"E", "field008": "", "field009": "", "field010": "", "field011": "", "field012": "0.24", "field013": "花蓮縣政府", "field014": "屬「多功能使用」保護等級", "field015": "" }, "geometry": { "type": "Point", "coordinates": [ 121.6042, 23.9871 ] } },
{ "type": "Feature", "properties": { "field001": "花蓮縣—豐濱鄉小湖保育區89/01/12 89府農漁字第003049號", "field002": "漁業法WGS-84(漁業署)", "field003": "1.自本縣豐濱鄉新社村標示牌D1起沿台11縣向南2公里D3止，由D1至D2連線以南，由D3至D4連線以北，由低潮線向外海延伸200公尺之海域。2.本保育區公告開放採捕期間禁止採捕體長未滿20公分之龍蝦及殼長未滿4公分之九孔。3.保育對象：龍蝦、九孔。", "field004": "23°38’59.6''N;121°32’10.8''E(D1)", "field005": "23°38’59.6''N;121°32’17.8''E(D2)", "field006": "23°38’06.8''N;121°31’57.8''E(D3)", "field007": "23°38’06.8''N;121°32’04.9''E(D4)", "field008": "", "field009": "", "field010": "", "field011": "", "field012": "0.42", "field013": "花蓮縣政府", "field014": "屬「多功能使用」保護等級", "field015": "" }, "geometry": { "type": "Point", "coordinates": [ 121.6042, 23.9871 ] } },
{ "type": "Feature", "properties": { "field001": "屏東縣—琉球漁業資源保育區101/07/25屏府農漁字第10123807100號", "field002": "漁業法WGS-84(漁業署)", "field003": "西北分區：1.除經主管機關核准之學術研究外，禁止於保育區範圍內以任何方式採捕（含徒手）保育對象或破壞棲息環境之行為。2.保育對象：龍蝦、馬尾藻、海膽、珊瑚礁魚類及其他水產動物(洄游性魚類除外)。杉福潮間帶保育示範區：1.未經該府認證合格之解說人員帶領不得進入，經主管機關核准之學術研究及管理單位人員除外。同依時間進入人數以300人為限，且僅限進入該府劃設之人員行走路線水域(以浮球或其他方式標識適當路線)。除經主管機關核准之學術研究及管理單位人員外，禁止於保育區範圍內以任何方式採捕（含徒手）保育對象或破壞棲息環境之行為。潮間帶保育示範區範為該府得視保育成效或管理需求予以調整。2.保育對象：所有水產動物及馬尾藻。環島分區：1.除經主管機關核准之學術研究外，禁止於保育區範圍內以任何方式採捕（含徒手）保育對象或破壞棲息環境之行為。2.保育對象：龍蝦、海膽及馬尾藻。琉球新漁港、小琉球漁港、漁福漁港、大福漁港、天福漁港、杉福漁港及其航道範圍，業經該府公告相關管理及限制事項者，從其規定。", "field004": "西北分區：自老人會起(22°21.323'N,120°22.862'E )至杉福漁港(22°20.520'N`, 120°21.772'E)止。以高潮線起向外延伸200公尺，扣除箱網養殖區(L1-L8)及杉福潮間帶保育示範區(A1-A5)所圍之海域。", "field005": "杉福潮間帶保育示範區：杉福潮間帶由A1-A5所圍之海域。", "field006": "環島分區：琉球全島沿岸高潮線起向外延伸200公尺扣除西北分區、箱網養殖區及杉福潮間帶保育示範區之範圍。", "field007": "", "field008": "", "field009": "", "field010": "", "field011": "", "field012": "3.665405", "field013": "屏東縣政府", "field014": "屬「禁止採捕」保護等級。", "field015": "" }, "geometry": { "type": "Point", "coordinates": [ 120.488, 22.6824 ] } },
{ "type": "Feature", "properties": { "field001": "屏東縣—車城漁業資源保育區101/07/25屏府農漁字第10123807100號", "field002": "漁業法WGS-84(漁業署)", "field003": "1.車城鄉竹坑至海口間海域海岸線長約2公里、水深至1至11公尺。2.除經主管機關核准之學術研究外，禁止於保育區範圍內以任何方式採捕（含徒手）保育對象或破壞棲息環境之行為。3.保育對象：九孔、龍蝦、紫菜、石花菜。", "field004": "22°08.273'N;120°42.134'E", "field005": "22°08.273'N;120°42.026'E", "field006": "22°05.513'N;120°42.858'E", "field007": "22°05.513'N;120°42.750'E", "field008": "", "field009": "", "field010": "", "field011": "", "field012": "0.95", "field013": "屏東縣政府", "field014": "屬「多功能使用」保護等級", "field015": "" }, "geometry": { "type": "Point", "coordinates": [ 120.488, 22.6824 ] } },
{ "type": "Feature", "properties": { "field001": "屏東縣—國立海洋生物博物館資源培育區89/07/31 89屏府農漁字第117607號", "field002": "漁業法WGS-84(漁業署)", "field003": "1.資源培育區內各項開發及漁業行為，需經管理單位同意後始可進行。2.保育對象：保育區內水產動物均屬之。", "field004": "屏東縣車城鄉金沙崙以南水深50公尺以淺之海域，自北緯22°5.0'以南，東經120°41.0'以東，總面積約10 km2。", "field005": "", "field006": "", "field007": "", "field008": "", "field009": "", "field010": "", "field011": "", "field012": "6.77", "field013": "屏東縣政府", "field014": "屬「禁止採捕」保護等級。", "field015": "" }, "geometry": { "type": "Point", "coordinates": [ 120.488, 22.6824 ] } },
{ "type": "Feature", "properties": { "field001": "台東縣—綠島漁業資源保育區(一)193/11/08府農漁字第0930089811號", "field002": "漁業法WGS-84(漁業署)", "field003": "1.台東縣綠島全島沿岸自低潮線向外海延伸200公尺之沿岸水域，海岸線長約12公里，以A、C兩點沿低潮線及向外海延伸200公尺之B、D兩點之間形成的範圍內，水域面積(公頃)：240公頃。為便於管理再細分為6個分區：(1)南寮分區：自「龜灣鼻」以北至「燈塔」前(機場側)以南，自低潮線向外延伸200公尺之海域。(A1-D1)(2)中寮分區：自「燈塔」前(機場側)以北至「公館鼻」以西，自低潮線向外延伸200公尺之海域。(A2-D2)(3)公館分區：自「公館鼻」以東起至「龜灣鼻」以南，自低潮線向外延伸200公尺之海域。(A3-D3)(4)龜灣分區：自「大白沙潛水步道」以北至「大哥隧道」北向入口以南，自低潮線向外延伸200公尺之海域。\n(5)石朗分區：自「石朗浮潛區潛水步道」南300公尺以北至「南寮漁港」南方防波堤，自低潮線向外延伸75公尺之海域，並包含潮間帶。(A5-D5)(6)柴口分區：自「柴口浮潛區潛水步道」東100公尺、西400公尺，自低潮線向外延伸100公尺之海域，並包含潮間帶。(A6-D6)2.於本保育區?從事各項觀光、遊憩、漁撈活動或進行開發等，不得有破壞海洋生物、棲地環境之行為。3.石?與柴口分區規劃成浮潛區，全??開放採捕。其餘分區開放採捕期間禁止採捕體長未滿20公分之龍蝦或殼長未滿5公分之九孔，且不得攜帶水肺採捕各類水產動植物，另「龜灣分區」尚不得採捕「燕魚」。除開放採捕期間外，不得以任何方式採捕各類水產動植物。4.保育對象：各類水產動植物。", "field004": "22°38’46.2''N;121°28’23''E(A1)", "field005": ".22°38’41.4''N;121°28’18.5''E(B1)", "field006": ".22°40’40.5''N;121°27’49.4''E(C1)", "field007": "22°40’41.3''N;121°27’42.8''E(D1)", "field008": "22°40’40.5''N;121°27’49.4''E(A2)", "field009": "22°40’41.8''N;121°27’42.7''E(B2)", "field010": "22°40’46.2''N;121°29’27.8''E(C2)", "field011": "22°40’50.9''N;121°29’23.3''E(D2)", "field012": "5.77", "field013": "台東縣政府", "field014": "1.「石朗與柴口分區」屬「禁止採捕」保護等級。2.「南寮、中寮、公館及龜灣分區」屬「多功能使用」保護等級。", "field015": "綠島漁業資源保育區(一)至(三)面積合計5.77平方公里" }, "geometry": { "type": "Point", "coordinates": [ 121.1132, 22.7583 ] } },
{ "type": "Feature", "properties": { "field001": "台東縣—綠島漁業資源保育區(二)193/11/08府農漁字第0930089811號", "field002": "漁業法WGS-84(漁業署)", "field003": "1.台東縣綠島全島沿岸自低潮線向外海延伸200公尺之沿岸水域，海岸線長約12公里，以A、C兩點沿低潮線及向外海延伸200公尺之B、D兩點之間形成的範圍內，水域面積(公頃)：240公頃。為便於管理再細分為6個分區：(1)南寮分區：自「龜灣鼻」以北至「燈塔」前(機場側)以南，自低潮線向外延伸200公尺之海域。(A1-D1)(2)中寮分區：自「燈塔」前(機場側)以北至「公館鼻」以西，自低潮線向外延伸200公尺之海域。(A2-D2)(3)公館分區：自「公館鼻」以東起至「龜灣鼻」以南，自低潮線向外延伸200公尺之海域。(A3-D3)(4)龜灣分區：自「大白沙潛水步道」以北至「大哥隧道」北向入口以南，自低潮線向外延伸200公尺之海域。(5)石朗分區：自「石朗浮潛區潛水步道」南300公尺以北至「南寮漁港」南方防波堤，自低潮線向外延伸75公尺之海域，並包含潮間帶。(A5-D5)(6)柴口分區：自「柴口浮潛區潛水步道」東100公尺、西400公尺，自低潮線向外延伸100公尺之海域，並包含潮間帶。(A6-D6)2.於本保育區?從事各項觀光、遊憩、漁撈活動或進行開發等，不得有破壞海洋生物、棲地環境之行為。3.石?與柴口分區規劃成浮潛區，全??開放採捕。其餘分區開放採捕期間禁止採捕體長未滿20公分之龍蝦或殼長未滿5公分之九孔，且不得攜帶水肺採捕各類水產動植物，另「龜灣分區」尚不得採捕「燕魚」。除開放採捕期間外，不得以任何方式採捕各類水產動植物。4.保育對象：各類水產動植物。", "field004": "22°39’7.8''N;121°28’28.4''E(A5)", "field005": ".22°40’50.9''N;121°29’23.3''E(B3)", "field006": "22°38’46.2''N;121°28’23''E(C3)", "field007": "22°38’41.4''N;121°28’18.5''E(D3)", "field008": "22°38’32.9''N;121°29’17.4''E(A4)", "field009": "22°38’19.9''N;121°29’6.8''E(B4)", "field010": "22°38’20.6''N;121°29’32.9'E(C4)", "field011": "22°38’13.8''N;121°29’16.9''E(D4)", "field012": "", "field013": "台東縣政府", "field014": "1.「石朗與柴口分區」屬「禁止採捕」保護等級。\n2.「南寮、中寮、公館及龜灣分區」屬「多功能使用」保護等級。", "field015": "綠島漁業資源保育區(一)至(三)面積合計5.77平方公里" }, "geometry": { "type": "Point", "coordinates": [ 121.1132, 22.7583 ] } },
{ "type": "Feature", "properties": { "field001": "花蓮縣—豐濱鄉豐濱保育區89/01/12 89府農漁字第003049號", "field002": "漁業法WGS-84(漁業署)", "field003": "1.自本縣豐濱鄉台11縣57k號路標標示牌起至65k路標止由低潮線向外延伸200公尺之海域。2.本保育區公告開放採捕期間禁止採捕體長未滿20公分之龍蝦及殼長未滿4公分之九孔。3.保育對象：龍蝦、九孔", "field004": "23°33'3.7\"N;121°30'7.8\"E", "field005": "23°29'9.2\"N;121°30'15.1\"E", "field006": "23°33'3.9\"N;121°30'14.9\"E", "field007": "23°29'9.3\"N;121°30'22\"E", "field008": "", "field009": "", "field010": "", "field011": "", "field012": "1.67", "field013": "花蓮縣政府", "field014": "屬「多功能使用」保護等級", "field015": "" }, "geometry": { "type": "Point", "coordinates": [ 121.6042, 23.9871 ] } },
{ "type": "Feature", "properties": { "field001": "花蓮縣—豐濱鄉石梯坪保育區89/01/12 89府農漁字第003049號", "field002": "漁業法WGS-84(漁業署)", "field003": "1.自本縣豐濱鄉港口村石梯坪標示牌起向南延伸三公里止由低潮線向外延伸200公尺之海域。2.本保育區公告開放採捕期間禁止採捕體長未滿20公分之龍蝦及殼長未滿4公分之九孔。3.保育對象：龍蝦、九孔。", "field004": "23°28'55.3\"N;121°30'6.3\"E", "field005": ".23°28'14\"N;121°29'47.1\"E", "field006": "23°28'52.7\"N;121°30'12.8\"E", "field007": ".23°28'11.5\"N;121°29'53.6\"", "field008": "", "field009": "", "field010": "", "field011": "", "field012": "0.17", "field013": "花蓮縣政府", "field014": "屬「多功能使用」保護等級", "field015": "" }, "geometry": { "type": "Point", "coordinates": [ 121.6042, 23.9871 ] } },
{ "type": "Feature", "properties": { "field001": "澎湖縣—小門漁業資源保育區88/12/28八八澎府農漁字第73764號", "field002": "漁業法WGS-84(漁業署)", "field003": "1.西嶼鄉小門村附近海岸海域。2.全年禁捕，凡於公告禁捕期間，不得以任何方式進入保育區範圍內採捕保育種類(保育區開放採捕期間，有關採捕體長及漁具漁法之限制，俟時另行定之)。3.保育對象：九孔、海膽、龍蝦、鐘螺。", "field004": "23°39.3' N;119°30.4'E", "field005": "23°39.3' N;119°30.6'E", "field006": "23°39.4'N;119°30.4'E", "field007": ".23°39.4'N;119°30.6'E", "field008": "", "field009": "", "field010": "", "field011": "", "field012": "0.06", "field013": "澎湖縣政府", "field014": "屬「多功能使用」保護等級", "field015": "" }, "geometry": { "type": "Point", "coordinates": [ 119.5664, 23.5712 ] } },
{ "type": "Feature", "properties": { "field001": "澎湖縣—七美漁業資源保育區88/12/28八八澎府農漁字第73764號", "field002": "漁業法WGS-84(漁業署)", "field003": "1.七美鄉平和村(大港)水泥樁甲點至乙點處，自低潮線向外海延伸100公尺之沿岸海域。2.全年禁捕，凡於公告禁捕期間，不得以任何方式進入保育區範圍內採捕保育種類(保育區開放採捕期間，有關採捕體長及漁具漁法之限制，俟時另行定之)。3.保育對象：九孔、海膽、龍蝦、鐘螺。", "field004": "23°11.80'N;119°24.62'E", "field005": "23°11.73'N;119°24.53'E", "field006": "23°11.75'N;119°24.75'E", "field007": "23°11.68'N;119°24.72'E", "field008": "", "field009": "", "field010": "", "field011": "", "field012": "0.04", "field013": "澎湖縣政府", "field014": "屬「多功能使用」保護等級", "field015": "" }, "geometry": { "type": "Point", "coordinates": [ 119.5664, 23.5712 ] } },
{ "type": "Feature", "properties": { "field001": "金門縣—金門古寧頭西北海域潮間帶鱟保育區104/03/19府建漁字第10400182731號", "field002": "漁業法WGS-84(漁業署)", "field003": "1.古寧頭潮間帶水域，座標系統為WGS-84，由A、B、C、D四點所圍成之區域。2.全年禁止於保育區範圍內採捕鱟或從事破壞其棲息地環境之行為。3.如須於保育區內投放或除去水產生物繁殖上所需之保護物或進行學術之研究，需經本府書面同意後始可為之。4.凡違反本公告事項規定者，依漁業法第六十五條第六款規定處新臺幣三萬元以上十五萬元以下罰鍰。5.保育對象：鱟。", "field004": "24°28'14.9\"N;118°17'19.5\"E", "field005": "24°28'44.4\"N;118°19'38.8\"E", "field006": "24°29'49.4\"N;118°19'38.8\"E", "field007": "24°29'19.9\"N;118°17'19.5\"E", "field008": "", "field009": "", "field010": "", "field011": "", "field012": "7.86", "field013": "金門縣政府", "field014": "屬「多功能使用」保護等級", "field015": "" }, "geometry": { "type": "Point", "coordinates": [ 118.3186, 24.4485 ] } }
]
}
