{
"type": "FeatureCollection",
"name": "fishery_conservation_zones",
"crs": { "type": "name", "properties": { "name": "urn:ogc:def:crs:OGC:1.3:CRS84" } },
"features": [
{ "type": "Feature", "properties": { "序號": "3", "縣市別": "10017", "名稱": "基隆市水產動植物保育區", "公告日期": "1988-12-27", "公告文號": "88基府建漁字第120469號", "限制事項": "1.自基隆市行政轄區之所有沿岸水域，由低潮線向外延伸1000公尺之海域，海岸線長約20公里。\n2.保育區全年禁止採捕保育種類，如有必要時由該府另行公告開放採捕時間。", "保育對象": "九孔、?仔、龍蝦", "保護等級分類": "3", "11月21日管理執行進度": "1.該府於88年12月27日公告劃設「基隆市水產動植物保育區」，範圍自該市行政轄區之所有沿岸水域，由低潮線向外延伸1000公尺之海域，海岸線長約20公里，保育種類為九孔、龍蝦及?仔，係屬我國第3類「多功能使用」海洋保護區。\n2.有關告示牌設置之位置及數量，將全面檢視現舊有告示牌後，再予設置。", "2月18日至19日電洽執行進度": "刻正與該府交通旅遊處討論及協調設置告示牌的數量及位置，已初步規劃於該市所轄6個漁港設置告示牌。", "4月至5月管理執行進度": "已設計好告示牌樣板，實體刻正製作中，預定設置7面至轄區沿岸及港口" }, "geometry": { "type": "Point", "coordinates": [ 121.7419, 25.1276 ] } },
{ "type": "Feature", "properties": { "序號": "4", "縣市別": "65000", "名稱": "貢寮水產動植物繁殖保育區", "公告日期": "2012-04-05", "公告文號": "北府農漁字第10142435241號", "限制事項": "貢寮區福連里卯澳至洋寮鼻距岸300公尺之海域。\n1.石花菜每年10月1日起至次年4月15日只禁止採捕或販賣。\n2.九孔殼長未滿4公分者禁止採捕，試驗研究或養殖目的且經該府核准者，不予禁止。\n3.龍蝦殼長未滿20公分者禁止採捕，試驗研究或養殖目的且經該府核准者，不予禁止。\n4.海膽不含刺殼長未滿8公分者禁止採捕，試驗研究或養殖目的且經該府核准者，不予禁止。\n5.禁止使用潛水器材採捕九孔、海膽、龍蝦、石花菜。\n6.禁止非以釣具類魚具之漁船進入保育區範圍內作業。", "保育對象": "九孔、海膽、龍蝦、石花菜", "保護等級分類": "3", "11月21日管理執行進度": "101年度已委託廠商辦理「新北市水產動植物繁殖保育區及網具類漁具禁漁區整體規劃」進行公告內容之檢討修正事宜，於101年11月30日召開期末簡報會議，針對貢寮保育區公告範圍，保持原公告卯澳灣部分，另修正石花菜採捕及販賣期，增加大法螺、麒麟菜、珊瑚礁及珊瑚礁魚類之禁止事項，關於增設馬崗海蝕平台部分之後再評估討論。", "2月18日至19日電洽執行進度": "該處業已檢送修正公告至本署核定中，俟本署核定後，將辦理告示牌設置。", "4月至5月管理執行進度": "1102年度已委託廠商辦理「新北市水產動植物繁殖保育區及網具類漁具禁漁區整體規劃」進行公告內容之檢討修正事宜。\n2.告示牌已委託廠商進行設計規劃。" }, "geometry": { "type": "Point", "coordinates": [ 121.5598, 25.0118 ] } },
{ "type": "Feature", "properties": { "序號": "7", "縣市別": "10007", "名稱": "伸港螻蛄蝦繁殖保育區", "公告日期": "2013-01-14", "公告文號": "府農漁字第1020008085A號", "限制事項": "1.自該縣伸港鄉曾家村出海道路西北側離岸600公尺外海域，以A、B、 C、D點座標所連成方形區域內均屬之【A\":24°10'8\"N 120°27'43\"E;B\":24°10'8\"N 120°27'22\"E;C\":24°9'47\"N 120°27'8\"E;D\":24°9'47\"N 120°27'29\"E】；保育總面積為36公頃。\n2.本保育區範圍內，除經主管機關核准之學術研究外，全年禁止採捕螻蛄蝦、二枚貝及其他水產動植物。", "保育對象": "螻蛄蝦", "保護等級分類": "2", "11月21日管理執行進度": "1.「伸港螻蛄蝦繁殖保育區」因無法有效保護螻蛄蝦棲地環境，故該府刻正簽辦修正該公告內容，修正將前揭保育區全面劃設為「核心區」，除主管機關核准之學術研究外，全面禁止採捕螻蛄蝦、二枚貝及其他水產動植物。\n2.王功保育區範圍與漁民經營觀光體驗文蛤場位置重疊，故該府亦將該保育區之範圍及面積修正為40.56公頃，亦區分「核心區」及「養護區」，現刻正以府農漁字第1010302873號公告進行預告中。", "2月18日至19日電洽執行進度": "該府業於102年1月14及17日分別以府農漁字第1020008085A號及府農漁字第1020013446A號修正公告，其中將伸港螻蛄蝦繁殖保育區提升至第2級海洋保護區，另刻正簽辦補助款請漁會設置告示牌。", "4月至5月管理執行進度": "1.業於102年1月14日完成「伸港螻蛄蝦繁殖保育區」修正公告，該補育區已修正全年禁止採捕螻蛄蝦、二枚貝及其他水產動植物。另於同年1月17日公告新增「伸港(二)、王功螻蛄蝦繁殖保育區」。\n2.該府本年度已補助彰化區漁會辦理「彰化縣伸港、王公螻蛄蝦資源保育區監測及維護管理計畫」，該計畫包含告示牌施作，俟施作完成後再提供告示牌照片。" }, "geometry": { "type": "Point", "coordinates": [ 120.5419, 24.0517 ] } },
{ "type": "Feature", "properties": { "序號": "14", "縣市別": "10013", "名稱": "國立海洋生物博物館資源培育區", "公告日期": "1989-07-31", "公告文號": "89屏府農漁字第117607號", "限制事項": "1.屏東縣車城鄉金沙崙以南水深50公尺以淺之海域，自22°5'N以南；120°41'E。\n2.資源培育區內各項開發及漁業行為，需經管理單位同意後始可進行。", "保育對象": "保育區內水產動物均屬之", "保護等級分類": "2", "11月21日管理執行進度": "", "2月18日至19日電洽執行進度": "", "4月至5月管理執行進度": "" }, "geometry": { "type": "Point", "coordinates": [ 120.488, 22.6824 ] } }
]
}
