{
"type": "FeatureCollection",
"name": "fishery_ports",
"crs": { "type": "name", "properties": { "name": "urn:ogc:def:crs:OGC:1.3:CRS84" } },
"features": [
{ "type": "Feature", "properties": { "編號": "1", "漁港名稱": "南方澳漁港", "分類": "第一類", "縣市": "10002", "經度": "121.870622", "緯度": "24.581780", "電話": "(03)9777873" }, "geometry": { "type": "Point", "coordinates": [ 121.870622, 24.58178 ] } },
{ "type": "Feature", "properties": { "編號": "2", "漁港名稱": "新竹漁港", "分類": "第一類", "縣市": "10018", "經度": "120.922373", "緯度": "24.847664", "電話": "(03)5216121252" }, "geometry": { "type": "Point", "coordinates": [ 120.922373, 24.847664 ] } },
{ "type": "Feature", "properties": { "編號": "3", "漁港名稱": "將軍漁港", "分類": "第二類", "縣市": "67000", "經度": "120.085915", "緯度": "23.211784", "電話": "(06)2982845" }, "geometry": { "type": "Point", "coordinates": [ 120.085915, 23.211784 ] } },
{ "type": "Feature", "properties": { "編號": "4", "漁港名稱": "前鎮漁港", "分類": "第一類", "縣市": "64000", "經度": "120.313641", "緯度": "22.569640", "電話": "(07)8214258" }, "geometry": { "type": "Point", "coordinates": [ 120.313641, 22.56964 ] } },
{ "type": "Feature", "properties": { "編號": "5", "漁港名稱": "中洲漁港", "分類": "第二類", "縣市": "64000", "經度": "120.299836", "緯度": "22.574016", "電話": "(07)79956781841" }, "geometry": { "type": "Point", "coordinates": [ 120.299836, 22.574016 ] } },
{ "type": "Feature", "properties": { "編號": "6", "漁港名稱": "旗后漁港", "分類": "第二類", "縣市": "64000", "經度": "120.270877", "緯度": "22.612936", "電話": "(07)79956781841" }, "geometry": { "type": "Point", "coordinates": [ 120.270877, 22.612936 ] } },
{ "type": "Feature", "properties": { "編號": "7", "漁港名稱": "鼓山漁港", "分類": "第二類", "縣市": "64000", "經度": "120.269672", "緯度": "22.619812", "電話": "(07)79956781841" }, "geometry": { "type": "Point", "coordinates": [ 120.269672, 22.619812 ] } },
{ "type": "Feature", "properties": { "編號": "8", "漁港名稱": "東港鹽埔漁港", "分類": "第一類", "縣市": "10013", "經度": "120.441104", "緯度": "22.469842", "電話": "(08)8334595" }, "geometry": { "type": "Point", "coordinates": [ 120.441104, 22.469842 ] } },
{ "type": "Feature", "properties": { "編號": "9", "漁港名稱": "小港漁港", "分類": "廢止", "縣市": "64000", "經度": "120.330937", "緯度": "22.539353", "電話": "" }, "geometry": { "type": "Point", "coordinates": [ 120.330937, 22.539353 ] } },
{ "type": "Feature", "properties": { "編號": "10", "漁港名稱": "小港臨海新村漁港", "分類": "第二類", "縣市": "64000", "經度": "120.343706", "緯度": "22.544650", "電話": "(07)79956781841" }, "geometry": { "type": "Point", "coordinates": [ 120.343706, 22.54465 ] } },
{ "type": "Feature", "properties": { "編號": "11", "漁港名稱": "小港第十漁港", "分類": "廢止", "縣市": "64000", "經度": "120.319907", "緯度": "22.550853", "電話": "" }, "geometry": { "type": "Point", "coordinates": [ 120.319907, 22.550853 ] } },
{ "type": "Feature", "properties": { "編號": "12", "漁港名稱": "上竹里漁港", "分類": "第二類", "縣市": "64000", "經度": "120.298695", "緯度": "22.576519", "電話": "(07)79956781841" }, "geometry": { "type": "Point", "coordinates": [ 120.298695, 22.576519 ] } },
{ "type": "Feature", "properties": { "編號": "13", "漁港名稱": "大汕頭漁港", "分類": "廢止", "縣市": "64000", "經度": "120.290902", "緯度": "22.586467", "電話": "" }, "geometry": { "type": "Point", "coordinates": [ 120.290902, 22.586467 ] } },
{ "type": "Feature", "properties": { "編號": "14", "漁港名稱": "旗津漁港", "分類": "第二類", "縣市": "64000", "經度": "120.289020", "緯度": "22.589377", "電話": "(07)79956781841" }, "geometry": { "type": "Point", "coordinates": [ 120.28902, 22.589377 ] } },
{ "type": "Feature", "properties": { "編號": "15", "漁港名稱": "鳳鼻頭漁港", "分類": "第二類", "縣市": "64000", "經度": "120.357695", "緯度": "22.508219", "電話": "(07)79956781841" }, "geometry": { "type": "Point", "coordinates": [ 120.357695, 22.508219 ] } },
{ "type": "Feature", "properties": { "編號": "16", "漁港名稱": "水尾漁港", "分類": "第二類", "縣市": "65000", "經度": "121.650643", "緯度": "25.226222", "電話": "(02)89526055" }, "geometry": { "type": "Point", "coordinates": [ 121.650643, 25.226222 ] } },
{ "type": "Feature", "properties": { "編號": "17", "漁港名稱": "石門漁港", "分類": "第二類", "縣市": "65000", "經度": "121.567161", "緯度": "25.294930", "電話": "(02)89526055" }, "geometry": { "type": "Point", "coordinates": [ 121.567161, 25.29493 ] } },
{ "type": "Feature", "properties": { "編號": "18", "漁港名稱": "東澳漁港", "分類": "第二類", "縣市": "65000", "經度": "121.696272", "緯度": "25.203774", "電話": "(02)89526055" }, "geometry": { "type": "Point", "coordinates": [ 121.696272, 25.203774 ] } },
{ "type": "Feature", "properties": { "編號": "19", "漁港名稱": "馬崗漁港", "分類": "第二類", "縣市": "65000", "經度": "122.003046", "緯度": "25.014087", "電話": "(02)89526055" }, "geometry": { "type": "Point", "coordinates": [ 122.003046, 25.014087 ] } },
{ "type": "Feature", "properties": { "編號": "20", "漁港名稱": "深澳漁港", "分類": "第二類", "縣市": "65000", "經度": "121.820265", "緯度": "25.130565", "電話": "(02)89526055" }, "geometry": { "type": "Point", "coordinates": [ 121.820265, 25.130565 ] } },
{ "type": "Feature", "properties": { "編號": "21", "漁港名稱": "野柳漁港", "分類": "第二類", "縣市": "65000", "經度": "121.688550", "緯度": "25.207931", "電話": "(02)89526055" }, "geometry": { "type": "Point", "coordinates": [ 121.68855, 25.207931 ] } },
{ "type": "Feature", "properties": { "編號": "22", "漁港名稱": "富基漁港", "分類": "第二類", "縣市": "65000", "經度": "121.534194", "緯度": "25.292461", "電話": "(02)89526055" }, "geometry": { "type": "Point", "coordinates": [ 121.534194, 25.292461 ] } },
{ "type": "Feature", "properties": { "編號": "23", "漁港名稱": "萬里漁港", "分類": "第二類", "縣市": "65000", "經度": "121.695293", "緯度": "25.181745", "電話": "(02)89526055" }, "geometry": { "type": "Point", "coordinates": [ 121.695293, 25.181745 ] } },
{ "type": "Feature", "properties": { "編號": "24", "漁港名稱": "鼻頭漁港", "分類": "第二類", "縣市": "65000", "經度": "121.915206", "緯度": "25.124326", "電話": "(02)89526055" }, "geometry": { "type": "Point", "coordinates": [ 121.915206, 25.124326 ] } },
{ "type": "Feature", "properties": { "編號": "25", "漁港名稱": "澳底漁港", "分類": "第二類", "縣市": "65000", "經度": "121.926918", "緯度": "25.058113", "電話": "(02)89526055" }, "geometry": { "type": "Point", "coordinates": [ 121.926918, 25.058113 ] } },
{ "type": "Feature", "properties": { "編號": "26", "漁港名稱": "龍洞漁港", "分類": "第二類", "縣市": "65000", "經度": "121.915834", "緯度": "25.111954", "電話": "(02)89526055" }, "geometry": { "type": "Point", "coordinates": [ 121.915834, 25.111954 ] } },
{ "type": "Feature", "properties": { "編號": "27", "漁港名稱": "磺港漁港", "分類": "第二類", "縣市": "65000", "經度": "121.647713", "緯度": "25.231040", "電話": "(02)89526055" }, "geometry": { "type": "Point", "coordinates": [ 121.647713, 25.23104 ] } },
{ "type": "Feature", "properties": { "編號": "28", "漁港名稱": "大里漁港", "分類": "第二類", "縣市": "10002", "經度": "121.921492", "緯度": "24.962165", "電話": "(03)9252257" }, "geometry": { "type": "Point", "coordinates": [ 121.921492, 24.962165 ] } },
{ "type": "Feature", "properties": { "編號": "29", "漁港名稱": "大溪第一漁港", "分類": "第二類", "縣市": "10002", "經度": "121.898177", "緯度": "24.941403", "電話": "(03)9252257" }, "geometry": { "type": "Point", "coordinates": [ 121.898177, 24.941403 ] } },
{ "type": "Feature", "properties": { "編號": "30", "漁港名稱": "石城漁港", "分類": "第二類", "縣市": "10002", "經度": "121.951156", "緯度": "24.979891", "電話": "(03)9252257" }, "geometry": { "type": "Point", "coordinates": [ 121.951156, 24.979891 ] } },
{ "type": "Feature", "properties": { "編號": "31", "漁港名稱": "粉鳥林漁港", "分類": "第二類", "縣市": "10002", "經度": "121.843764", "緯度": "24.495641", "電話": "(03)9252257" }, "geometry": { "type": "Point", "coordinates": [ 121.843764, 24.495641 ] } },
{ "type": "Feature", "properties": { "編號": "32", "漁港名稱": "梗枋漁港", "分類": "第二類", "縣市": "10002", "經度": "121.870712", "緯度": "24.903093", "電話": "(03)9252257" }, "geometry": { "type": "Point", "coordinates": [ 121.870712, 24.903093 ] } },
{ "type": "Feature", "properties": { "編號": "33", "漁港名稱": "永安漁港", "分類": "第二類", "縣市": "68000", "經度": "121.011370", "緯度": "24.989539", "電話": "(03)33221015454" }, "geometry": { "type": "Point", "coordinates": [ 121.01137, 24.989539 ] } },
{ "type": "Feature", "properties": { "編號": "34", "漁港名稱": "竹圍漁港", "分類": "第二類", "縣市": "68000", "經度": "121.241362", "緯度": "25.117125", "電話": "(03)33221015454" }, "geometry": { "type": "Point", "coordinates": [ 121.241362, 25.117125 ] } },
{ "type": "Feature", "properties": { "編號": "35", "漁港名稱": "八斗子漁港", "分類": "第一類", "縣市": "10017", "經度": "121.790236", "緯度": "25.147326", "電話": "(02)24238660" }, "geometry": { "type": "Point", "coordinates": [ 121.790236, 25.147326 ] } },
{ "type": "Feature", "properties": { "編號": "36", "漁港名稱": "大武崙漁港", "分類": "第二類", "縣市": "10017", "經度": "121.707784", "緯度": "25.166831", "電話": "(02)24238660" }, "geometry": { "type": "Point", "coordinates": [ 121.707784, 25.166831 ] } },
{ "type": "Feature", "properties": { "編號": "37", "漁港名稱": "外木山漁港", "分類": "第二類", "縣市": "10017", "經度": "121.734512", "緯度": "25.159644", "電話": "(02)24238660" }, "geometry": { "type": "Point", "coordinates": [ 121.734512, 25.159644 ] } },
{ "type": "Feature", "properties": { "編號": "38", "漁港名稱": "長潭里漁港", "分類": "第二類", "縣市": "10017", "經度": "121.801199", "緯度": "25.140544", "電話": "(02)24238660" }, "geometry": { "type": "Point", "coordinates": [ 121.801199, 25.140544 ] } },
{ "type": "Feature", "properties": { "編號": "39", "漁港名稱": "望海巷漁港", "分類": "第二類", "縣市": "10017", "經度": "121.802454", "緯度": "25.137672", "電話": "(02)24238660" }, "geometry": { "type": "Point", "coordinates": [ 121.802454, 25.137672 ] } },
{ "type": "Feature", "properties": { "編號": "40", "漁港名稱": "正濱漁港", "分類": "第一類", "縣市": "10017", "經度": "121.765332", "緯度": "25.153059", "電話": "(02)24632045" }, "geometry": { "type": "Point", "coordinates": [ 121.765332, 25.153059 ] } },
{ "type": "Feature", "properties": { "編號": "41", "漁港名稱": "龜吼漁港", "分類": "第二類", "縣市": "65000", "經度": "121.688493", "緯度": "25.195704", "電話": "(02)89526055" }, "geometry": { "type": "Point", "coordinates": [ 121.688493, 25.195704 ] } },
{ "type": "Feature", "properties": { "編號": "42", "漁港名稱": "水湳洞漁港", "分類": "第二類", "縣市": "65000", "經度": "121.867714", "緯度": "25.122994", "電話": "(02)89526055" }, "geometry": { "type": "Point", "coordinates": [ 121.867714, 25.122994 ] } },
{ "type": "Feature", "properties": { "編號": "43", "漁港名稱": "南雅漁港", "分類": "第二類", "縣市": "65000", "經度": "121.887386", "緯度": "25.121934", "電話": "(02)89526055" }, "geometry": { "type": "Point", "coordinates": [ 121.887386, 25.121934 ] } },
{ "type": "Feature", "properties": { "編號": "44", "漁港名稱": "福隆漁港", "分類": "第二類", "縣市": "65000", "經度": "121.950819", "緯度": "25.021444", "電話": "(02)89526055" }, "geometry": { "type": "Point", "coordinates": [ 121.950819, 25.021444 ] } },
{ "type": "Feature", "properties": { "編號": "45", "漁港名稱": "卯澳漁港", "分類": "第二類", "縣市": "65000", "經度": "121.991334", "緯度": "25.012448", "電話": "(02)89526055" }, "geometry": { "type": "Point", "coordinates": [ 121.991334, 25.012448 ] } },
{ "type": "Feature", "properties": { "編號": "46", "漁港名稱": "龍門漁港", "分類": "第二類", "縣市": "65000", "經度": "121.934657", "緯度": "25.023359", "電話": "(02)89526055" }, "geometry": { "type": "Point", "coordinates": [ 121.934657, 25.023359 ] } },
{ "type": "Feature", "properties": { "編號": "47", "漁港名稱": "澳仔漁港", "分類": "第二類", "縣市": "65000", "經度": "121.929738", "緯度": "25.052807", "電話": "(02)89526055" }, "geometry": { "type": "Point", "coordinates": [ 121.929738, 25.052807 ] } },
{ "type": "Feature", "properties": { "編號": "48", "漁港名稱": "美豔山漁港", "分類": "第二類", "縣市": "65000", "經度": "121.923581", "緯度": "25.069187", "電話": "(02)89526055" }, "geometry": { "type": "Point", "coordinates": [ 121.923581, 25.069187 ] } },
{ "type": "Feature", "properties": { "編號": "49", "漁港名稱": "和美漁港", "分類": "第二類", "縣市": "65000", "經度": "121.916073", "緯度": "25.079202", "電話": "(02)89526055" }, "geometry": { "type": "Point", "coordinates": [ 121.916073, 25.079202 ] } },
{ "type": "Feature", "properties": { "編號": "50", "漁港名稱": "中角漁港", "分類": "廢止", "縣市": "65000", "經度": "121.634465", "緯度": "25.242207", "電話": "" }, "geometry": { "type": "Point", "coordinates": [ 121.634465, 25.242207 ] } },
{ "type": "Feature", "properties": { "編號": "51", "漁港名稱": "永興漁港", "分類": "廢止", "縣市": "65000", "經度": "121.630092", "緯度": "25.265008", "電話": "" }, "geometry": { "type": "Point", "coordinates": [ 121.630092, 25.265008 ] } },
{ "type": "Feature", "properties": { "編號": "52", "漁港名稱": "草里漁港", "分類": "第二類", "縣市": "65000", "經度": "121.606096", "緯度": "25.282858", "電話": "(02)89526055" }, "geometry": { "type": "Point", "coordinates": [ 121.606096, 25.282858 ] } },
{ "type": "Feature", "properties": { "編號": "53", "漁港名稱": "老梅漁港", "分類": "廢止", "縣市": "65000", "經度": "121.545536", "緯度": "25.291590", "電話": "" }, "geometry": { "type": "Point", "coordinates": [ 121.545536, 25.29159 ] } },
{ "type": "Feature", "properties": { "編號": "54", "漁港名稱": "後厝漁港", "分類": "第二類", "縣市": "65000", "經度": "121.473987", "緯度": "25.256887", "電話": "(02)89526055" }, "geometry": { "type": "Point", "coordinates": [ 121.473987, 25.256887 ] } },
{ "type": "Feature", "properties": { "編號": "55", "漁港名稱": "六塊厝漁港", "分類": "第二類", "縣市": "65000", "經度": "121.448892", "緯度": "25.242128", "電話": "(02)89526055" }, "geometry": { "type": "Point", "coordinates": [ 121.448892, 25.242128 ] } },
{ "type": "Feature", "properties": { "編號": "56", "漁港名稱": "淡水第二漁港", "分類": "第二類", "縣市": "65000", "經度": "121.409301", "緯度": "25.183296", "電話": "(02)89526055" }, "geometry": { "type": "Point", "coordinates": [ 121.409301, 25.183296 ] } },
{ "type": "Feature", "properties": { "編號": "57", "漁港名稱": "淡水第一漁港", "分類": "第二類", "縣市": "65000", "經度": "121.427216", "緯度": "25.175579", "電話": "(02)89526055" }, "geometry": { "type": "Point", "coordinates": [ 121.427216, 25.175579 ] } },
{ "type": "Feature", "properties": { "編號": "58", "漁港名稱": "麟山鼻漁港", "分類": "第二類", "縣市": "65000", "經度": "121.510094", "緯度": "25.284006", "電話": "(02)89526055" }, "geometry": { "type": "Point", "coordinates": [ 121.510094, 25.284006 ] } },
{ "type": "Feature", "properties": { "編號": "59", "漁港名稱": "下罟子漁港", "分類": "第二類", "縣市": "65000", "經度": "121.380903", "緯度": "25.142848", "電話": "(02)89526055" }, "geometry": { "type": "Point", "coordinates": [ 121.380903, 25.142848 ] } },
{ "type": "Feature", "properties": { "編號": "60", "漁港名稱": "桶盤堀漁港", "分類": "第二類", "縣市": "10002", "經度": "121.936138", "緯度": "24.973724", "電話": "(03)9252257" }, "geometry": { "type": "Point", "coordinates": [ 121.936138, 24.973724 ] } },
{ "type": "Feature", "properties": { "編號": "61", "漁港名稱": "蕃薯寮漁港", "分類": "第二類", "縣市": "10002", "經度": "121.914777", "緯度": "24.952190", "電話": "(03)9252257" }, "geometry": { "type": "Point", "coordinates": [ 121.914777, 24.95219 ] } },
{ "type": "Feature", "properties": { "編號": "62", "漁港名稱": "大溪第二漁港", "分類": "第二類", "縣市": "10002", "經度": "121.899968", "緯度": "24.940588", "電話": "(03)9252257" }, "geometry": { "type": "Point", "coordinates": [ 121.899968, 24.940588 ] } },
{ "type": "Feature", "properties": { "編號": "63", "漁港名稱": "南澳漁港", "分類": "第二類", "縣市": "10002", "經度": "121.820162", "緯度": "24.461689", "電話": "(03)9252257" }, "geometry": { "type": "Point", "coordinates": [ 121.820162, 24.461689 ] } },
{ "type": "Feature", "properties": { "編號": "64", "漁港名稱": "烏石漁港", "分類": "第一類", "縣市": "10002", "經度": "121.836081", "緯度": "24.867994", "電話": "(03)9968511" }, "geometry": { "type": "Point", "coordinates": [ 121.836081, 24.867994 ] } },
{ "type": "Feature", "properties": { "編號": "65", "漁港名稱": "坡頭漁港", "分類": "第二類", "縣市": "10004", "經度": "120.971663", "緯度": "24.927033", "電話": "(03)5518101" }, "geometry": { "type": "Point", "coordinates": [ 120.971663, 24.927033 ] } },
{ "type": "Feature", "properties": { "編號": "66", "漁港名稱": "海山漁港", "分類": "第二類", "縣市": "10018", "經度": "120.902547", "緯度": "24.764739", "電話": "(03)5216121252" }, "geometry": { "type": "Point", "coordinates": [ 120.902547, 24.764739 ] } },
{ "type": "Feature", "properties": { "編號": "67", "漁港名稱": "外埔漁港", "分類": "第二類", "縣市": "10005", "經度": "120.771257", "緯度": "24.650743", "電話": "(03)33221015454" }, "geometry": { "type": "Point", "coordinates": [ 120.771257, 24.650743 ] } },
{ "type": "Feature", "properties": { "編號": "68", "漁港名稱": "公司寮漁港", "分類": "第二類", "縣市": "10005", "經度": "120.757508", "緯度": "24.613201", "電話": "(03)33221015454" }, "geometry": { "type": "Point", "coordinates": [ 120.757508, 24.613201 ] } },
{ "type": "Feature", "properties": { "編號": "69", "漁港名稱": "五甲漁港", "分類": "第二類", "縣市": "66000", "經度": "120.588291", "緯度": "24.390655", "電話": "(04)26581940" }, "geometry": { "type": "Point", "coordinates": [ 120.588291, 24.390655 ] } },
{ "type": "Feature", "properties": { "編號": "70", "漁港名稱": "松柏漁港", "分類": "第二類", "縣市": "66000", "經度": "120.616654", "緯度": "24.427818", "電話": "(04)26581940" }, "geometry": { "type": "Point", "coordinates": [ 120.616654, 24.427818 ] } },
{ "type": "Feature", "properties": { "編號": "71", "漁港名稱": "梧棲漁港", "分類": "第一類", "縣市": "66000", "經度": "120.518868", "緯度": "24.291861", "電話": "(04)26581940" }, "geometry": { "type": "Point", "coordinates": [ 120.518868, 24.291861 ] } },
{ "type": "Feature", "properties": { "編號": "142", "漁港名稱": "岐頭漁港", "分類": "第二類", "縣市": "10016", "經度": "119.609025", "緯度": "23.648699", "電話": "(06)9264048" }, "geometry": { "type": "Point", "coordinates": [ 119.609025, 23.648699 ] } },
{ "type": "Feature", "properties": { "編號": "143", "漁港名稱": "講美漁港", "分類": "第二類", "縣市": "10016", "經度": "119.595844", "緯度": "23.623924", "電話": "(06)9264048" }, "geometry": { "type": "Point", "coordinates": [ 119.595844, 23.623924 ] } },
{ "type": "Feature", "properties": { "編號": "144", "漁港名稱": "沙港西漁港", "分類": "第二類", "縣市": "10016", "經度": "119.61448", "緯度": "23.603513", "電話": "(06)9264048" }, "geometry": { "type": "Point", "coordinates": [ 119.61448, 23.603513 ] } },
{ "type": "Feature", "properties": { "編號": "145", "漁港名稱": "重光漁港", "分類": "第二類", "縣市": "10016", "經度": "119.571264", "緯度": "23.585538", "電話": "(06)9264048" }, "geometry": { "type": "Point", "coordinates": [ 119.571264, 23.585538 ] } },
{ "type": "Feature", "properties": { "編號": "146", "漁港名稱": "山水漁港", "分類": "第二類", "縣市": "10016", "經度": "119.600129", "緯度": "23.510686", "電話": "(06)9264048" }, "geometry": { "type": "Point", "coordinates": [ 119.600129, 23.510686 ] } },
{ "type": "Feature", "properties": { "編號": "147", "漁港名稱": "大果葉漁港", "分類": "第二類", "縣市": "10016", "經度": "119.516530", "緯度": "23.594043", "電話": "(06)9264048" }, "geometry": { "type": "Point", "coordinates": [ 119.51653, 23.594043 ] } },
{ "type": "Feature", "properties": { "編號": "148", "漁港名稱": "二崁漁港", "分類": "第二類", "縣市": "10016", "經度": "119.522039", "緯度": "23.606872", "電話": "(06)9264048" }, "geometry": { "type": "Point", "coordinates": [ 119.522039, 23.606872 ] } },
{ "type": "Feature", "properties": { "編號": "149", "漁港名稱": "鰲鼓漁港", "分類": "第二類", "縣市": "10010", "經度": "120.169205", "緯度": "23.491917", "電話": "(05)3620123" }, "geometry": { "type": "Point", "coordinates": [ 120.169205, 23.491917 ] } },
{ "type": "Feature", "properties": { "編號": "150", "漁港名稱": "副瀨漁港", "分類": "第二類", "縣市": "10010", "經度": "120.169016", "緯度": "23.490334", "電話": "(05)3620123" }, "geometry": { "type": "Point", "coordinates": [ 120.169016, 23.490334 ] } },
{ "type": "Feature", "properties": { "編號": "151", "漁港名稱": "塭港漁港", "分類": "第二類", "縣市": "10010", "經度": "120.143194", "緯度": "23.467964", "電話": "(05)3620123" }, "geometry": { "type": "Point", "coordinates": [ 120.143194, 23.467964 ] } },
{ "type": "Feature", "properties": { "編號": "152", "漁港名稱": "下庄漁港", "分類": "第二類", "縣市": "10010", "經度": "120.146191", "緯度": "23.464990", "電話": "(05)3620123" }, "geometry": { "type": "Point", "coordinates": [ 120.146191, 23.46499 ] } },
{ "type": "Feature", "properties": { "編號": "153", "漁港名稱": "東石漁港", "分類": "第二類", "縣市": "10010", "經度": "120.137610", "緯度": "23.450379", "電話": "(05)3620123" }, "geometry": { "type": "Point", "coordinates": [ 120.13761, 23.450379 ] } },
{ "type": "Feature", "properties": { "編號": "154", "漁港名稱": "網寮漁港", "分類": "第二類", "縣市": "10010", "經度": "120.147340", "緯度": "23.437935", "電話": "(05)3620123" }, "geometry": { "type": "Point", "coordinates": [ 120.14734, 23.437935 ] } },
{ "type": "Feature", "properties": { "編號": "155", "漁港名稱": "白水湖漁港", "分類": "第二類", "縣市": "10010", "經度": "120.152845", "緯度": "23.425501", "電話": "(05)3620123" }, "geometry": { "type": "Point", "coordinates": [ 120.152845, 23.425501 ] } },
{ "type": "Feature", "properties": { "編號": "156", "漁港名稱": "蚵寮漁港", "分類": "第二類", "縣市": "67000", "經度": "120.133431", "緯度": "23.285505", "電話": "(06)3901458" }, "geometry": { "type": "Point", "coordinates": [ 120.133431, 23.285505 ] } },
{ "type": "Feature", "properties": { "編號": "157", "漁港名稱": "下山漁港", "分類": "第二類", "縣市": "67000", "經度": "120.113115", "緯度": "23.137448", "電話": "(06)3901458" }, "geometry": { "type": "Point", "coordinates": [ 120.113115, 23.137448 ] } },
{ "type": "Feature", "properties": { "編號": "158", "漁港名稱": "四草漁港", "分類": "第二類", "縣市": "67000", "經度": "120.112956", "緯度": "23.023196", "電話": "(06)29911118273" }, "geometry": { "type": "Point", "coordinates": [ 120.112956, 23.023196 ] } },
{ "type": "Feature", "properties": { "編號": "159", "漁港名稱": "安平漁港", "分類": "第一類", "縣市": "67000", "經度": "120.153544", "緯度": "22.990203", "電話": "(06)3915937" }, "geometry": { "type": "Point", "coordinates": [ 120.153544, 22.990203 ] } },
{ "type": "Feature", "properties": { "編號": "160", "漁港名稱": "永新漁港", "分類": "第二類", "縣市": "64000", "經度": "120.206812", "緯度": "22.820503", "電話": "(07)79956781841" }, "geometry": { "type": "Point", "coordinates": [ 120.206812, 22.820503 ] } },
{ "type": "Feature", "properties": { "編號": "161", "漁港名稱": "彌陀漁港", "分類": "第二類", "縣市": "64000", "經度": "120.233580", "緯度": "22.761505", "電話": "(07)79956781841" }, "geometry": { "type": "Point", "coordinates": [ 120.23358, 22.761505 ] } },
{ "type": "Feature", "properties": { "編號": "162", "漁港名稱": "蚵子寮漁港", "分類": "第二類", "縣市": "64000", "經度": "120.254131", "緯度": "22.725752", "電話": "(07)79956781841" }, "geometry": { "type": "Point", "coordinates": [ 120.254131, 22.725752 ] } },
{ "type": "Feature", "properties": { "編號": "163", "漁港名稱": "港埔漁港", "分類": "第二類", "縣市": "64000", "經度": "120.380582", "緯度": "22.492922", "電話": "(07)79956781841" }, "geometry": { "type": "Point", "coordinates": [ 120.380582, 22.492922 ] } },
{ "type": "Feature", "properties": { "編號": "164", "漁港名稱": "汕尾漁港", "分類": "第二類", "縣市": "64000", "經度": "120.413536", "緯度": "22.478878", "電話": "(07)79956781841" }, "geometry": { "type": "Point", "coordinates": [ 120.413536, 22.478878 ] } },
{ "type": "Feature", "properties": { "編號": "165", "漁港名稱": "漁福漁港", "分類": "第二類", "縣市": "10013", "經度": "120.388904", "緯度": "22.347561", "電話": "(08)73204157215" }, "geometry": { "type": "Point", "coordinates": [ 120.388904, 22.347561 ] } },
{ "type": "Feature", "properties": { "編號": "166", "漁港名稱": "琉球新漁港", "分類": "第二類", "縣市": "10013", "經度": "120.375064", "緯度": "22.334889", "電話": "(08)73204157215" }, "geometry": { "type": "Point", "coordinates": [ 120.375064, 22.334889 ] } },
{ "type": "Feature", "properties": { "編號": "167", "漁港名稱": "大福漁港", "分類": "廢止", "縣市": "10013", "經度": "120.37088", "緯度": "22.331020", "電話": "" }, "geometry": { "type": "Point", "coordinates": [ 120.37088, 22.33102 ] } },
{ "type": "Feature", "properties": { "編號": "168", "漁港名稱": "天福漁港", "分類": "第二類", "縣市": "10013", "經度": "120.357503", "緯度": "22.322815", "電話": "(08)73204157215" }, "geometry": { "type": "Point", "coordinates": [ 120.357503, 22.322815 ] } },
{ "type": "Feature", "properties": { "編號": "169", "漁港名稱": "水利村漁港", "分類": "第二類", "縣市": "10013", "經度": "120.513134", "緯度": "22.417658", "電話": "(08)73204157215" }, "geometry": { "type": "Point", "coordinates": [ 120.513134, 22.417658 ] } },
{ "type": "Feature", "properties": { "編號": "170", "漁港名稱": "塭豐漁港", "分類": "第二類", "縣市": "10013", "經度": "120.518946", "緯度": "22.415223", "電話": "(08)73204157215" }, "geometry": { "type": "Point", "coordinates": [ 120.518946, 22.415223 ] } },
{ "type": "Feature", "properties": { "編號": "171", "漁港名稱": "楓港漁港", "分類": "第二類", "縣市": "10013", "經度": "120.698874", "緯度": "22.144308", "電話": "(08)73204157215" }, "geometry": { "type": "Point", "coordinates": [ 120.698874, 22.144308 ] } },
{ "type": "Feature", "properties": { "編號": "172", "漁港名稱": "海口漁港", "分類": "第二類", "縣市": "10013", "經度": "120.714629", "緯度": "22.091025", "電話": "(08)73204157215" }, "geometry": { "type": "Point", "coordinates": [ 120.714629, 22.091025 ] } },
{ "type": "Feature", "properties": { "編號": "173", "漁港名稱": "射寮漁港", "分類": "廢止", "縣市": "10013", "經度": "120.703488", "緯度": "22.055118", "電話": "" }, "geometry": { "type": "Point", "coordinates": [ 120.703488, 22.055118 ] } },
{ "type": "Feature", "properties": { "編號": "174", "漁港名稱": "後灣漁港", "分類": "第二類", "縣市": "10013", "經度": "120.696004", "緯度": "22.041678", "電話": "(08)73204157215" }, "geometry": { "type": "Point", "coordinates": [ 120.696004, 22.041678 ] } },
{ "type": "Feature", "properties": { "編號": "175", "漁港名稱": "萬里桐漁港", "分類": "廢止", "縣市": "10013", "經度": "120.706465", "緯度": "21.995492", "電話": "" }, "geometry": { "type": "Point", "coordinates": [ 120.706465, 21.995492 ] } },
{ "type": "Feature", "properties": { "編號": "176", "漁港名稱": "山海漁港", "分類": "第二類", "縣市": "10013", "經度": "120.711745", "緯度": "21.985933", "電話": "(08)73204157215" }, "geometry": { "type": "Point", "coordinates": [ 120.711745, 21.985933 ] } },
{ "type": "Feature", "properties": { "編號": "177", "漁港名稱": "紅柴坑漁港", "分類": "第二類", "縣市": "10013", "經度": "120.715953", "緯度": "21.971901", "電話": "(08)73204157215" }, "geometry": { "type": "Point", "coordinates": [ 120.715953, 21.971901 ] } },
{ "type": "Feature", "properties": { "編號": "178", "漁港名稱": "潭仔漁港", "分類": "第二類", "縣市": "10013", "經度": "120.777413", "緯度": "21.950111", "電話": "(08)73204157215" }, "geometry": { "type": "Point", "coordinates": [ 120.777413, 21.950111 ] } },
{ "type": "Feature", "properties": { "編號": "179", "漁港名稱": "香蕉灣漁港", "分類": "第二類", "縣市": "10013", "經度": "120.831725", "緯度": "21.924599", "電話": "(08)73204157215" }, "geometry": { "type": "Point", "coordinates": [ 120.831725, 21.924599 ] } },
{ "type": "Feature", "properties": { "編號": "180", "漁港名稱": "鼻頭漁港", "分類": "第二類", "縣市": "10013", "經度": "120.848227", "緯度": "21.904912", "電話": "(08)73204157215" }, "geometry": { "type": "Point", "coordinates": [ 120.848227, 21.904912 ] } },
{ "type": "Feature", "properties": { "編號": "181", "漁港名稱": "興海漁港", "分類": "第二類", "縣市": "10013", "經度": "120.844607", "緯度": "21.974328", "電話": "(08)73204157215" }, "geometry": { "type": "Point", "coordinates": [ 120.844607, 21.974328 ] } },
{ "type": "Feature", "properties": { "編號": "182", "漁港名稱": "南仁漁港", "分類": "第二類", "縣市": "10013", "經度": "120.890949", "緯度": "22.087076", "電話": "(08)73204157215" }, "geometry": { "type": "Point", "coordinates": [ 120.890949, 22.087076 ] } },
{ "type": "Feature", "properties": { "編號": "183", "漁港名稱": "中山漁港", "分類": "第二類", "縣市": "10013", "經度": "120.887900", "緯度": "22.119468", "電話": "(08)73204157215" }, "geometry": { "type": "Point", "coordinates": [ 120.8879, 22.119468 ] } },
{ "type": "Feature", "properties": { "編號": "184", "漁港名稱": "旭海漁港", "分類": "第二類", "縣市": "10013", "經度": "120.892274", "緯度": "22.197871", "電話": "(08)73204157215" }, "geometry": { "type": "Point", "coordinates": [ 120.892274, 22.197871 ] } },
{ "type": "Feature", "properties": { "編號": "185", "漁港名稱": "興達漁港", "分類": "第二類", "縣市": "64000", "經度": "120.196260", "緯度": "22.862835", "電話": "(07)79956781841" }, "geometry": { "type": "Point", "coordinates": [ 120.19626, 22.862835 ] } },
{ "type": "Feature", "properties": { "編號": "186", "漁港名稱": "青草漁港", "分類": "廢止", "縣市": "10005", "經度": "120.861775", "緯度": "24.716590", "電話": "" }, "geometry": { "type": "Point", "coordinates": [ 120.861775, 24.71659 ] } },
{ "type": "Feature", "properties": { "編號": "187", "漁港名稱": "龍鳳漁港", "分類": "第二類", "縣市": "10005", "經度": "120.857368", "緯度": "24.699459", "電話": "(03)33221015454" }, "geometry": { "type": "Point", "coordinates": [ 120.857368, 24.699459 ] } },
{ "type": "Feature", "properties": { "編號": "188", "漁港名稱": "福寧漁港", "分類": "第二類", "縣市": "10005", "經度": "120.747921", "緯度": "24.607095", "電話": "(03)33221015454" }, "geometry": { "type": "Point", "coordinates": [ 120.747921, 24.607095 ] } },
{ "type": "Feature", "properties": { "編號": "189", "漁港名稱": "白沙屯漁港", "分類": "第二類", "縣市": "10005", "經度": "120.706450", "緯度": "24.570791", "電話": "(03)33221015454" }, "geometry": { "type": "Point", "coordinates": [ 120.70645, 24.570791 ] } },
{ "type": "Feature", "properties": { "編號": "190", "漁港名稱": "苑港漁港", "分類": "第二類", "縣市": "10005", "經度": "120.647855", "緯度": "24.461073", "電話": "(03)33221015454" }, "geometry": { "type": "Point", "coordinates": [ 120.647855, 24.461073 ] } },
{ "type": "Feature", "properties": { "編號": "191", "漁港名稱": "塭寮漁港", "分類": "第二類", "縣市": "66000", "經度": "120.581271", "緯度": "24.372137", "電話": "(04)26581940" }, "geometry": { "type": "Point", "coordinates": [ 120.581271, 24.372137 ] } },
{ "type": "Feature", "properties": { "編號": "192", "漁港名稱": "新埔漁港", "分類": "第二類", "縣市": "10005", "經度": "120.694910", "緯度": "24.545319", "電話": "(03)33221015454" }, "geometry": { "type": "Point", "coordinates": [ 120.69491, 24.545319 ] } },
{ "type": "Feature", "properties": { "編號": "193", "漁港名稱": "南港漁港", "分類": "第二類", "縣市": "10005", "經度": "120.713135", "緯度": "24.588567", "電話": "(03)33221015454" }, "geometry": { "type": "Point", "coordinates": [ 120.713135, 24.588567 ] } },
{ "type": "Feature", "properties": { "編號": "194", "漁港名稱": "北汕漁港", "分類": "第二類", "縣市": "66000", "經度": "120.585674", "緯度": "24.382939", "電話": "(04)26581940" }, "geometry": { "type": "Point", "coordinates": [ 120.585674, 24.382939 ] } },
{ "type": "Feature", "properties": { "編號": "195", "漁港名稱": "塭仔頭漁港", "分類": "第二類", "縣市": "10005", "經度": "120.843476", "緯度": "24.666901", "電話": "(03)33221015454" }, "geometry": { "type": "Point", "coordinates": [ 120.843476, 24.666901 ] } },
{ "type": "Feature", "properties": { "編號": "196", "漁港名稱": "崙尾灣漁港", "分類": "第二類", "縣市": "10007", "經度": "120.420488", "緯度": "24.080749", "電話": "(04)7531682" }, "geometry": { "type": "Point", "coordinates": [ 120.420488, 24.080749 ] } },
{ "type": "Feature", "properties": { "編號": "197", "漁港名稱": "五條港漁港", "分類": "第二類", "縣市": "10009", "經度": "120.170825", "緯度": "23.721665", "電話": "(05)5522262" }, "geometry": { "type": "Point", "coordinates": [ 120.170825, 23.721665 ] } },
{ "type": "Feature", "properties": { "編號": "198", "漁港名稱": "台西漁港", "分類": "第二類", "縣市": "10009", "經度": "120.172624", "緯度": "23.704218", "電話": "(05)5522262" }, "geometry": { "type": "Point", "coordinates": [ 120.172624, 23.704218 ] } },
{ "type": "Feature", "properties": { "編號": "199", "漁港名稱": "金湖漁港", "分類": "第二類", "縣市": "10009", "經度": "120.141755", "緯度": "23.572008", "電話": "(05)5522262" }, "geometry": { "type": "Point", "coordinates": [ 120.141755, 23.572008 ] } },
{ "type": "Feature", "properties": { "編號": "200", "漁港名稱": "台子村漁港", "分類": "第二類", "縣市": "10009", "經度": "120.138656", "緯度": "23.560825", "電話": "(05)5522262" }, "geometry": { "type": "Point", "coordinates": [ 120.138656, 23.560825 ] } },
{ "type": "Feature", "properties": { "編號": "201", "漁港名稱": "馬沙溝漁港", "分類": "廢止", "縣市": "67000", "經度": "120.096335", "緯度": "23.223039", "電話": "" }, "geometry": { "type": "Point", "coordinates": [ 120.096335, 23.223039 ] } },
{ "type": "Feature", "properties": { "編號": "202", "漁港名稱": "青山漁港", "分類": "第二類", "縣市": "67000", "經度": "120.085764", "緯度": "23.189020", "電話": "(06)3901458" }, "geometry": { "type": "Point", "coordinates": [ 120.085764, 23.18902 ] } },
{ "type": "Feature", "properties": { "編號": "203", "漁港名稱": "鹽寮漁港", "分類": "第二類", "縣市": "10015", "經度": "121.569761", "緯度": "23.781088", "電話": "(03)8230243" }, "geometry": { "type": "Point", "coordinates": [ 121.569761, 23.781088 ] } },
{ "type": "Feature", "properties": { "編號": "204", "漁港名稱": "長濱漁港", "分類": "第二類", "縣市": "10014", "經度": "121.456804", "緯度": "23.313087", "電話": "(089)343209" }, "geometry": { "type": "Point", "coordinates": [ 121.456804, 23.313087 ] } },
{ "type": "Feature", "properties": { "編號": "205", "漁港名稱": "石雨傘漁港", "分類": "廢止", "縣市": "10014", "經度": "121.402620", "緯度": "23.176485", "電話": "" }, "geometry": { "type": "Point", "coordinates": [ 121.40262, 23.176485 ] } },
{ "type": "Feature", "properties": { "編號": "206", "漁港名稱": "新蘭漁港", "分類": "第二類", "縣市": "10014", "經度": "121.209694", "緯度": "22.864497", "電話": "(089)343209" }, "geometry": { "type": "Point", "coordinates": [ 121.209694, 22.864497 ] } },
{ "type": "Feature", "properties": { "編號": "207", "漁港名稱": "漁人漁港", "分類": "廢止", "縣市": "10014", "經度": "121.542661", "緯度": "22.025456", "電話": "" }, "geometry": { "type": "Point", "coordinates": [ 121.542661, 22.025456 ] } },
{ "type": "Feature", "properties": { "編號": "208", "漁港名稱": "朗島漁港", "分類": "第二類", "縣市": "10014", "經度": "121.530561", "緯度": "22.079168", "電話": "(089)343209" }, "geometry": { "type": "Point", "coordinates": [ 121.530561, 22.079168 ] } },
{ "type": "Feature", "properties": { "編號": "209", "漁港名稱": "綠島漁港", "分類": "第二類", "縣市": "10014", "經度": "121.475538", "緯度": "22.659189", "電話": "(089)343209" }, "geometry": { "type": "Point", "coordinates": [ 121.475538, 22.659189 ] } },
{ "type": "Feature", "properties": { "編號": "210", "漁港名稱": "中寮漁港", "分類": "第二類", "縣市": "10014", "經度": "121.473367", "緯度": "22.676756", "電話": "(089)343209" }, "geometry": { "type": "Point", "coordinates": [ 121.473367, 22.676756 ] } },
{ "type": "Feature", "properties": { "編號": "211", "漁港名稱": "公館漁港", "分類": "第二類", "縣市": "10014", "經度": "121.493654", "緯度": "22.676120", "電話": "(089)343209" }, "geometry": { "type": "Point", "coordinates": [ 121.493654, 22.67612 ] } },
{ "type": "Feature", "properties": { "編號": "212", "漁港名稱": "溫泉漁港", "分類": "第二類", "縣市": "10014", "經度": "121.500329", "緯度": "22.645752", "電話": "(089)343209" }, "geometry": { "type": "Point", "coordinates": [ 121.500329, 22.645752 ] } },
{ "type": "Feature", "properties": { "編號": "213", "漁港名稱": "杉福漁港", "分類": "第二類", "縣市": "10013", "經度": "120.362672", "緯度": "22.341094", "電話": "(08)73204157215" }, "geometry": { "type": "Point", "coordinates": [ 120.362672, 22.341094 ] } },
{ "type": "Feature", "properties": { "編號": "214", "漁港名稱": "小琉球漁港", "分類": "第二類", "縣市": "10013", "經度": "120.383357", "緯度": "22.353152", "電話": "(08)73204157215" }, "geometry": { "type": "Point", "coordinates": [ 120.383357, 22.353152 ] } },
{ "type": "Feature", "properties": { "編號": "215", "漁港名稱": "白砂崙漁港", "分類": "第二類", "縣市": "64000", "經度": "120.181339", "緯度": "22.914538", "電話": "(07)79956781841" }, "geometry": { "type": "Point", "coordinates": [ 120.181339, 22.914538 ] } },
{ "type": "Feature", "properties": { "編號": "216", "漁港名稱": "紅羅漁港", "分類": "第二類", "縣市": "10016", "經度": "119.640682", "緯度": "23.598091", "電話": "(06)9264048" }, "geometry": { "type": "Point", "coordinates": [ 119.640682, 23.598091 ] } },
{ "type": "Feature", "properties": { "編號": "217", "漁港名稱": "西溪漁港", "分類": "第二類", "縣市": "10016", "經度": "119.632689", "緯度": "23.593439", "電話": "(06)9264048" }, "geometry": { "type": "Point", "coordinates": [ 119.632689, 23.593439 ] } },
{ "type": "Feature", "properties": { "編號": "218", "漁港名稱": "成功漁港", "分類": "第二類", "縣市": "10016", "經度": "119.626279", "緯度": "23.583362", "電話": "(06)9264048" }, "geometry": { "type": "Point", "coordinates": [ 119.626279, 23.583362 ] } },
{ "type": "Feature", "properties": { "編號": "219", "漁港名稱": "安宅漁港", "分類": "第二類", "縣市": "10016", "經度": "119.598212", "緯度": "23.577345", "電話": "(06)9264048" }, "geometry": { "type": "Point", "coordinates": [ 119.598212, 23.577345 ] } },
{ "type": "Feature", "properties": { "編號": "220", "漁港名稱": "鐵線漁港", "分類": "第二類", "縣市": "10016", "經度": "119.596699", "緯度": "23.533033", "電話": "(06)9264048" }, "geometry": { "type": "Point", "coordinates": [ 119.596699, 23.533033 ] } },
{ "type": "Feature", "properties": { "編號": "221", "漁港名稱": "五德漁港", "分類": "第二類", "縣市": "10016", "經度": "119.587922", "緯度": "23.530966", "電話": "(06)9264048" }, "geometry": { "type": "Point", "coordinates": [ 119.587922, 23.530966 ] } },
{ "type": "Feature", "properties": { "編號": "222", "漁港名稱": "井垵漁港", "分類": "第二類", "縣市": "10016", "經度": "119.579117", "緯度": "23.523609", "電話": "(06)9264048" }, "geometry": { "type": "Point", "coordinates": [ 119.579117, 23.523609 ] } },
{ "type": "Feature", "properties": { "編號": "223", "漁港名稱": "池西漁港", "分類": "第二類", "縣市": "10016", "經度": "119.503281", "緯度": "23.600048", "電話": "(06)9264048" }, "geometry": { "type": "Point", "coordinates": [ 119.503281, 23.600048 ] } },
{ "type": "Feature", "properties": { "編號": "224", "漁港名稱": "鎮海漁港", "分類": "第二類", "縣市": "10016", "經度": "119.601210", "緯度": "23.636491", "電話": "(06)9264048" }, "geometry": { "type": "Point", "coordinates": [ 119.60121, 23.636491 ] } },
{ "type": "Feature", "properties": { "編號": "225", "漁港名稱": "水垵漁港", "分類": "第二類", "縣市": "10016", "經度": "119.495909", "緯度": "23.387453", "電話": "(06)9264048" }, "geometry": { "type": "Point", "coordinates": [ 119.495909, 23.387453 ] } },
{ "type": "Feature", "properties": { "編號": "226", "漁港名稱": "將軍北漁港", "分類": "第二類", "縣市": "10016", "經度": "119.527011", "緯度": "23.368956", "電話": "(06)9264048" }, "geometry": { "type": "Point", "coordinates": [ 119.527011, 23.368956 ] } },
{ "type": "Feature", "properties": { "編號": "227", "漁港名稱": "花蓮漁港", "分類": "第二類", "縣市": "10015", "經度": "121.637547", "緯度": "23.999778", "電話": "(03)8230243" }, "geometry": { "type": "Point", "coordinates": [ 121.637547, 23.999778 ] } },
{ "type": "Feature", "properties": { "編號": "228", "漁港名稱": "羅厝漁港", "分類": "第二類", "縣市": "09020", "經度": "118.259636", "緯度": "24.423677", "電話": "(082)325099" }, "geometry": { "type": "Point", "coordinates": [ 118.259636, 24.423677 ] } },
{ "type": "Feature", "properties": { "編號": "229", "漁港名稱": "新湖漁港", "分類": "第二類", "縣市": "09020", "經度": "118.409668", "緯度": "24.431740", "電話": "(082)325099" }, "geometry": { "type": "Point", "coordinates": [ 118.409668, 24.43174 ] } },
{ "type": "Feature", "properties": { "編號": "230", "漁港名稱": "復國墩漁港", "分類": "第二類", "縣市": "09020", "經度": "118.471809", "緯度": "24.445417", "電話": "(082)325099" }, "geometry": { "type": "Point", "coordinates": [ 118.471809, 24.445417 ] } },
{ "type": "Feature", "properties": { "編號": "231", "漁港名稱": "福澳漁港", "分類": "第二類", "縣市": "09007", "經度": "119.940628", "緯度": "26.158163", "電話": "(0836)22347" }, "geometry": { "type": "Point", "coordinates": [ 119.940628, 26.158163 ] } },
{ "type": "Feature", "properties": { "編號": "232", "漁港名稱": "白沙漁港", "分類": "第二類", "縣市": "09007", "經度": "119.968987", "緯度": "26.205717", "電話": "(0836)22347" }, "geometry": { "type": "Point", "coordinates": [ 119.968987, 26.205717 ] } },
{ "type": "Feature", "properties": { "編號": "233", "漁港名稱": "青蕃漁港", "分類": "第二類", "縣市": "09007", "經度": "119.933762", "緯度": "25.969549", "電話": "(0836)22347" }, "geometry": { "type": "Point", "coordinates": [ 119.933762, 25.969549 ] } },
{ "type": "Feature", "properties": { "編號": "234", "漁港名稱": "猛澳漁港", "分類": "第二類", "縣市": "09007", "經度": "119.964302", "緯度": "25.958191", "電話": "(0836)22347" }, "geometry": { "type": "Point", "coordinates": [ 119.964302, 25.958191 ] } },
{ "type": "Feature", "properties": { "編號": "235", "漁港名稱": "中柱漁港", "分類": "第二類", "縣市": "09007", "經度": "120.486382", "緯度": "26.365314", "電話": "(0836)22347" }, "geometry": { "type": "Point", "coordinates": [ 120.486382, 26.365314 ] } },
{ "type": "Feature", "properties": { "編號": "236", "漁港名稱": "桂安漁港", "分類": "廢止", "縣市": "65000", "經度": "122.005266", "緯度": "25.008189", "電話": "" }, "geometry": { "type": "Point", "coordinates": [ 122.005266, 25.008189 ] } },
{ "type": "Feature", "properties": { "編號": "237", "漁港名稱": "鶯歌石漁港", "分類": "廢止", "縣市": "65000", "經度": "121.962107", "緯度": "25.021884", "電話": "" }, "geometry": { "type": "Point", "coordinates": [ 121.962107, 25.021884 ] } },
{ "type": "Feature", "properties": { "編號": "238", "漁港名稱": "西嶼坪漁港", "分類": "廢止", "縣市": "10016", "經度": "119.509496", "緯度": "23.266959", "電話": "" }, "geometry": { "type": "Point", "coordinates": [ 119.509496, 23.266959 ] } },
{ "type": "Feature", "properties": { "編號": "239", "漁港名稱": "香蘭漁港", "分類": "廢止", "縣市": "65000", "經度": "121.972211", "緯度": "25.025489", "電話": "" }, "geometry": { "type": "Point", "coordinates": [ 121.972211, 25.025489 ] } },
{ "type": "Feature", "properties": { "編號": "72", "漁港名稱": "王功漁港", "分類": "第二類", "縣市": "10007", "經度": "120.324515", "緯度": "23.968832", "電話": "(04)7531682" }, "geometry": { "type": "Point", "coordinates": [ 120.324515, 23.968832 ] } },
{ "type": "Feature", "properties": { "編號": "73", "漁港名稱": "三條崙漁港", "分類": "第二類", "縣市": "10009", "經度": "120.149299", "緯度": "23.657056", "電話": "(05)5522262" }, "geometry": { "type": "Point", "coordinates": [ 120.149299, 23.657056 ] } },
{ "type": "Feature", "properties": { "編號": "74", "漁港名稱": "箔子寮漁港", "分類": "第二類", "縣市": "10009", "經度": "120.136345", "緯度": "23.618991", "電話": "(05)5522262" }, "geometry": { "type": "Point", "coordinates": [ 120.136345, 23.618991 ] } },
{ "type": "Feature", "properties": { "編號": "75", "漁港名稱": "麗水漁港", "分類": "第二類", "縣市": "66000", "經度": "120.496458", "緯度": "24.199332", "電話": "(04)26581940" }, "geometry": { "type": "Point", "coordinates": [ 120.496458, 24.199332 ] } },
{ "type": "Feature", "properties": { "編號": "76", "漁港名稱": "通霄漁港", "分類": "第二類", "縣市": "10005", "經度": "120.673345", "緯度": "24.496950", "電話": "(03)33221015454" }, "geometry": { "type": "Point", "coordinates": [ 120.673345, 24.49695 ] } },
{ "type": "Feature", "properties": { "編號": "77", "漁港名稱": "苑裡漁港", "分類": "第二類", "縣市": "10005", "經度": "120.632700", "緯度": "24.446326", "電話": "(03)33221015454" }, "geometry": { "type": "Point", "coordinates": [ 120.6327, 24.446326 ] } },
{ "type": "Feature", "properties": { "編號": "78", "漁港名稱": "大武漁港", "分類": "第二類", "縣市": "10014", "經度": "120.894355", "緯度": "22.339337", "電話": "(089)343209" }, "geometry": { "type": "Point", "coordinates": [ 120.894355, 22.339337 ] } },
{ "type": "Feature", "properties": { "編號": "79", "漁港名稱": "小港漁港", "分類": "第二類", "縣市": "10014", "經度": "121.403720", "緯度": "23.157765", "電話": "(089)343209" }, "geometry": { "type": "Point", "coordinates": [ 121.40372, 23.157765 ] } },
{ "type": "Feature", "properties": { "編號": "80", "漁港名稱": "金樽漁港", "分類": "第二類", "縣市": "10014", "經度": "121.292342", "緯度": "22.954391", "電話": "(089)343209" }, "geometry": { "type": "Point", "coordinates": [ 121.292342, 22.954391 ] } },
{ "type": "Feature", "properties": { "編號": "81", "漁港名稱": "烏石鼻漁港", "分類": "第二類", "縣市": "10014", "經度": "121.417625", "緯度": "23.227895", "電話": "(089)343209" }, "geometry": { "type": "Point", "coordinates": [ 121.417625, 23.227895 ] } },
{ "type": "Feature", "properties": { "編號": "82", "漁港名稱": "開元漁港", "分類": "第二類", "縣市": "10014", "經度": "121.508058", "緯度": "22.058285", "電話": "(089)343209" }, "geometry": { "type": "Point", "coordinates": [ 121.508058, 22.058285 ] } },
{ "type": "Feature", "properties": { "編號": "83", "漁港名稱": "新港漁港", "分類": "第二類", "縣市": "10014", "經度": "121.378945", "緯度": "23.096712", "電話": "(089)343209" }, "geometry": { "type": "Point", "coordinates": [ 121.378945, 23.096712 ] } },
{ "type": "Feature", "properties": { "編號": "84", "漁港名稱": "伽藍漁港", "分類": "第二類", "縣市": "10014", "經度": "121.193279", "緯度": "22.791279", "電話": "(089)343209" }, "geometry": { "type": "Point", "coordinates": [ 121.193279, 22.791279 ] } },
{ "type": "Feature", "properties": { "編號": "85", "漁港名稱": "石梯漁港", "分類": "第二類", "縣市": "10015", "經度": "121.505695", "緯度": "23.495225", "電話": "(03)8230243" }, "geometry": { "type": "Point", "coordinates": [ 121.505695, 23.495225 ] } },
{ "type": "Feature", "properties": { "編號": "86", "漁港名稱": "布袋漁港", "分類": "第二類", "縣市": "10010", "經度": "120.157130", "緯度": "23.387616", "電話": "(05)3620123" }, "geometry": { "type": "Point", "coordinates": [ 120.15713, 23.387616 ] } },
{ "type": "Feature", "properties": { "編號": "87", "漁港名稱": "好美里漁港", "分類": "第二類", "縣市": "10010", "經度": "120.125414", "緯度": "23.341429", "電話": "(05)3620123" }, "geometry": { "type": "Point", "coordinates": [ 120.125414, 23.341429 ] } },
{ "type": "Feature", "properties": { "編號": "88", "漁港名稱": "北門漁港", "分類": "第二類", "縣市": "67000", "經度": "120.095367", "緯度": "23.234198", "電話": "(06)3901458" }, "geometry": { "type": "Point", "coordinates": [ 120.095367, 23.234198 ] } },
{ "type": "Feature", "properties": { "編號": "89", "漁港名稱": "中芸漁港", "分類": "第二類", "縣市": "64000", "經度": "120.400163", "緯度": "22.483477", "電話": "(07)79956781841" }, "geometry": { "type": "Point", "coordinates": [ 120.400163, 22.483477 ] } },
{ "type": "Feature", "properties": { "編號": "90", "漁港名稱": "枋寮漁港", "分類": "第二類", "縣市": "10013", "經度": "120.592597", "緯度": "22.362801", "電話": "(08)73204157215" }, "geometry": { "type": "Point", "coordinates": [ 120.592597, 22.362801 ] } },
{ "type": "Feature", "properties": { "編號": "91", "漁港名稱": "後壁湖漁港", "分類": "第二類", "縣市": "10013", "經度": "120.744490", "緯度": "21.944761", "電話": "(08)73204157215" }, "geometry": { "type": "Point", "coordinates": [ 120.74449, 21.944761 ] } },
{ "type": "Feature", "properties": { "編號": "92", "漁港名稱": "土地公漁港", "分類": "廢止", "縣市": "10016", "經度": "119.489604", "緯度": "23.359531", "電話": "" }, "geometry": { "type": "Point", "coordinates": [ 119.489604, 23.359531 ] } },
{ "type": "Feature", "properties": { "編號": "93", "漁港名稱": "大池漁港", "分類": "第二類", "縣市": "10016", "經度": "119.504358", "緯度": "23.616686", "電話": "(06)9264048" }, "geometry": { "type": "Point", "coordinates": [ 119.504358, 23.616686 ] } },
{ "type": "Feature", "properties": { "編號": "94", "漁港名稱": "大倉漁港", "分類": "第二類", "縣市": "10016", "經度": "119.568843", "緯度": "23.617054", "電話": "(06)9264048" }, "geometry": { "type": "Point", "coordinates": [ 119.568843, 23.617054 ] } },
{ "type": "Feature", "properties": { "編號": "95", "漁港名稱": "小門漁港", "分類": "第二類", "縣市": "10016", "經度": "119.518733", "緯度": "23.649426", "電話": "(06)9264048" }, "geometry": { "type": "Point", "coordinates": [ 119.518733, 23.649426 ] } },
{ "type": "Feature", "properties": { "編號": "96", "漁港名稱": "中社漁港", "分類": "第二類", "縣市": "10016", "經度": "119.494523", "緯度": "23.373126", "電話": "(06)9264048" }, "geometry": { "type": "Point", "coordinates": [ 119.494523, 23.373126 ] } },
{ "type": "Feature", "properties": { "編號": "97", "漁港名稱": "內垵北漁港", "分類": "第二類", "縣市": "10016", "經度": "119.500207", "緯度": "23.575188", "電話": "(06)9264048" }, "geometry": { "type": "Point", "coordinates": [ 119.500207, 23.575188 ] } },
{ "type": "Feature", "properties": { "編號": "98", "漁港名稱": "內垵南漁港", "分類": "第二類", "縣市": "10016", "經度": "119.500749", "緯度": "23.566303", "電話": "(06)9264048" }, "geometry": { "type": "Point", "coordinates": [ 119.500749, 23.566303 ] } },
{ "type": "Feature", "properties": { "編號": "99", "漁港名稱": "水垵北漁港", "分類": "第二類", "縣市": "10016", "經度": "119.501506", "緯度": "23.389664", "電話": "(06)9264048" }, "geometry": { "type": "Point", "coordinates": [ 119.501506, 23.389664 ] } },
{ "type": "Feature", "properties": { "編號": "100", "漁港名稱": "外垵漁港", "分類": "第二類", "縣市": "10016", "經度": "119.480151", "緯度": "23.563358", "電話": "(06)9264048" }, "geometry": { "type": "Point", "coordinates": [ 119.480151, 23.563358 ] } },
{ "type": "Feature", "properties": { "編號": "101", "漁港名稱": "瓦峒漁港", "分類": "第二類", "縣市": "10016", "經度": "119.580272", "緯度": "23.657090", "電話": "(06)9264048" }, "geometry": { "type": "Point", "coordinates": [ 119.580272, 23.65709 ] } },
{ "type": "Feature", "properties": { "編號": "102", "漁港名稱": "石泉漁港", "分類": "第二類", "縣市": "10016", "經度": "119.590444", "緯度": "23.551508", "電話": "(06)9264048" }, "geometry": { "type": "Point", "coordinates": [ 119.590444, 23.551508 ] } },
{ "type": "Feature", "properties": { "編號": "103", "漁港名稱": "吉貝漁港", "分類": "第二類", "縣市": "10016", "經度": "119.613159", "緯度": "23.739588", "電話": "(06)9264048" }, "geometry": { "type": "Point", "coordinates": [ 119.613159, 23.739588 ] } },
{ "type": "Feature", "properties": { "編號": "104", "漁港名稱": "合界漁港", "分類": "第二類", "縣市": "10016", "經度": "119.531352", "緯度": "23.639473", "電話": "(06)9264048" }, "geometry": { "type": "Point", "coordinates": [ 119.531352, 23.639473 ] } },
{ "type": "Feature", "properties": { "編號": "105", "漁港名稱": "尖山漁港", "分類": "第二類", "縣市": "10016", "經度": "119.667916", "緯度": "23.561649", "電話": "(06)9264048" }, "geometry": { "type": "Point", "coordinates": [ 119.667916, 23.561649 ] } },
{ "type": "Feature", "properties": { "編號": "106", "漁港名稱": "竹灣漁港", "分類": "第二類", "縣市": "10016", "經度": "119.523512", "緯度": "23.629880", "電話": "(06)9264048" }, "geometry": { "type": "Point", "coordinates": [ 119.523512, 23.62988 ] } },
{ "type": "Feature", "properties": { "編號": "107", "漁港名稱": "西衛漁港", "分類": "第二類", "縣市": "10016", "經度": "119.584241", "緯度": "23.580735", "電話": "(06)9264048" }, "geometry": { "type": "Point", "coordinates": [ 119.584241, 23.580735 ] } },
{ "type": "Feature", "properties": { "編號": "108", "漁港名稱": "沙港中漁港", "分類": "第二類", "縣市": "10016", "經度": "119.625930", "緯度": "23.607689", "電話": "(06)9264048" }, "geometry": { "type": "Point", "coordinates": [ 119.62593, 23.607689 ] } },
{ "type": "Feature", "properties": { "編號": "109", "漁港名稱": "沙港東漁港", "分類": "第二類", "縣市": "10016", "經度": "119.631023", "緯度": "23.604130", "電話": "(06)9264048" }, "geometry": { "type": "Point", "coordinates": [ 119.631023, 23.60413 ] } },
{ "type": "Feature", "properties": { "編號": "110", "漁港名稱": "赤崁漁港", "分類": "第二類", "縣市": "10016", "經度": "119.603589", "緯度": "23.665415", "電話": "(06)9264048" }, "geometry": { "type": "Point", "coordinates": [ 119.603589, 23.665415 ] } },
{ "type": "Feature", "properties": { "編號": "111", "漁港名稱": "赤馬漁港", "分類": "第二類", "縣市": "10016", "經度": "119.512599", "緯度": "23.581310", "電話": "(06)9264048" }, "geometry": { "type": "Point", "coordinates": [ 119.512599, 23.58131 ] } },
{ "type": "Feature", "properties": { "編號": "112", "漁港名稱": "東吉漁港", "分類": "第二類", "縣市": "10016", "經度": "119.666465", "緯度": "23.255777", "電話": "(06)9264048" }, "geometry": { "type": "Point", "coordinates": [ 119.666465, 23.255777 ] } },
{ "type": "Feature", "properties": { "編號": "113", "漁港名稱": "東嶼漁港", "分類": "第二類", "縣市": "10016", "經度": "119.509820", "緯度": "23.256355", "電話": "(06)9264048" }, "geometry": { "type": "Point", "coordinates": [ 119.50982, 23.256355 ] } },
{ "type": "Feature", "properties": { "編號": "114", "漁港名稱": "果葉漁港", "分類": "第二類", "縣市": "10016", "經度": "119.681398", "緯度": "23.577371", "電話": "(06)9264048" }, "geometry": { "type": "Point", "coordinates": [ 119.681398, 23.577371 ] } },
{ "type": "Feature", "properties": { "編號": "115", "漁港名稱": "花嶼漁港", "分類": "第二類", "縣市": "10016", "經度": "119.324444", "緯度": "23.396778", "電話": "(06)9264048" }, "geometry": { "type": "Point", "coordinates": [ 119.324444, 23.396778 ] } },
{ "type": "Feature", "properties": { "編號": "116", "漁港名稱": "虎井漁港", "分類": "第二類", "縣市": "10016", "經度": "119.516888", "緯度": "23.487246", "電話": "(06)9264048" }, "geometry": { "type": "Point", "coordinates": [ 119.516888, 23.487246 ] } },
{ "type": "Feature", "properties": { "編號": "117", "漁港名稱": "青螺漁港", "分類": "第二類", "縣市": "10016", "經度": "119.647399", "緯度": "23.602476", "電話": "(06)9264048" }, "geometry": { "type": "Point", "coordinates": [ 119.647399, 23.602476 ] } },
{ "type": "Feature", "properties": { "編號": "118", "漁港名稱": "前寮漁港", "分類": "第二類", "縣市": "10016", "經度": "119.587900", "緯度": "23.551205", "電話": "(06)9264048" }, "geometry": { "type": "Point", "coordinates": [ 119.5879, 23.551205 ] } },
{ "type": "Feature", "properties": { "編號": "119", "漁港名稱": "南北寮漁港", "分類": "第二類", "縣市": "10016", "經度": "119.669005", "緯度": "23.597357", "電話": "(06)9264048" }, "geometry": { "type": "Point", "coordinates": [ 119.669005, 23.597357 ] } },
{ "type": "Feature", "properties": { "編號": "120", "漁港名稱": "七美漁港", "分類": "第二類", "縣市": "10016", "經度": "119.420167", "緯度": "23.194359", "電話": "(06)9264048" }, "geometry": { "type": "Point", "coordinates": [ 119.420167, 23.194359 ] } },
{ "type": "Feature", "properties": { "編號": "121", "漁港名稱": "後寮漁港", "分類": "第二類", "縣市": "10016", "經度": "119.569177", "緯度": "23.671717", "電話": "(06)9264048" }, "geometry": { "type": "Point", "coordinates": [ 119.569177, 23.671717 ] } },
{ "type": "Feature", "properties": { "編號": "122", "漁港名稱": "風櫃西漁港", "分類": "第二類", "縣市": "10016", "經度": "119.540893", "緯度": "23.543826", "電話": "(06)9264048" }, "geometry": { "type": "Point", "coordinates": [ 119.540893, 23.543826 ] } },
{ "type": "Feature", "properties": { "編號": "123", "漁港名稱": "風櫃東漁港", "分類": "第二類", "縣市": "10016", "經度": "119.550755", "緯度": "23.542526", "電話": "(06)9264048" }, "geometry": { "type": "Point", "coordinates": [ 119.550755, 23.542526 ] } },
{ "type": "Feature", "properties": { "編號": "124", "漁港名稱": "員貝漁港", "分類": "第二類", "縣市": "10016", "經度": "119.629544", "緯度": "23.646580", "電話": "(06)9264048" }, "geometry": { "type": "Point", "coordinates": [ 119.629544, 23.64658 ] } },
{ "type": "Feature", "properties": { "編號": "125", "漁港名稱": "蒔裡漁港", "分類": "第二類", "縣市": "10016", "經度": "119.572043", "緯度": "23.528688", "電話": "(06)9264048" }, "geometry": { "type": "Point", "coordinates": [ 119.572043, 23.528688 ] } },
{ "type": "Feature", "properties": { "編號": "126", "漁港名稱": "案山漁港", "分類": "第二類", "縣市": "10016", "經度": "119.572814", "緯度": "23.558793", "電話": "(06)9264048" }, "geometry": { "type": "Point", "coordinates": [ 119.572814, 23.558793 ] } },
{ "type": "Feature", "properties": { "編號": "127", "漁港名稱": "馬公漁港", "分類": "第二類", "縣市": "10016", "經度": "119.574287", "緯度": "23.565948", "電話": "(06)9264048" }, "geometry": { "type": "Point", "coordinates": [ 119.574287, 23.565948 ] } },
{ "type": "Feature", "properties": { "編號": "128", "漁港名稱": "將軍南漁港", "分類": "第二類", "縣市": "10016", "經度": "119.520673", "緯度": "23.362476", "電話": "(06)9264048" }, "geometry": { "type": "Point", "coordinates": [ 119.520673, 23.362476 ] } },
{ "type": "Feature", "properties": { "編號": "129", "漁港名稱": "桶盤漁港", "分類": "第二類", "縣市": "10016", "經度": "119.518984", "緯度": "23.513479", "電話": "(06)9264048" }, "geometry": { "type": "Point", "coordinates": [ 119.518984, 23.513479 ] } },
{ "type": "Feature", "properties": { "編號": "130", "漁港名稱": "通樑漁港", "分類": "第二類", "縣市": "10016", "經度": "119.555885", "緯度": "23.655964", "電話": "(06)9264048" }, "geometry": { "type": "Point", "coordinates": [ 119.555885, 23.655964 ] } },
{ "type": "Feature", "properties": { "編號": "131", "漁港名稱": "烏崁漁港", "分類": "第二類", "縣市": "10016", "經度": "119.624457", "緯度": "23.543812", "電話": "(06)9264048" }, "geometry": { "type": "Point", "coordinates": [ 119.624457, 23.543812 ] } },
{ "type": "Feature", "properties": { "編號": "132", "漁港名稱": "鳥嶼漁港", "分類": "第二類", "縣市": "10016", "經度": "119.659081", "緯度": "23.658662", "電話": "(06)9264048" }, "geometry": { "type": "Point", "coordinates": [ 119.659081, 23.658662 ] } },
{ "type": "Feature", "properties": { "編號": "133", "漁港名稱": "港子漁港", "分類": "第二類", "縣市": "10016", "經度": "119.601880", "緯度": "23.648217", "電話": "(06)9264048" }, "geometry": { "type": "Point", "coordinates": [ 119.60188, 23.648217 ] } },
{ "type": "Feature", "properties": { "編號": "134", "漁港名稱": "白坑漁港", "分類": "第二類", "縣市": "10016", "經度": "119.661572", "緯度": "23.594788", "電話": "(06)9264048" }, "geometry": { "type": "Point", "coordinates": [ 119.661572, 23.594788 ] } },
{ "type": "Feature", "properties": { "編號": "135", "漁港名稱": "菜園漁港", "分類": "第二類", "縣市": "10016", "經度": "119.595075", "緯度": "23.548723", "電話": "(06)9264048" }, "geometry": { "type": "Point", "coordinates": [ 119.595075, 23.548723 ] } },
{ "type": "Feature", "properties": { "編號": "136", "漁港名稱": "潭子漁港", "分類": "第二類", "縣市": "10016", "經度": "119.412704", "緯度": "23.216262", "電話": "(06)9264048" }, "geometry": { "type": "Point", "coordinates": [ 119.412704, 23.216262 ] } },
{ "type": "Feature", "properties": { "編號": "137", "漁港名稱": "潭門漁港", "分類": "第二類", "縣市": "10016", "經度": "119.507842", "緯度": "23.362989", "電話": "(06)9264048" }, "geometry": { "type": "Point", "coordinates": [ 119.507842, 23.362989 ] } },
{ "type": "Feature", "properties": { "編號": "138", "漁港名稱": "橫礁漁港", "分類": "第二類", "縣市": "10016", "經度": "119.537800", "緯度": "23.633591", "電話": "(06)9264048" }, "geometry": { "type": "Point", "coordinates": [ 119.5378, 23.633591 ] } },
{ "type": "Feature", "properties": { "編號": "139", "漁港名稱": "龍門漁港", "分類": "第二類", "縣市": "10016", "經度": "119.673555", "緯度": "23.559399", "電話": "(06)9264048" }, "geometry": { "type": "Point", "coordinates": [ 119.673555, 23.559399 ] } },
{ "type": "Feature", "properties": { "編號": "140", "漁港名稱": "鎖港漁港", "分類": "第二類", "縣市": "10016", "經度": "119.608200", "緯度": "23.525153", "電話": "(06)9264048" }, "geometry": { "type": "Point", "coordinates": [ 119.6082, 23.525153 ] } },
{ "type": "Feature", "properties": { "編號": "141", "漁港名稱": "西嶼漁港", "分類": "第二類", "縣市": "10016", "經度": "119.508516", "緯度": "23.267171", "電話": "(06)9264048" }, "geometry": { "type": "Point", "coordinates": [ 119.508516, 23.267171 ] } }
]
}
