{"type":"FeatureCollection","name":"dioxin_stations","features":[{"type":"Feature","geometry":{"type":"Point","coordinates":[121.760056,25.129168]},"properties":{"station_id":"1","station_name":"基隆站","county":"基隆市","sample_address":"基隆女中","latest_sample_date":"2011-05-09","latest_teq_pg_m3":0.0126761,"latest_flag":null,"unit":"pg I-TEQ/m3","n_samples":15,"first_sample_date":"2007-05-14","is_stale":true,"location_source":"same_siteid_air_station","location_note":"座標為同編號同名空氣品質監測站座標；戴奧辛實際採樣點（sampleaddress）是否與其同址未驗證","sampling_note":"戴奧辛為定期採樣（約每半年 1–2 次，早年每年 4 次），非即時；單位 pg I-TEQ/m3"}},{"type":"Feature","geometry":{"type":"Point","coordinates":[121.64081,25.06624]},"properties":{"station_id":"2","station_name":"汐止站","county":"新北市","sample_address":"忠厚市場","latest_sample_date":"2025-10-07","latest_teq_pg_m3":0.0063582,"latest_flag":null,"unit":"pg I-TEQ/m3","n_samples":59,"first_sample_date":"2007-05-14","is_stale":false,"location_source":"same_siteid_air_station","location_note":"座標為同編號同名空氣品質監測站座標；戴奧辛實際採樣點（sampleaddress）是否與其同址未驗證","sampling_note":"戴奧辛為定期採樣（約每半年 1–2 次，早年每年 4 次），非即時；單位 pg I-TEQ/m3"}},{"type":"Feature","geometry":{"type":"Point","coordinates":[121.57861,25.05]},"properties":{"station_id":"15","station_name":"松山站","county":"臺北市","sample_address":"松山國小","latest_sample_date":"2025-10-13","latest_teq_pg_m3":0.0052383,"latest_flag":null,"unit":"pg I-TEQ/m3","n_samples":69,"first_sample_date":"2007-04-17","is_stale":false,"location_source":"same_siteid_air_station","location_note":"座標為同編號同名空氣品質監測站座標；戴奧辛實際採樣點（sampleaddress）是否與其同址未驗證","sampling_note":"戴奧辛為定期採樣（約每半年 1–2 次，早年每年 4 次），非即時；單位 pg I-TEQ/m3"}},{"type":"Feature","geometry":{"type":"Point","coordinates":[121.51342,25.063314]},"properties":{"station_id":"16","station_name":"大同站","county":"臺北市","sample_address":"重慶北路與民權西路交叉口","latest_sample_date":"2015-10-05","latest_teq_pg_m3":0.0066892,"latest_flag":null,"unit":"pg I-TEQ/m3","n_samples":4,"first_sample_date":"2015-02-03","is_stale":true,"location_source":"same_siteid_air_station","location_note":"座標為同編號同名空氣品質監測站座標；戴奧辛實際採樣點（sampleaddress）是否與其同址未驗證","sampling_note":"戴奧辛為定期採樣（約每半年 1–2 次，早年每年 4 次），非即時；單位 pg I-TEQ/m3"}},{"type":"Feature","geometry":{"type":"Point","coordinates":[121.30501,24.99471]},"properties":{"station_id":"17","station_name":"桃園站","county":"桃園縣","sample_address":"西門國小","latest_sample_date":"2025-10-13","latest_teq_pg_m3":0.0132251,"latest_flag":null,"unit":"pg I-TEQ/m3","n_samples":59,"first_sample_date":"2007-05-14","is_stale":false,"location_source":"same_siteid_air_station","location_note":"座標為同編號同名空氣品質監測站座標；戴奧辛實際採樣點（sampleaddress）是否與其同址未驗證","sampling_note":"戴奧辛為定期採樣（約每半年 1–2 次，早年每年 4 次），非即時；單位 pg I-TEQ/m3"}},{"type":"Feature","geometry":{"type":"Point","coordinates":[121.03887,24.900097]},"properties":{"station_id":"22","station_name":"湖口站","county":"新竹縣","sample_address":"信勢國小","latest_sample_date":"2025-10-13","latest_teq_pg_m3":0.0237899,"latest_flag":null,"unit":"pg I-TEQ/m3","n_samples":59,"first_sample_date":"2007-05-21","is_stale":false,"location_source":"same_siteid_air_station","location_note":"座標為同編號同名空氣品質監測站座標；戴奧辛實際採樣點（sampleaddress）是否與其同址未驗證","sampling_note":"戴奧辛為定期採樣（約每半年 1–2 次，早年每年 4 次），非即時；單位 pg I-TEQ/m3"}},{"type":"Feature","geometry":{"type":"Point","coordinates":[120.97237,24.805635]},"properties":{"station_id":"24","station_name":"新竹站","county":"新竹市","sample_address":"東門國小","latest_sample_date":"2025-10-13","latest_teq_pg_m3":0.0199613,"latest_flag":null,"unit":"pg I-TEQ/m3","n_samples":61,"first_sample_date":"2007-05-21","is_stale":false,"location_source":"same_siteid_air_station","location_note":"座標為同編號同名空氣品質監測站座標；戴奧辛實際採樣點（sampleaddress）是否與其同址未驗證","sampling_note":"戴奧辛為定期採樣（約每半年 1–2 次，早年每年 4 次），非即時；單位 pg I-TEQ/m3"}},{"type":"Feature","geometry":{"type":"Point","coordinates":[120.820114,24.564991]},"properties":{"station_id":"26","station_name":"苗栗站","county":"苗栗縣","sample_address":"青年創業指揮部","latest_sample_date":"2025-10-20","latest_teq_pg_m3":0.002776,"latest_flag":null,"unit":"pg I-TEQ/m3","n_samples":61,"first_sample_date":"2007-05-21","is_stale":false,"location_source":"same_siteid_air_station","location_note":"座標為同編號同名空氣品質監測站座標；戴奧辛實際採樣點（sampleaddress）是否與其同址未驗證","sampling_note":"戴奧辛為定期採樣（約每半年 1–2 次，早年每年 4 次），非即時；單位 pg I-TEQ/m3"}},{"type":"Feature","geometry":{"type":"Point","coordinates":[120.678444,24.099611]},"properties":{"station_id":"30","station_name":"大里站","county":"臺中市","sample_address":"大里區公所","latest_sample_date":"2025-10-20","latest_teq_pg_m3":0.0034417,"latest_flag":null,"unit":"pg I-TEQ/m3","n_samples":69,"first_sample_date":"2007-04-17","is_stale":false,"location_source":"same_siteid_air_station","location_note":"座標為同編號同名空氣品質監測站座標；戴奧辛實際採樣點（sampleaddress）是否與其同址未驗證","sampling_note":"戴奧辛為定期採樣（約每半年 1–2 次，早年每年 4 次），非即時；單位 pg I-TEQ/m3"}},{"type":"Feature","geometry":{"type":"Point","coordinates":[120.64109,24.151958]},"properties":{"station_id":"31","station_name":"忠明站","county":"臺中市","sample_address":"忠明國小","latest_sample_date":"2011-05-16","latest_teq_pg_m3":0.018823,"latest_flag":null,"unit":"pg I-TEQ/m3","n_samples":15,"first_sample_date":"2007-05-21","is_stale":true,"location_source":"same_siteid_air_station","location_note":"座標為同編號同名空氣品質監測站座標；戴奧辛實際採樣點（sampleaddress）是否與其同址未驗證","sampling_note":"戴奧辛為定期採樣（約每半年 1–2 次，早年每年 4 次），非即時；單位 pg I-TEQ/m3"}},{"type":"Feature","geometry":{"type":"Point","coordinates":[120.61692,24.162197]},"properties":{"station_id":"32","station_name":"西屯站","county":"臺中市","sample_address":"啟聰學校","latest_sample_date":"2025-10-20","latest_teq_pg_m3":0.004274,"latest_flag":null,"unit":"pg I-TEQ/m3","n_samples":44,"first_sample_date":"2011-08-08","is_stale":false,"location_source":"same_siteid_air_station","location_note":"座標為同編號同名空氣品質監測站座標；戴奧辛實際採樣點（sampleaddress）是否與其同址未驗證","sampling_note":"戴奧辛為定期採樣（約每半年 1–2 次，早年每年 4 次），非即時；單位 pg I-TEQ/m3"}},{"type":"Feature","geometry":{"type":"Point","coordinates":[120.54152,24.066]},"properties":{"station_id":"33","station_name":"彰化站","county":"彰化縣","sample_address":"延平社區活動中心","latest_sample_date":"2025-10-20","latest_teq_pg_m3":0.0087599,"latest_flag":null,"unit":"pg I-TEQ/m3","n_samples":59,"first_sample_date":"2007-05-21","is_stale":false,"location_source":"same_siteid_air_station","location_note":"座標為同編號同名空氣品質監測站座標；戴奧辛實際採樣點（sampleaddress）是否與其同址未驗證","sampling_note":"戴奧辛為定期採樣（約每半年 1–2 次，早年每年 4 次），非即時；單位 pg I-TEQ/m3"}},{"type":"Feature","geometry":{"type":"Point","coordinates":[120.6853,23.913]},"properties":{"station_id":"36","station_name":"南投站","county":"南投縣","sample_address":"康壽國小","latest_sample_date":"2025-10-20","latest_teq_pg_m3":0.0034344,"latest_flag":null,"unit":"pg I-TEQ/m3","n_samples":59,"first_sample_date":"2007-05-21","is_stale":false,"location_source":"same_siteid_air_station","location_note":"座標為同編號同名空氣品質監測站座標；戴奧辛實際採樣點（sampleaddress）是否與其同址未驗證","sampling_note":"戴奧辛為定期採樣（約每半年 1–2 次，早年每年 4 次），非即時；單位 pg I-TEQ/m3"}},{"type":"Feature","geometry":{"type":"Point","coordinates":[120.34874,23.757547]},"properties":{"station_id":"38","station_name":"崙背站","county":"雲林縣","sample_address":"崙背國中","latest_sample_date":"2025-10-29","latest_teq_pg_m3":0.0341283,"latest_flag":null,"unit":"pg I-TEQ/m3","n_samples":61,"first_sample_date":"2007-05-21","is_stale":false,"location_source":"same_siteid_air_station","location_note":"座標為同編號同名空氣品質監測站座標；戴奧辛實際採樣點（sampleaddress）是否與其同址未驗證","sampling_note":"戴奧辛為定期採樣（約每半年 1–2 次，早年每年 4 次），非即時；單位 pg I-TEQ/m3"}},{"type":"Feature","geometry":{"type":"Point","coordinates":[120.34553,23.554838]},"properties":{"station_id":"39","station_name":"新港站","county":"嘉義縣","sample_address":"新港國小","latest_sample_date":"2025-10-29","latest_teq_pg_m3":0.0255898,"latest_flag":null,"unit":"pg I-TEQ/m3","n_samples":59,"first_sample_date":"2007-05-14","is_stale":false,"location_source":"same_siteid_air_station","location_note":"座標為同編號同名空氣品質監測站座標；戴奧辛實際採樣點（sampleaddress）是否與其同址未驗證","sampling_note":"戴奧辛為定期採樣（約每半年 1–2 次，早年每年 4 次），非即時；單位 pg I-TEQ/m3"}},{"type":"Feature","geometry":{"type":"Point","coordinates":[120.44125,23.464779]},"properties":{"station_id":"42","station_name":"嘉義站","county":"嘉義市","sample_address":"國立嘉義大學新民校區","latest_sample_date":"2025-10-29","latest_teq_pg_m3":0.0535852,"latest_flag":null,"unit":"pg I-TEQ/m3","n_samples":56,"first_sample_date":"2007-05-14","is_stale":false,"location_source":"same_siteid_air_station","location_note":"座標為同編號同名空氣品質監測站座標；戴奧辛實際採樣點（sampleaddress）是否與其同址未驗證","sampling_note":"戴奧辛為定期採樣（約每半年 1–2 次，早年每年 4 次），非即時；單位 pg I-TEQ/m3"}},{"type":"Feature","geometry":{"type":"Point","coordinates":[120.31725,23.305634]},"properties":{"station_id":"43","station_name":"新營站","county":"臺南市","sample_address":"新營國小","latest_sample_date":"2025-10-29","latest_teq_pg_m3":0.0290713,"latest_flag":null,"unit":"pg I-TEQ/m3","n_samples":59,"first_sample_date":"2007-05-14","is_stale":false,"location_source":"same_siteid_air_station","location_note":"座標為同編號同名空氣品質監測站座標；戴奧辛實際採樣點（sampleaddress）是否與其同址未驗證","sampling_note":"戴奧辛為定期採樣（約每半年 1–2 次，早年每年 4 次），非即時；單位 pg I-TEQ/m3"}},{"type":"Feature","geometry":{"type":"Point","coordinates":[120.2175,23.048197]},"properties":{"station_id":"45","station_name":"安南站","county":"臺南市","sample_address":"安順國小","latest_sample_date":"2025-10-29","latest_teq_pg_m3":0.0299267,"latest_flag":null,"unit":"pg I-TEQ/m3","n_samples":6,"first_sample_date":"2023-07-17","is_stale":false,"location_source":"same_siteid_air_station","location_note":"座標為同編號同名空氣品質監測站座標；戴奧辛實際採樣點（sampleaddress）是否與其同址未驗證","sampling_note":"戴奧辛為定期採樣（約每半年 1–2 次，早年每年 4 次），非即時；單位 pg I-TEQ/m3"}},{"type":"Feature","geometry":{"type":"Point","coordinates":[120.21948,22.989283]},"properties":{"station_id":"46","station_name":"臺南站","county":"臺南市","sample_address":"中山國中","latest_sample_date":"2022-08-12","latest_teq_pg_m3":0.0141142,"latest_flag":null,"unit":"pg I-TEQ/m3","n_samples":55,"first_sample_date":"2007-05-21","is_stale":true,"location_source":"same_siteid_air_station","location_note":"座標為同編號同名空氣品質監測站座標；戴奧辛實際採樣點（sampleaddress）是否與其同址未驗證","sampling_note":"戴奧辛為定期採樣（約每半年 1–2 次，早年每年 4 次），非即時；單位 pg I-TEQ/m3"}},{"type":"Feature","geometry":{"type":"Point","coordinates":[120.332634,22.689056]},"properties":{"station_id":"49","station_name":"仁武站","county":"高雄市","sample_address":"八卦國小","latest_sample_date":"2025-10-28","latest_teq_pg_m3":0.0157374,"latest_flag":null,"unit":"pg I-TEQ/m3","n_samples":59,"first_sample_date":"2007-05-21","is_stale":false,"location_source":"same_siteid_air_station","location_note":"座標為同編號同名空氣品質監測站座標；戴奧辛實際採樣點（sampleaddress）是否與其同址未驗證","sampling_note":"戴奧辛為定期採樣（約每半年 1–2 次，早年每年 4 次），非即時；單位 pg I-TEQ/m3"}},{"type":"Feature","geometry":{"type":"Point","coordinates":[120.35742,22.628126]},"properties":{"station_id":"50","station_name":"鳳山站","county":"高雄市","sample_address":"曹公國小","latest_sample_date":"2015-10-12","latest_teq_pg_m3":0.0308305976430976,"latest_flag":null,"unit":"pg I-TEQ/m3","n_samples":12,"first_sample_date":"2009-11-16","is_stale":true,"location_source":"same_siteid_air_station","location_note":"座標為同編號同名空氣品質監測站座標；戴奧辛實際採樣點（sampleaddress）是否與其同址未驗證","sampling_note":"戴奧辛為定期採樣（約每半年 1–2 次，早年每年 4 次），非即時；單位 pg I-TEQ/m3"}},{"type":"Feature","geometry":{"type":"Point","coordinates":[120.328285,22.733667]},"properties":{"station_id":"53","station_name":"楠梓站","county":"高雄市","sample_address":"楠梓國小","latest_sample_date":"2025-10-28","latest_teq_pg_m3":0.0128849,"latest_flag":null,"unit":"pg I-TEQ/m3","n_samples":69,"first_sample_date":"2007-04-18","is_stale":false,"location_source":"same_siteid_air_station","location_note":"座標為同編號同名空氣品質監測站座標；戴奧辛實際採樣點（sampleaddress）是否與其同址未驗證","sampling_note":"戴奧辛為定期採樣（約每半年 1–2 次，早年每年 4 次），非即時；單位 pg I-TEQ/m3"}},{"type":"Feature","geometry":{"type":"Point","coordinates":[120.308334,22.60445]},"properties":{"station_id":"57","station_name":"前鎮站","county":"高雄市","sample_address":"獅甲國中","latest_sample_date":"2015-10-09","latest_teq_pg_m3":0.0263666544834308,"latest_flag":null,"unit":"pg I-TEQ/m3","n_samples":12,"first_sample_date":"2013-02-26","is_stale":true,"location_source":"same_siteid_air_station","location_note":"座標為同編號同名空氣品質監測站座標；戴奧辛實際採樣點（sampleaddress）是否與其同址未驗證","sampling_note":"戴奧辛為定期採樣（約每半年 1–2 次，早年每年 4 次），非即時；單位 pg I-TEQ/m3"}},{"type":"Feature","geometry":{"type":"Point","coordinates":[120.48803,22.67308]},"properties":{"station_id":"59","station_name":"屏東站","county":"屏東縣","sample_address":"中正國小","latest_sample_date":"2025-10-28","latest_teq_pg_m3":0.0202313,"latest_flag":null,"unit":"pg I-TEQ/m3","n_samples":53,"first_sample_date":"2007-05-21","is_stale":false,"location_source":"same_siteid_air_station","location_note":"座標為同編號同名空氣品質監測站座標；戴奧辛實際採樣點（sampleaddress）是否與其同址未驗證","sampling_note":"戴奧辛為定期採樣（約每半年 1–2 次，早年每年 4 次），非即時；單位 pg I-TEQ/m3"}},{"type":"Feature","geometry":{"type":"Point","coordinates":[120.56117,22.523108]},"properties":{"station_id":"60","station_name":"潮州站","county":"屏東縣","sample_address":"潮南國小","latest_sample_date":"2018-10-09","latest_teq_pg_m3":0.0202081180017227,"latest_flag":null,"unit":"pg I-TEQ/m3","n_samples":2,"first_sample_date":"2018-03-26","is_stale":true,"location_source":"same_siteid_air_station","location_note":"座標為同編號同名空氣品質監測站座標；戴奧辛實際採樣點（sampleaddress）是否與其同址未驗證","sampling_note":"戴奧辛為定期採樣（約每半年 1–2 次，早年每年 4 次），非即時；單位 pg I-TEQ/m3"}},{"type":"Feature","geometry":{"type":"Point","coordinates":[121.15045,22.755358]},"properties":{"station_id":"62","station_name":"臺東站","county":"臺東縣","sample_address":"台東縣政府","latest_sample_date":"2025-10-28","latest_teq_pg_m3":0.0137952,"latest_flag":null,"unit":"pg I-TEQ/m3","n_samples":61,"first_sample_date":"2007-05-21","is_stale":false,"location_source":"same_siteid_air_station","location_note":"座標為同編號同名空氣品質監測站座標；戴奧辛實際採樣點（sampleaddress）是否與其同址未驗證","sampling_note":"戴奧辛為定期採樣（約每半年 1–2 次，早年每年 4 次），非即時；單位 pg I-TEQ/m3"}},{"type":"Feature","geometry":{"type":"Point","coordinates":[121.59977,23.971306]},"properties":{"station_id":"63","station_name":"花蓮站","county":"花蓮縣","sample_address":"中正國小","latest_sample_date":"2025-10-07","latest_teq_pg_m3":0.0053992,"latest_flag":null,"unit":"pg I-TEQ/m3","n_samples":59,"first_sample_date":"2007-05-14","is_stale":false,"location_source":"same_siteid_air_station","location_note":"座標為同編號同名空氣品質監測站座標；戴奧辛實際採樣點（sampleaddress）是否與其同址未驗證","sampling_note":"戴奧辛為定期採樣（約每半年 1–2 次，早年每年 4 次），非即時；單位 pg I-TEQ/m3"}},{"type":"Feature","geometry":{"type":"Point","coordinates":[121.74639,24.747917]},"properties":{"station_id":"65","station_name":"宜蘭站","county":"宜蘭縣","sample_address":"復興國中","latest_sample_date":"2025-10-07","latest_teq_pg_m3":0.002936,"latest_flag":null,"unit":"pg I-TEQ/m3","n_samples":46,"first_sample_date":"2011-08-01","is_stale":false,"location_source":"same_siteid_air_station","location_note":"座標為同編號同名空氣品質監測站座標；戴奧辛實際採樣點（sampleaddress）是否與其同址未驗證","sampling_note":"戴奧辛為定期採樣（約每半年 1–2 次，早年每年 4 次），非即時；單位 pg I-TEQ/m3"}},{"type":"Feature","geometry":{"type":"Point","coordinates":[121.79293,24.632202]},"properties":{"station_id":"66","station_name":"冬山站","county":"宜蘭縣","sample_address":"冬山鄉托兒所","latest_sample_date":"2011-05-09","latest_teq_pg_m3":0.0272283,"latest_flag":null,"unit":"pg I-TEQ/m3","n_samples":15,"first_sample_date":"2007-05-14","is_stale":true,"location_source":"same_siteid_air_station","location_note":"座標為同編號同名空氣品質監測站座標；戴奧辛實際採樣點（sampleaddress）是否與其同址未驗證","sampling_note":"戴奧辛為定期採樣（約每半年 1–2 次，早年每年 4 次），非即時；單位 pg I-TEQ/m3"}},{"type":"Feature","geometry":{"type":"Point","coordinates":[121.493805,25.07261]},"properties":{"station_id":"67","station_name":"三重站","county":"新北市","sample_address":"新北市三重區三和路重陽路交口","latest_sample_date":"2015-10-06","latest_teq_pg_m3":0.0087047,"latest_flag":null,"unit":"pg I-TEQ/m3","n_samples":8,"first_sample_date":"2009-11-10","is_stale":true,"location_source":"same_siteid_air_station","location_note":"座標為同編號同名空氣品質監測站座標；戴奧辛實際採樣點（sampleaddress）是否與其同址未驗證","sampling_note":"戴奧辛為定期採樣（約每半年 1–2 次，早年每年 4 次），非即時；單位 pg I-TEQ/m3"}},{"type":"Feature","geometry":{"type":"Point","coordinates":[121.221664,24.953278]},"properties":{"station_id":"68","station_name":"中壢站","county":"桃園市","sample_address":"中壢國小","latest_sample_date":"2013-10-14","latest_teq_pg_m3":0.053372,"latest_flag":null,"unit":"pg I-TEQ/m3","n_samples":8,"first_sample_date":"2009-11-09","is_stale":true,"location_source":"same_siteid_air_station","location_note":"座標為同編號同名空氣品質監測站座標；戴奧辛實際採樣點（sampleaddress）是否與其同址未驗證","sampling_note":"戴奧辛為定期採樣（約每半年 1–2 次，早年每年 4 次），非即時；單位 pg I-TEQ/m3"}},{"type":"Feature","geometry":{"type":"Point","coordinates":[121.516304,25.017]},"properties":{"station_id":"70","station_name":"永和站","county":"新北市","sample_address":"永和中山公園","latest_sample_date":"2014-10-13","latest_teq_pg_m3":0.0272713,"latest_flag":null,"unit":"pg I-TEQ/m3","n_samples":4,"first_sample_date":"2014-03-03","is_stale":true,"location_source":"same_siteid_air_station","location_note":"座標為同編號同名空氣品質監測站座標；戴奧辛實際採樣點（sampleaddress）是否與其同址未驗證","sampling_note":"戴奧辛為定期採樣（約每半年 1–2 次，早年每年 4 次），非即時；單位 pg I-TEQ/m3"}},{"type":"Feature","geometry":{"type":"Point","coordinates":[120.31202,22.608711]},"properties":{"station_id":"71","station_name":"復興站","county":"高雄市","sample_address":"復興國小","latest_sample_date":"2013-10-11","latest_teq_pg_m3":0.0200706440371747,"latest_flag":null,"unit":"pg I-TEQ/m3","n_samples":8,"first_sample_date":"2009-11-09","is_stale":true,"location_source":"same_siteid_air_station","location_note":"座標為同編號同名空氣品質監測站座標；戴奧辛實際採樣點（sampleaddress）是否與其同址未驗證","sampling_note":"戴奧辛為定期採樣（約每半年 1–2 次，早年每年 4 次），非即時；單位 pg I-TEQ/m3"}}]}