{"type":"FeatureCollection","name":"incinerator_emissions","features":[{"type":"Feature","geometry":{"type":"Point","coordinates":[120.44156,23.44316]},"properties":{"plant_name":"嘉義市垃圾焚化廠","applyno":"WEPI2617","county":"嘉義市","latest_month":"2026-05","is_stale":false,"nox_ppm":53.38,"nox_ppm_flag":null,"sox_ppm":7.21,"sox_ppm_flag":null,"cox_ppm":4.19,"cox_ppm_flag":null,"hcl_ppm":6.055,"hcl_ppm_flag":null,"dust_mg_nm3":null,"dust_mg_nm3_flag":"not_reported","opacity_pct":2.37,"opacity_pct_flag":null,"unusual_output":false,"dioxin_f1_ng_teq_nm3":0.013,"dioxin_f1_flag":null,"dioxin_f1_test_date":"2026-03-03","dioxin_f1_report_month":"2026-03","dioxin_f2_ng_teq_nm3":0.007,"dioxin_f2_flag":null,"dioxin_f2_test_date":"2026-03-09","dioxin_f2_report_month":"2026-03","dioxin_f3_ng_teq_nm3":null,"dioxin_f3_flag":"older_than_24m","dioxin_f3_test_date":"2002-08-07","dioxin_f3_report_month":"2002-07","dioxin_f4_ng_teq_nm3":null,"dioxin_f4_flag":"older_than_24m","dioxin_f4_test_date":"2002-08-07","dioxin_f4_report_month":"2002-07","dioxin_max_ng_teq_nm3":0.013,"n_months":331,"first_month":"1998-11","location_source":"waste_facilities_exact","location_note":"座標沿用本 repo waste_facilities 焚化爐點（廠位置）"}},{"type":"Feature","geometry":{"type":"Point","coordinates":[120.28084,23.448982]},"properties":{"plant_name":"嘉義縣鹿草垃圾焚化廠","applyno":"WEPQ7513","county":"嘉義縣","latest_month":"2026-05","is_stale":false,"nox_ppm":44.55,"nox_ppm_flag":null,"sox_ppm":1.7,"sox_ppm_flag":null,"cox_ppm":11.635,"cox_ppm_flag":null,"hcl_ppm":10.365,"hcl_ppm_flag":null,"dust_mg_nm3":null,"dust_mg_nm3_flag":"not_reported","opacity_pct":1.645,"opacity_pct_flag":null,"unusual_output":false,"dioxin_f1_ng_teq_nm3":0.009,"dioxin_f1_flag":null,"dioxin_f1_test_date":"2026-04-15","dioxin_f1_report_month":"2026-04","dioxin_f2_ng_teq_nm3":0.003,"dioxin_f2_flag":null,"dioxin_f2_test_date":"2026-04-17","dioxin_f2_report_month":"2026-04","dioxin_f3_ng_teq_nm3":null,"dioxin_f3_flag":"older_than_24m","dioxin_f3_test_date":"2002-07-23","dioxin_f3_report_month":"2002-08","dioxin_f4_ng_teq_nm3":null,"dioxin_f4_flag":"older_than_24m","dioxin_f4_test_date":"2002-07-23","dioxin_f4_report_month":"2002-08","dioxin_max_ng_teq_nm3":0.009,"n_months":294,"first_month":"2001-12","location_source":"waste_facilities_exact","location_note":"座標沿用本 repo waste_facilities 焚化爐點（廠位置）"}},{"type":"Feature","geometry":{"type":"Point","coordinates":[121.835365,24.660986]},"properties":{"plant_name":"宜蘭縣利澤垃圾資源回收(焚化)廠","applyno":"WEPG3008","county":"宜蘭縣","latest_month":"2026-05","is_stale":false,"nox_ppm":72.765,"nox_ppm_flag":null,"sox_ppm":2.04,"sox_ppm_flag":null,"cox_ppm":8.58,"cox_ppm_flag":null,"hcl_ppm":9.495,"hcl_ppm_flag":null,"dust_mg_nm3":null,"dust_mg_nm3_flag":"not_reported","opacity_pct":1.01,"opacity_pct_flag":null,"unusual_output":false,"dioxin_f1_ng_teq_nm3":0.012,"dioxin_f1_flag":null,"dioxin_f1_test_date":"2026-05-06","dioxin_f1_report_month":"2026-05","dioxin_f2_ng_teq_nm3":0.006,"dioxin_f2_flag":null,"dioxin_f2_test_date":"2026-01-06","dioxin_f2_report_month":"2026-01","dioxin_f3_ng_teq_nm3":null,"dioxin_f3_flag":"no_test","dioxin_f3_test_date":null,"dioxin_f3_report_month":null,"dioxin_f4_ng_teq_nm3":null,"dioxin_f4_flag":"no_test","dioxin_f4_test_date":null,"dioxin_f4_report_month":null,"dioxin_max_ng_teq_nm3":0.012,"n_months":242,"first_month":"2006-04","location_source":"waste_facilities_exact","location_note":"座標沿用本 repo waste_facilities 焚化爐點（廠位置）"}},{"type":"Feature","geometry":{"type":"Point","coordinates":[120.497332,22.501321]},"properties":{"plant_name":"屏東縣崁頂垃圾資源回收(焚化)廠","applyno":"WEPT5929","county":"屏東縣","latest_month":"2026-05","is_stale":false,"nox_ppm":33.71,"nox_ppm_flag":null,"sox_ppm":2.625,"sox_ppm_flag":null,"cox_ppm":5.995,"cox_ppm_flag":null,"hcl_ppm":10.02,"hcl_ppm_flag":null,"dust_mg_nm3":null,"dust_mg_nm3_flag":"not_reported","opacity_pct":1.905,"opacity_pct_flag":null,"unusual_output":false,"dioxin_f1_ng_teq_nm3":0.011,"dioxin_f1_flag":null,"dioxin_f1_test_date":"2026-01-05","dioxin_f1_report_month":"2026-01","dioxin_f2_ng_teq_nm3":0.009,"dioxin_f2_flag":null,"dioxin_f2_test_date":"2025-08-27","dioxin_f2_report_month":"2025-08","dioxin_f3_ng_teq_nm3":null,"dioxin_f3_flag":"older_than_24m","dioxin_f3_test_date":"2002-08-08","dioxin_f3_report_month":"2002-07","dioxin_f4_ng_teq_nm3":null,"dioxin_f4_flag":"older_than_24m","dioxin_f4_test_date":"2002-08-08","dioxin_f4_report_month":"2002-07","dioxin_max_ng_teq_nm3":0.011,"n_months":304,"first_month":"2001-01","location_source":"waste_facilities_exact","location_note":"座標沿用本 repo waste_facilities 焚化爐點（廠位置）"}},{"type":"Feature","geometry":{"type":"Point","coordinates":[120.461432,23.826569]},"properties":{"plant_name":"彰化縣溪州垃圾焚化廠","applyno":"WEPN3259","county":"彰化縣","latest_month":"2026-05","is_stale":false,"nox_ppm":68.43,"nox_ppm_flag":null,"sox_ppm":3.335,"sox_ppm_flag":null,"cox_ppm":24.045,"cox_ppm_flag":null,"hcl_ppm":16.255,"hcl_ppm_flag":null,"dust_mg_nm3":null,"dust_mg_nm3_flag":"not_reported","opacity_pct":2.175,"opacity_pct_flag":null,"unusual_output":false,"dioxin_f1_ng_teq_nm3":0.065,"dioxin_f1_flag":null,"dioxin_f1_test_date":"2026-02-06","dioxin_f1_report_month":"2026-02","dioxin_f2_ng_teq_nm3":0.07,"dioxin_f2_flag":null,"dioxin_f2_test_date":"2026-03-02","dioxin_f2_report_month":"2026-03","dioxin_f3_ng_teq_nm3":null,"dioxin_f3_flag":"older_than_24m","dioxin_f3_test_date":"2002-07-06","dioxin_f3_report_month":"2002-08","dioxin_f4_ng_teq_nm3":null,"dioxin_f4_flag":"older_than_24m","dioxin_f4_test_date":"2002-07-06","dioxin_f4_report_month":"2002-08","dioxin_max_ng_teq_nm3":0.07,"n_months":305,"first_month":"2001-01","location_source":"waste_facilities_exact","location_note":"座標沿用本 repo waste_facilities 焚化爐點（廠位置）"}},{"type":"Feature","geometry":{"type":"Point","coordinates":[121.368659,25.135576]},"properties":{"plant_name":"新北市八里垃圾焚化廠","applyno":"WEPF2314","county":"新北市","latest_month":"2026-05","is_stale":false,"nox_ppm":40.123,"nox_ppm_flag":null,"sox_ppm":7.097,"sox_ppm_flag":null,"cox_ppm":5.693,"cox_ppm_flag":null,"hcl_ppm":5.4,"hcl_ppm_flag":null,"dust_mg_nm3":null,"dust_mg_nm3_flag":"not_reported","opacity_pct":1.553,"opacity_pct_flag":null,"unusual_output":false,"dioxin_f1_ng_teq_nm3":0.01,"dioxin_f1_flag":null,"dioxin_f1_test_date":"2026-01-08","dioxin_f1_report_month":"2026-01","dioxin_f2_ng_teq_nm3":0.009,"dioxin_f2_flag":null,"dioxin_f2_test_date":"2026-01-10","dioxin_f2_report_month":"2026-01","dioxin_f3_ng_teq_nm3":0.019,"dioxin_f3_flag":null,"dioxin_f3_test_date":"2026-03-02","dioxin_f3_report_month":"2026-03","dioxin_f4_ng_teq_nm3":null,"dioxin_f4_flag":"older_than_24m","dioxin_f4_test_date":"2002-08-06","dioxin_f4_report_month":"2002-07","dioxin_max_ng_teq_nm3":0.019,"n_months":299,"first_month":"2001-07","location_source":"waste_facilities_exact","location_note":"座標沿用本 repo waste_facilities 焚化爐點（廠位置）"}},{"type":"Feature","geometry":{"type":"Point","coordinates":[121.497079,24.958445]},"properties":{"plant_name":"新北市新店垃圾焚化廠","applyno":"WEPF0537","county":"新北市","latest_month":"2026-05","is_stale":false,"nox_ppm":54.805,"nox_ppm_flag":null,"sox_ppm":2.7,"sox_ppm_flag":null,"cox_ppm":12.45,"cox_ppm_flag":null,"hcl_ppm":8.67,"hcl_ppm_flag":null,"dust_mg_nm3":null,"dust_mg_nm3_flag":"not_reported","opacity_pct":0.8,"opacity_pct_flag":null,"unusual_output":false,"dioxin_f1_ng_teq_nm3":0.003,"dioxin_f1_flag":null,"dioxin_f1_test_date":"2026-01-26","dioxin_f1_report_month":"2026-01","dioxin_f2_ng_teq_nm3":0.004,"dioxin_f2_flag":null,"dioxin_f2_test_date":"2025-11-20","dioxin_f2_report_month":"2025-11","dioxin_f3_ng_teq_nm3":null,"dioxin_f3_flag":"older_than_24m","dioxin_f3_test_date":"2002-06-11","dioxin_f3_report_month":"2002-07","dioxin_f4_ng_teq_nm3":null,"dioxin_f4_flag":"older_than_24m","dioxin_f4_test_date":"2002-06-11","dioxin_f4_report_month":"2002-07","dioxin_max_ng_teq_nm3":0.004,"n_months":329,"first_month":"1999-01","location_source":"waste_facilities_exact","location_note":"座標沿用本 repo waste_facilities 焚化爐點（廠位置）"}},{"type":"Feature","geometry":{"type":"Point","coordinates":[121.380283,24.967113]},"properties":{"plant_name":"新北市樹林垃圾焚化廠","applyno":"WEPF0759","county":"新北市","latest_month":"2026-05","is_stale":false,"nox_ppm":43.797,"nox_ppm_flag":null,"sox_ppm":2.633,"sox_ppm_flag":null,"cox_ppm":11.937,"cox_ppm_flag":null,"hcl_ppm":6.27,"hcl_ppm_flag":null,"dust_mg_nm3":null,"dust_mg_nm3_flag":"not_reported","opacity_pct":1.143,"opacity_pct_flag":null,"unusual_output":false,"dioxin_f1_ng_teq_nm3":0.003,"dioxin_f1_flag":null,"dioxin_f1_test_date":"2025-11-09","dioxin_f1_report_month":"2025-11","dioxin_f2_ng_teq_nm3":0.002,"dioxin_f2_flag":null,"dioxin_f2_test_date":"2026-02-02","dioxin_f2_report_month":"2026-02","dioxin_f3_ng_teq_nm3":0.005,"dioxin_f3_flag":null,"dioxin_f3_test_date":"2026-04-16","dioxin_f3_report_month":"2026-05","dioxin_f4_ng_teq_nm3":null,"dioxin_f4_flag":"older_than_24m","dioxin_f4_test_date":"2002-07-09","dioxin_f4_report_month":"2002-06","dioxin_max_ng_teq_nm3":0.005,"n_months":329,"first_month":"1999-01","location_source":"waste_facilities_exact","location_note":"座標沿用本 repo waste_facilities 焚化爐點（廠位置）"}},{"type":"Feature","geometry":{"type":"Point","coordinates":[120.916362,24.834204]},"properties":{"plant_name":"新竹市垃圾資源回收廠","applyno":"WEPO1732","county":"新竹市","latest_month":"2026-05","is_stale":false,"nox_ppm":38.82,"nox_ppm_flag":null,"sox_ppm":3.94,"sox_ppm_flag":null,"cox_ppm":3.39,"cox_ppm_flag":null,"hcl_ppm":10.995,"hcl_ppm_flag":null,"dust_mg_nm3":null,"dust_mg_nm3_flag":"not_reported","opacity_pct":1.66,"opacity_pct_flag":null,"unusual_output":false,"dioxin_f1_ng_teq_nm3":0.024,"dioxin_f1_flag":null,"dioxin_f1_test_date":"2025-09-13","dioxin_f1_report_month":"2025-09","dioxin_f2_ng_teq_nm3":0.043,"dioxin_f2_flag":null,"dioxin_f2_test_date":"2026-02-04","dioxin_f2_report_month":"2026-02","dioxin_f3_ng_teq_nm3":null,"dioxin_f3_flag":"older_than_24m","dioxin_f3_test_date":"2002-07-10","dioxin_f3_report_month":"2002-08","dioxin_f4_ng_teq_nm3":null,"dioxin_f4_flag":"older_than_24m","dioxin_f4_test_date":"2002-07-10","dioxin_f4_report_month":"2002-08","dioxin_max_ng_teq_nm3":0.043,"n_months":304,"first_month":"2001-02","location_source":"waste_facilities_exact","location_note":"座標沿用本 repo waste_facilities 焚化爐點（廠位置）"}},{"type":"Feature","geometry":{"type":"Point","coordinates":[121.249359,24.990888]},"properties":{"plant_name":"桃園市垃圾焚化廠","applyno":"WEPH4335","county":"桃園市","latest_month":"2026-05","is_stale":false,"nox_ppm":40.2,"nox_ppm_flag":null,"sox_ppm":6.65,"sox_ppm_flag":null,"cox_ppm":10.1,"cox_ppm_flag":null,"hcl_ppm":14.9,"hcl_ppm_flag":null,"dust_mg_nm3":null,"dust_mg_nm3_flag":"not_reported","opacity_pct":2.05,"opacity_pct_flag":null,"unusual_output":false,"dioxin_f1_ng_teq_nm3":0.012,"dioxin_f1_flag":null,"dioxin_f1_test_date":"2026-03-20","dioxin_f1_report_month":"2026-04","dioxin_f2_ng_teq_nm3":0.008,"dioxin_f2_flag":null,"dioxin_f2_test_date":"2025-11-29","dioxin_f2_report_month":"2025-12","dioxin_f3_ng_teq_nm3":null,"dioxin_f3_flag":"older_than_24m","dioxin_f3_test_date":"2002-08-06","dioxin_f3_report_month":"2002-08","dioxin_f4_ng_teq_nm3":null,"dioxin_f4_flag":"older_than_24m","dioxin_f4_test_date":"2002-08-06","dioxin_f4_report_month":"2002-08","dioxin_max_ng_teq_nm3":0.012,"n_months":296,"first_month":"2001-10","location_source":"waste_facilities_exact","location_note":"座標沿用本 repo waste_facilities 焚化爐點（廠位置）"}},{"type":"Feature","geometry":{"type":"Point","coordinates":[121.249359,24.990888]},"properties":{"plant_name":"桃園市生質能中心","applyno":"WEPH3438","county":"桃園市","latest_month":"2026-05","is_stale":false,"nox_ppm":25.8,"nox_ppm_flag":null,"sox_ppm":0.2,"sox_ppm_flag":null,"cox_ppm":14.25,"cox_ppm_flag":null,"hcl_ppm":2.4,"hcl_ppm_flag":null,"dust_mg_nm3":null,"dust_mg_nm3_flag":"not_reported","opacity_pct":2.65,"opacity_pct_flag":null,"unusual_output":false,"dioxin_f1_ng_teq_nm3":0.042,"dioxin_f1_flag":null,"dioxin_f1_test_date":"2026-02-06","dioxin_f1_report_month":"2026-03","dioxin_f2_ng_teq_nm3":0.018,"dioxin_f2_flag":null,"dioxin_f2_test_date":"2025-04-22","dioxin_f2_report_month":"2025-05","dioxin_f3_ng_teq_nm3":null,"dioxin_f3_flag":"no_test","dioxin_f3_test_date":null,"dioxin_f3_report_month":null,"dioxin_f4_ng_teq_nm3":null,"dioxin_f4_flag":"no_test","dioxin_f4_test_date":null,"dioxin_f4_report_month":null,"dioxin_max_ng_teq_nm3":0.042,"n_months":29,"first_month":"2024-01","location_source":"waste_facilities_core_name","location_note":"座標沿用本 repo waste_facilities 焚化爐點（廠位置）"}},{"type":"Feature","geometry":{"type":"Point","coordinates":[120.698437,24.287464]},"properties":{"plant_name":"臺中市后里資源回收廠","applyno":"WEPL9232","county":"臺中市","latest_month":"2026-05","is_stale":false,"nox_ppm":71.675,"nox_ppm_flag":null,"sox_ppm":4.82,"sox_ppm_flag":null,"cox_ppm":16.26,"cox_ppm_flag":null,"hcl_ppm":14.8,"hcl_ppm_flag":null,"dust_mg_nm3":null,"dust_mg_nm3_flag":"not_reported","opacity_pct":1.89,"opacity_pct_flag":null,"unusual_output":false,"dioxin_f1_ng_teq_nm3":0.01,"dioxin_f1_flag":null,"dioxin_f1_test_date":"2025-12-03","dioxin_f1_report_month":"2025-12","dioxin_f2_ng_teq_nm3":0.006,"dioxin_f2_flag":null,"dioxin_f2_test_date":"2026-01-14","dioxin_f2_report_month":"2026-02","dioxin_f3_ng_teq_nm3":null,"dioxin_f3_flag":"older_than_24m","dioxin_f3_test_date":"2002-02-20","dioxin_f3_report_month":"2001-12","dioxin_f4_ng_teq_nm3":null,"dioxin_f4_flag":"older_than_24m","dioxin_f4_test_date":"2002-02-20","dioxin_f4_report_month":"2001-12","dioxin_max_ng_teq_nm3":0.01,"n_months":309,"first_month":"2000-09","location_source":"waste_facilities_exact","location_note":"座標沿用本 repo waste_facilities 焚化爐點（廠位置）"}},{"type":"Feature","geometry":{"type":"Point","coordinates":[120.59895,24.152543]},"properties":{"plant_name":"臺中市文山垃圾焚化廠","applyno":"WEPB2401","county":"臺中市","latest_month":"2026-05","is_stale":false,"nox_ppm":86.093,"nox_ppm_flag":null,"sox_ppm":5.47,"sox_ppm_flag":null,"cox_ppm":4.41,"cox_ppm_flag":null,"hcl_ppm":13.667,"hcl_ppm_flag":null,"dust_mg_nm3":null,"dust_mg_nm3_flag":"not_reported","opacity_pct":1.183,"opacity_pct_flag":null,"unusual_output":false,"dioxin_f1_ng_teq_nm3":0.003,"dioxin_f1_flag":null,"dioxin_f1_test_date":"2026-04-01","dioxin_f1_report_month":"2026-04","dioxin_f2_ng_teq_nm3":0.012,"dioxin_f2_flag":null,"dioxin_f2_test_date":"2026-02-23","dioxin_f2_report_month":"2026-02","dioxin_f3_ng_teq_nm3":0.011,"dioxin_f3_flag":null,"dioxin_f3_test_date":"2026-02-05","dioxin_f3_report_month":"2026-02","dioxin_f4_ng_teq_nm3":null,"dioxin_f4_flag":"no_test","dioxin_f4_test_date":null,"dioxin_f4_report_month":null,"dioxin_max_ng_teq_nm3":0.012,"n_months":329,"first_month":"1999-01","location_source":"waste_facilities_exact","location_note":"座標沿用本 repo waste_facilities 焚化爐點（廠位置）"}},{"type":"Feature","geometry":{"type":"Point","coordinates":[120.6191,24.096579]},"properties":{"plant_name":"臺中市烏日資源回收廠","applyno":"WEPL0028","county":"臺中市","latest_month":"2026-05","is_stale":false,"nox_ppm":67.01,"nox_ppm_flag":null,"sox_ppm":4.76,"sox_ppm_flag":null,"cox_ppm":11.005,"cox_ppm_flag":null,"hcl_ppm":7.49,"hcl_ppm_flag":null,"dust_mg_nm3":null,"dust_mg_nm3_flag":"not_reported","opacity_pct":0.945,"opacity_pct_flag":null,"unusual_output":false,"dioxin_f1_ng_teq_nm3":0.008,"dioxin_f1_flag":null,"dioxin_f1_test_date":"2025-12-29","dioxin_f1_report_month":"2026-01","dioxin_f2_ng_teq_nm3":0.008,"dioxin_f2_flag":null,"dioxin_f2_test_date":"2026-05-20","dioxin_f2_report_month":"2026-05","dioxin_f3_ng_teq_nm3":null,"dioxin_f3_flag":"no_test","dioxin_f3_test_date":null,"dioxin_f3_report_month":null,"dioxin_f4_ng_teq_nm3":null,"dioxin_f4_flag":"no_test","dioxin_f4_test_date":null,"dioxin_f4_report_month":null,"dioxin_max_ng_teq_nm3":0.008,"n_months":262,"first_month":"2004-08","location_source":"waste_facilities_exact","location_note":"座標沿用本 repo waste_facilities 焚化爐點（廠位置）"}},{"type":"Feature","geometry":{"type":"Point","coordinates":[121.603473,25.062791]},"properties":{"plant_name":"臺北市政府環境保護局內湖垃圾焚化廠","applyno":"WEPA4244","county":"臺北市","latest_month":"2026-05","is_stale":false,"nox_ppm":60.713,"nox_ppm_flag":null,"sox_ppm":5.197,"sox_ppm_flag":null,"cox_ppm":19.587,"cox_ppm_flag":null,"hcl_ppm":10.827,"hcl_ppm_flag":null,"dust_mg_nm3":null,"dust_mg_nm3_flag":"not_reported","opacity_pct":1.533,"opacity_pct_flag":null,"unusual_output":true,"dioxin_f1_ng_teq_nm3":0.012,"dioxin_f1_flag":null,"dioxin_f1_test_date":"2025-11-25","dioxin_f1_report_month":"2025-12","dioxin_f2_ng_teq_nm3":0.003,"dioxin_f2_flag":null,"dioxin_f2_test_date":"2026-04-22","dioxin_f2_report_month":"2026-05","dioxin_f3_ng_teq_nm3":0.016,"dioxin_f3_flag":null,"dioxin_f3_test_date":"2026-04-20","dioxin_f3_report_month":"2026-05","dioxin_f4_ng_teq_nm3":null,"dioxin_f4_flag":"older_than_24m","dioxin_f4_test_date":"2002-06-19","dioxin_f4_report_month":"2002-06","dioxin_max_ng_teq_nm3":0.016,"n_months":298,"first_month":"1999-01","location_source":"waste_facilities_exact","location_note":"座標沿用本 repo waste_facilities 焚化爐點（廠位置）"}},{"type":"Feature","geometry":{"type":"Point","coordinates":[121.49915,25.108706]},"properties":{"plant_name":"臺北市政府環境保護局北投垃圾焚化廠","applyno":"WEPA4427","county":"臺北市","latest_month":"2026-05","is_stale":false,"nox_ppm":62.495,"nox_ppm_flag":null,"sox_ppm":6.15,"sox_ppm_flag":null,"cox_ppm":12.78,"cox_ppm_flag":null,"hcl_ppm":11.568,"hcl_ppm_flag":null,"dust_mg_nm3":null,"dust_mg_nm3_flag":"not_reported","opacity_pct":2.465,"opacity_pct_flag":null,"unusual_output":false,"dioxin_f1_ng_teq_nm3":0.012,"dioxin_f1_flag":null,"dioxin_f1_test_date":"2026-04-23","dioxin_f1_report_month":"2026-04","dioxin_f2_ng_teq_nm3":0.026,"dioxin_f2_flag":null,"dioxin_f2_test_date":"2025-03-12","dioxin_f2_report_month":"2025-07","dioxin_f3_ng_teq_nm3":0.017,"dioxin_f3_flag":null,"dioxin_f3_test_date":"2025-05-13","dioxin_f3_report_month":"2025-07","dioxin_f4_ng_teq_nm3":0.012,"dioxin_f4_flag":null,"dioxin_f4_test_date":"2025-08-05","dioxin_f4_report_month":"2025-08","dioxin_max_ng_teq_nm3":0.026,"n_months":325,"first_month":"1999-05","location_source":"waste_facilities_exact","location_note":"座標沿用本 repo waste_facilities 焚化爐點（廠位置）"}},{"type":"Feature","geometry":{"type":"Point","coordinates":[121.586487,25.00516]},"properties":{"plant_name":"臺北市政府環境保護局木柵垃圾焚化廠","applyno":"WEPA4059","county":"臺北市","latest_month":"2026-05","is_stale":false,"nox_ppm":61.955,"nox_ppm_flag":null,"sox_ppm":10.205,"sox_ppm_flag":null,"cox_ppm":21.643,"cox_ppm_flag":null,"hcl_ppm":5.34,"hcl_ppm_flag":null,"dust_mg_nm3":null,"dust_mg_nm3_flag":"not_reported","opacity_pct":2.278,"opacity_pct_flag":null,"unusual_output":false,"dioxin_f1_ng_teq_nm3":0.027,"dioxin_f1_flag":null,"dioxin_f1_test_date":"2026-02-05","dioxin_f1_report_month":"2026-02","dioxin_f2_ng_teq_nm3":0.029,"dioxin_f2_flag":null,"dioxin_f2_test_date":"2026-02-23","dioxin_f2_report_month":"2026-03","dioxin_f3_ng_teq_nm3":0.006,"dioxin_f3_flag":null,"dioxin_f3_test_date":"2025-07-14","dioxin_f3_report_month":"2025-07","dioxin_f4_ng_teq_nm3":0.017,"dioxin_f4_flag":null,"dioxin_f4_test_date":"2025-07-16","dioxin_f4_report_month":"2025-07","dioxin_max_ng_teq_nm3":0.029,"n_months":328,"first_month":"1999-01","location_source":"waste_facilities_exact","location_note":"座標沿用本 repo waste_facilities 焚化爐點（廠位置）"}},{"type":"Feature","geometry":{"type":"Point","coordinates":[120.076107,23.046889]},"properties":{"plant_name":"臺南市城西垃圾焚化廠","applyno":"WEPD3244","county":"臺南市","latest_month":"2026-05","is_stale":false,"nox_ppm":53.09,"nox_ppm_flag":null,"sox_ppm":0.655,"sox_ppm_flag":null,"cox_ppm":8.715,"cox_ppm_flag":null,"hcl_ppm":7.61,"hcl_ppm_flag":null,"dust_mg_nm3":null,"dust_mg_nm3_flag":"not_reported","opacity_pct":1.445,"opacity_pct_flag":null,"unusual_output":false,"dioxin_f1_ng_teq_nm3":0.009,"dioxin_f1_flag":null,"dioxin_f1_test_date":"2026-01-14","dioxin_f1_report_month":"2026-03","dioxin_f2_ng_teq_nm3":0.033,"dioxin_f2_flag":null,"dioxin_f2_test_date":"2026-01-19","dioxin_f2_report_month":"2026-03","dioxin_f3_ng_teq_nm3":null,"dioxin_f3_flag":"older_than_24m","dioxin_f3_test_date":"2002-07-11","dioxin_f3_report_month":"2002-06","dioxin_f4_ng_teq_nm3":null,"dioxin_f4_flag":"older_than_24m","dioxin_f4_test_date":"2002-07-11","dioxin_f4_report_month":"2002-06","dioxin_max_ng_teq_nm3":0.033,"n_months":322,"first_month":"1999-08","location_source":"waste_facilities_exact","location_note":"座標沿用本 repo waste_facilities 焚化爐點（廠位置）"}},{"type":"Feature","geometry":{"type":"Point","coordinates":[120.282549,23.040213]},"properties":{"plant_name":"臺南市永康垃圾資源回收(焚化)廠","applyno":"WEPR8506","county":"臺南市","latest_month":"2026-05","is_stale":false,"nox_ppm":78.435,"nox_ppm_flag":null,"sox_ppm":8.465,"sox_ppm_flag":null,"cox_ppm":38.585,"cox_ppm_flag":null,"hcl_ppm":13.65,"hcl_ppm_flag":null,"dust_mg_nm3":null,"dust_mg_nm3_flag":"not_reported","opacity_pct":1.685,"opacity_pct_flag":null,"unusual_output":false,"dioxin_f1_ng_teq_nm3":0.004,"dioxin_f1_flag":null,"dioxin_f1_test_date":"2026-01-08","dioxin_f1_report_month":"2026-01","dioxin_f2_ng_teq_nm3":0.008,"dioxin_f2_flag":null,"dioxin_f2_test_date":"2025-08-05","dioxin_f2_report_month":"2025-08","dioxin_f3_ng_teq_nm3":null,"dioxin_f3_flag":"no_test","dioxin_f3_test_date":null,"dioxin_f3_report_month":null,"dioxin_f4_ng_teq_nm3":null,"dioxin_f4_flag":"no_test","dioxin_f4_test_date":null,"dioxin_f4_report_month":null,"dioxin_max_ng_teq_nm3":0.008,"n_months":219,"first_month":"2008-03","location_source":"waste_facilities_exact","location_note":"座標沿用本 repo waste_facilities 焚化爐點（廠位置）"}},{"type":"Feature","geometry":{"type":"Point","coordinates":[121.13453,22.731522]},"properties":{"plant_name":"臺東縣垃圾焚化廠","applyno":"WEPV9500","county":"臺東縣","latest_month":"2026-05","is_stale":false,"nox_ppm":48.605,"nox_ppm_flag":null,"sox_ppm":4.995,"sox_ppm_flag":null,"cox_ppm":19.135,"cox_ppm_flag":null,"hcl_ppm":11.26,"hcl_ppm_flag":null,"dust_mg_nm3":null,"dust_mg_nm3_flag":"not_reported","opacity_pct":1.37,"opacity_pct_flag":null,"unusual_output":false,"dioxin_f1_ng_teq_nm3":0.047,"dioxin_f1_flag":null,"dioxin_f1_test_date":"2026-01-28","dioxin_f1_report_month":"2026-01","dioxin_f2_ng_teq_nm3":0.04,"dioxin_f2_flag":null,"dioxin_f2_test_date":"2025-11-27","dioxin_f2_report_month":"2025-11","dioxin_f3_ng_teq_nm3":null,"dioxin_f3_flag":"no_test","dioxin_f3_test_date":null,"dioxin_f3_report_month":null,"dioxin_f4_ng_teq_nm3":null,"dioxin_f4_flag":"no_test","dioxin_f4_test_date":null,"dioxin_f4_report_month":null,"dioxin_max_ng_teq_nm3":0.047,"n_months":40,"first_month":"2023-02","location_source":"waste_facilities_exact","location_note":"座標沿用本 repo waste_facilities 焚化爐點（廠位置）"}},{"type":"Feature","geometry":{"type":"Point","coordinates":[120.835785,24.674098]},"properties":{"plant_name":"苗栗縣垃圾焚化廠","applyno":"WEPK0322","county":"苗栗縣","latest_month":"2026-05","is_stale":false,"nox_ppm":63.955,"nox_ppm_flag":null,"sox_ppm":6.335,"sox_ppm_flag":null,"cox_ppm":17.995,"cox_ppm_flag":null,"hcl_ppm":9.17,"hcl_ppm_flag":null,"dust_mg_nm3":null,"dust_mg_nm3_flag":"not_reported","opacity_pct":2.05,"opacity_pct_flag":null,"unusual_output":false,"dioxin_f1_ng_teq_nm3":0.007,"dioxin_f1_flag":null,"dioxin_f1_test_date":"2026-04-28","dioxin_f1_report_month":"2026-05","dioxin_f2_ng_teq_nm3":0.003,"dioxin_f2_flag":null,"dioxin_f2_test_date":"2026-01-12","dioxin_f2_report_month":"2026-02","dioxin_f3_ng_teq_nm3":null,"dioxin_f3_flag":"no_test","dioxin_f3_test_date":null,"dioxin_f3_report_month":null,"dioxin_f4_ng_teq_nm3":null,"dioxin_f4_flag":"no_test","dioxin_f4_test_date":null,"dioxin_f4_report_month":null,"dioxin_max_ng_teq_nm3":0.007,"n_months":219,"first_month":"2008-03","location_source":"waste_facilities_exact","location_note":"座標沿用本 repo waste_facilities 焚化爐點（廠位置）"}},{"type":"Feature","geometry":{"type":"Point","coordinates":[120.369261,22.700278]},"properties":{"plant_name":"高雄市仁武垃圾資源回收(焚化)廠","applyno":"WEPS2225","county":"高雄市","latest_month":"2026-05","is_stale":false,"nox_ppm":48.38,"nox_ppm_flag":null,"sox_ppm":1.72,"sox_ppm_flag":null,"cox_ppm":11.607,"cox_ppm_flag":null,"hcl_ppm":17.893,"hcl_ppm_flag":null,"dust_mg_nm3":null,"dust_mg_nm3_flag":"not_reported","opacity_pct":3.077,"opacity_pct_flag":null,"unusual_output":false,"dioxin_f1_ng_teq_nm3":0.011,"dioxin_f1_flag":null,"dioxin_f1_test_date":"2026-01-14","dioxin_f1_report_month":"2026-01","dioxin_f2_ng_teq_nm3":0.01,"dioxin_f2_flag":null,"dioxin_f2_test_date":"2026-04-08","dioxin_f2_report_month":"2026-04","dioxin_f3_ng_teq_nm3":0.002,"dioxin_f3_flag":null,"dioxin_f3_test_date":"2026-01-16","dioxin_f3_report_month":"2026-01","dioxin_f4_ng_teq_nm3":null,"dioxin_f4_flag":"older_than_24m","dioxin_f4_test_date":"2002-06-10","dioxin_f4_report_month":"2002-08","dioxin_max_ng_teq_nm3":0.011,"n_months":311,"first_month":"2000-07","location_source":"waste_facilities_exact","location_note":"座標沿用本 repo waste_facilities 焚化爐點（廠位置）"}},{"type":"Feature","geometry":{"type":"Point","coordinates":[120.269639,22.811394]},"properties":{"plant_name":"高雄市岡山垃圾資源回收(焚化)廠","applyno":"WEPS1656","county":"高雄市","latest_month":"2026-05","is_stale":false,"nox_ppm":57.67,"nox_ppm_flag":null,"sox_ppm":3.65,"sox_ppm_flag":null,"cox_ppm":37.55,"cox_ppm_flag":null,"hcl_ppm":19.28,"hcl_ppm_flag":null,"dust_mg_nm3":1.0,"dust_mg_nm3_flag":null,"opacity_pct":2.793,"opacity_pct_flag":null,"unusual_output":false,"dioxin_f1_ng_teq_nm3":0.013,"dioxin_f1_flag":null,"dioxin_f1_test_date":"2026-01-29","dioxin_f1_report_month":"2026-02","dioxin_f2_ng_teq_nm3":0.033,"dioxin_f2_flag":null,"dioxin_f2_test_date":"2026-02-25","dioxin_f2_report_month":"2026-02","dioxin_f3_ng_teq_nm3":0.046,"dioxin_f3_flag":null,"dioxin_f3_test_date":"2026-03-04","dioxin_f3_report_month":"2026-03","dioxin_f4_ng_teq_nm3":null,"dioxin_f4_flag":"older_than_24m","dioxin_f4_test_date":"2002-07-19","dioxin_f4_report_month":"2002-06","dioxin_max_ng_teq_nm3":0.046,"n_months":299,"first_month":"2001-07","location_source":"waste_facilities_exact","location_note":"座標沿用本 repo waste_facilities 焚化爐點（廠位置）"}},{"type":"Feature","geometry":{"type":"Point","coordinates":[120.331291,22.666243]},"properties":{"plant_name":"高雄市政府環境保護局中區資源回收廠","applyno":"WEPE5004","county":"高雄市","latest_month":"2026-05","is_stale":false,"nox_ppm":84.333,"nox_ppm_flag":null,"sox_ppm":5.88,"sox_ppm_flag":null,"cox_ppm":265.25,"cox_ppm_flag":null,"hcl_ppm":11.72,"hcl_ppm_flag":null,"dust_mg_nm3":null,"dust_mg_nm3_flag":"not_reported","opacity_pct":4.177,"opacity_pct_flag":null,"unusual_output":true,"dioxin_f1_ng_teq_nm3":0.009,"dioxin_f1_flag":null,"dioxin_f1_test_date":"2025-07-22","dioxin_f1_report_month":"2025-07","dioxin_f2_ng_teq_nm3":null,"dioxin_f2_flag":"older_than_24m","dioxin_f2_test_date":"2024-01-23","dioxin_f2_report_month":"2024-01","dioxin_f3_ng_teq_nm3":0.067,"dioxin_f3_flag":null,"dioxin_f3_test_date":"2026-02-06","dioxin_f3_report_month":"2026-02","dioxin_f4_ng_teq_nm3":null,"dioxin_f4_flag":"older_than_24m","dioxin_f4_test_date":"1999-03-23","dioxin_f4_report_month":"2002-06","dioxin_max_ng_teq_nm3":0.067,"n_months":320,"first_month":"1999-09","location_source":"waste_facilities_exact","location_note":"座標沿用本 repo waste_facilities 焚化爐點（廠位置）"}},{"type":"Feature","geometry":{"type":"Point","coordinates":[120.375925,22.550163]},"properties":{"plant_name":"高雄市政府環境保護局南區資源回收廠","applyno":"WEPE5641","county":"高雄市","latest_month":"2026-05","is_stale":false,"nox_ppm":63.868,"nox_ppm_flag":null,"sox_ppm":7.515,"sox_ppm_flag":null,"cox_ppm":73.12,"cox_ppm_flag":null,"hcl_ppm":59.433,"hcl_ppm_flag":null,"dust_mg_nm3":null,"dust_mg_nm3_flag":"not_reported","opacity_pct":2.07,"opacity_pct_flag":null,"unusual_output":true,"dioxin_f1_ng_teq_nm3":0.058,"dioxin_f1_flag":null,"dioxin_f1_test_date":"2025-08-22","dioxin_f1_report_month":"2025-11","dioxin_f2_ng_teq_nm3":0.592,"dioxin_f2_flag":null,"dioxin_f2_test_date":"2026-05-27","dioxin_f2_report_month":"2026-05","dioxin_f3_ng_teq_nm3":null,"dioxin_f3_flag":"older_than_24m","dioxin_f3_test_date":"2023-08-30","dioxin_f3_report_month":"2023-09","dioxin_f4_ng_teq_nm3":0.023,"dioxin_f4_flag":null,"dioxin_f4_test_date":"2024-08-14","dioxin_f4_report_month":"2024-08","dioxin_max_ng_teq_nm3":0.592,"n_months":317,"first_month":"2000-01","location_source":"waste_facilities_exact","location_note":"座標沿用本 repo waste_facilities 焚化爐點（廠位置）"}}]}