{"type":"FeatureCollection","name":"pm25_manual_stations","features":[{"type":"Feature","geometry":{"type":"Point","coordinates":[120.75957,24.382484]},"properties":{"station_name":"三義","county":"苗栗縣","auto_station_siteid":"27","latest_pm25_ugm3":7.0,"latest_valid_date":"2026-09-11","latest_record_date":"2026-09-11","latest_record_flag":null,"mean_12m_ugm3":11.29,"n_valid_12m":116,"mean_12m_flag":null,"mean_12m_window":"2025-09-12~2026-09-11","first_record_date":"2012-12-02","n_records":1626,"is_active":true,"location_note":"座標為同名空品自動站（aqx_p_432）座標，非手動採樣器實際位置；僅表示該站所在區域","sampling_note":"手動採樣（濾紙秤重）約每 3 天 1 筆日平均，非即時；單位 μg/m3"}},{"type":"Feature","geometry":{"type":"Point","coordinates":[120.40965,23.925175]},"properties":{"station_name":"二林","county":"彰化縣","auto_station_siteid":"35","latest_pm25_ugm3":9.0,"latest_valid_date":"2019-06-20","latest_record_date":"2019-06-20","latest_record_flag":null,"mean_12m_ugm3":null,"n_valid_12m":0,"mean_12m_flag":"no_valid_in_window","mean_12m_window":"2025-09-12~2026-09-11","first_record_date":"2018-05-05","n_records":16,"is_active":false,"location_note":"座標為同名空品自動站（aqx_p_432）座標，非手動採樣器實際位置；僅表示該站所在區域","sampling_note":"手動採樣（濾紙秤重）約每 3 天 1 筆日平均，非即時；單位 μg/m3"}},{"type":"Feature","geometry":{"type":"Point","coordinates":[120.28676,22.633904]},"properties":{"station_name":"前金","county":"高雄市","auto_station_siteid":"56","latest_pm25_ugm3":23.0,"latest_valid_date":"2026-09-11","latest_record_date":"2026-09-11","latest_record_flag":null,"mean_12m_ugm3":15.84,"n_valid_12m":117,"mean_12m_flag":null,"mean_12m_window":"2025-09-12~2026-09-11","first_record_date":"2012-12-02","n_records":1648,"is_active":true,"location_note":"座標為同名空品自動站（aqx_p_432）座標，非手動採樣器實際位置；僅表示該站所在區域","sampling_note":"手動採樣（濾紙秤重）約每 3 天 1 筆日平均，非即時；單位 μg/m3"}},{"type":"Feature","geometry":{"type":"Point","coordinates":[120.6853,23.913]},"properties":{"station_name":"南投","county":"南投縣","auto_station_siteid":"36","latest_pm25_ugm3":14.0,"latest_valid_date":"2026-09-11","latest_record_date":"2026-09-11","latest_record_flag":null,"mean_12m_ugm3":14.59,"n_valid_12m":116,"mean_12m_flag":null,"mean_12m_window":"2025-09-12~2026-09-11","first_record_date":"2012-12-02","n_records":1649,"is_active":true,"location_note":"座標為同名空品自動站（aqx_p_432）座標，非手動採樣器實際位置；僅表示該站所在區域","sampling_note":"手動採樣（濾紙秤重）約每 3 天 1 筆日平均，非即時；單位 μg/m3"}},{"type":"Feature","geometry":{"type":"Point","coordinates":[121.52956,25.020609]},"properties":{"station_name":"古亭","county":"臺北市","auto_station_siteid":"14","latest_pm25_ugm3":9.0,"latest_valid_date":"2019-05-30","latest_record_date":"2019-05-30","latest_record_flag":null,"mean_12m_ugm3":null,"n_valid_12m":0,"mean_12m_flag":"no_valid_in_window","mean_12m_window":"2025-09-12~2026-09-11","first_record_date":"2019-02-20","n_records":9,"is_active":false,"location_note":"座標為同名空品自動站（aqx_p_432）座標，非手動採樣器實際位置；僅表示該站所在區域","sampling_note":"手動採樣（濾紙秤重）約每 3 天 1 筆日平均，非即時；單位 μg/m3"}},{"type":"Feature","geometry":{"type":"Point","coordinates":[120.44125,23.464779]},"properties":{"station_name":"嘉義","county":"嘉義市","auto_station_siteid":"42","latest_pm25_ugm3":19.0,"latest_valid_date":"2026-09-11","latest_record_date":"2026-09-11","latest_record_flag":null,"mean_12m_ugm3":16.53,"n_valid_12m":116,"mean_12m_flag":null,"mean_12m_window":"2025-09-12~2026-09-11","first_record_date":"2012-12-02","n_records":1646,"is_active":true,"location_note":"座標為同名空品自動站（aqx_p_432）座標，非手動採樣器實際位置；僅表示該站所在區域","sampling_note":"手動採樣（濾紙秤重）約每 3 天 1 筆日平均，非即時；單位 μg/m3"}},{"type":"Feature","geometry":{"type":"Point","coordinates":[120.9679,23.968842]},"properties":{"station_name":"埔里","county":"南投縣","auto_station_siteid":"72","latest_pm25_ugm3":8.0,"latest_valid_date":"2019-06-20","latest_record_date":"2019-06-20","latest_record_flag":null,"mean_12m_ugm3":null,"n_valid_12m":0,"mean_12m_flag":"no_valid_in_window","mean_12m_window":"2025-09-12~2026-09-11","first_record_date":"2018-05-05","n_records":16,"is_active":false,"location_note":"座標為同名空品自動站（aqx_p_432）座標，非手動採樣器實際位置；僅表示該站所在區域","sampling_note":"手動採樣（濾紙秤重）約每 3 天 1 筆日平均，非即時；單位 μg/m3"}},{"type":"Feature","geometry":{"type":"Point","coordinates":[121.760056,25.129168]},"properties":{"station_name":"基隆","county":"基隆市","auto_station_siteid":"1","latest_pm25_ugm3":9.0,"latest_valid_date":"2026-09-11","latest_record_date":"2026-09-11","latest_record_flag":null,"mean_12m_ugm3":9.93,"n_valid_12m":117,"mean_12m_flag":null,"mean_12m_window":"2025-09-12~2026-09-11","first_record_date":"2012-12-02","n_records":1638,"is_active":true,"location_note":"座標為同名空品自動站（aqx_p_432）座標，非手動採樣器實際位置；僅表示該站所在區域","sampling_note":"手動採樣（濾紙秤重）約每 3 天 1 筆日平均，非即時；單位 μg/m3"}},{"type":"Feature","geometry":{"type":"Point","coordinates":[121.51666,25.10334]},"properties":{"station_name":"士林","county":"臺北市","auto_station_siteid":"11","latest_pm25_ugm3":9.0,"latest_valid_date":"2026-09-11","latest_record_date":"2026-09-11","latest_record_flag":null,"mean_12m_ugm3":9.98,"n_valid_12m":114,"mean_12m_flag":null,"mean_12m_window":"2025-09-12~2026-09-11","first_record_date":"2012-12-02","n_records":1630,"is_active":true,"location_note":"座標為同名空品自動站（aqx_p_432）座標，非手動採樣器實際位置；僅表示該站所在區域","sampling_note":"手動採樣（濾紙秤重）約每 3 天 1 筆日平均，非即時；單位 μg/m3"}},{"type":"Feature","geometry":{"type":"Point","coordinates":[121.51342,25.063314]},"properties":{"station_name":"大同","county":"臺北市","auto_station_siteid":"16","latest_pm25_ugm3":18.0,"latest_valid_date":"2018-05-17","latest_record_date":"2018-06-10","latest_record_flag":"empty","mean_12m_ugm3":null,"n_valid_12m":0,"mean_12m_flag":"no_valid_in_window","mean_12m_window":"2025-09-12~2026-09-11","first_record_date":"2018-05-05","n_records":13,"is_active":false,"location_note":"座標為同名空品自動站（aqx_p_432）座標，非手動採樣器實際位置；僅表示該站所在區域","sampling_note":"手動採樣（濾紙秤重）約每 3 天 1 筆日平均，非即時；單位 μg/m3"}},{"type":"Feature","geometry":{"type":"Point","coordinates":[120.678444,24.099611]},"properties":{"station_name":"大里","county":"臺中市","auto_station_siteid":"30","latest_pm25_ugm3":14.0,"latest_valid_date":"2019-03-07","latest_record_date":"2019-03-07","latest_record_flag":null,"mean_12m_ugm3":null,"n_valid_12m":0,"mean_12m_flag":"no_valid_in_window","mean_12m_window":"2025-09-12~2026-09-11","first_record_date":"2019-01-18","n_records":4,"is_active":false,"location_note":"座標為同名空品自動站（aqx_p_432）座標，非手動採樣器實際位置；僅表示該站所在區域","sampling_note":"手動採樣（濾紙秤重）約每 3 天 1 筆日平均，非即時；單位 μg/m3"}},{"type":"Feature","geometry":{"type":"Point","coordinates":[121.74639,24.747917]},"properties":{"station_name":"宜蘭","county":"宜蘭縣","auto_station_siteid":"65","latest_pm25_ugm3":7.0,"latest_valid_date":"2026-09-11","latest_record_date":"2026-09-11","latest_record_flag":null,"mean_12m_ugm3":8.13,"n_valid_12m":108,"mean_12m_flag":null,"mean_12m_window":"2025-09-12~2026-09-11","first_record_date":"2012-12-02","n_records":1643,"is_active":true,"location_note":"座標為同名空品自動站（aqx_p_432）座標，非手動採樣器實際位置；僅表示該站所在區域","sampling_note":"手動採樣（濾紙秤重）約每 3 天 1 筆日平均，非即時；單位 μg/m3"}},{"type":"Feature","geometry":{"type":"Point","coordinates":[120.48803,22.67308]},"properties":{"station_name":"屏東","county":"屏東縣","auto_station_siteid":"59","latest_pm25_ugm3":22.0,"latest_valid_date":"2026-09-11","latest_record_date":"2026-09-11","latest_record_flag":null,"mean_12m_ugm3":15.61,"n_valid_12m":118,"mean_12m_flag":null,"mean_12m_window":"2025-09-12~2026-09-11","first_record_date":"2012-12-02","n_records":1651,"is_active":true,"location_note":"座標為同名空品自動站（aqx_p_432）座標，非手動採樣器實際位置；僅表示該站所在區域","sampling_note":"手動採樣（濾紙秤重）約每 3 天 1 筆日平均，非即時；單位 μg/m3"}},{"type":"Feature","geometry":{"type":"Point","coordinates":[120.34874,23.757547]},"properties":{"station_name":"崙背","county":"雲林縣","auto_station_siteid":"38","latest_pm25_ugm3":5.0,"latest_valid_date":"2019-06-02","latest_record_date":"2019-06-02","latest_record_flag":null,"mean_12m_ugm3":null,"n_valid_12m":0,"mean_12m_flag":"no_valid_in_window","mean_12m_window":"2025-09-12~2026-09-11","first_record_date":"2019-02-20","n_records":13,"is_active":false,"location_note":"座標為同名空品自動站（aqx_p_432）座標，非手動採樣器實際位置；僅表示該站所在區域","sampling_note":"手動採樣（濾紙秤重）約每 3 天 1 筆日平均，非即時；單位 μg/m3"}},{"type":"Feature","geometry":{"type":"Point","coordinates":[120.292915,22.674862]},"properties":{"station_name":"左營","county":"高雄市","auto_station_siteid":"54","latest_pm25_ugm3":7.0,"latest_valid_date":"2018-05-17","latest_record_date":"2018-06-10","latest_record_flag":"empty","mean_12m_ugm3":null,"n_valid_12m":0,"mean_12m_flag":"no_valid_in_window","mean_12m_window":"2025-09-12~2026-09-11","first_record_date":"2018-05-05","n_records":13,"is_active":false,"location_note":"座標為同名空品自動站（aqx_p_432）座標，非手動採樣器實際位置；僅表示該站所在區域","sampling_note":"手動採樣（濾紙秤重）約每 3 天 1 筆日平均，非即時；單位 μg/m3"}},{"type":"Feature","geometry":{"type":"Point","coordinates":[121.20399,24.952785]},"properties":{"station_name":"平鎮","county":"桃園市","auto_station_siteid":"20","latest_pm25_ugm3":9.0,"latest_valid_date":"2026-09-11","latest_record_date":"2026-09-11","latest_record_flag":null,"mean_12m_ugm3":11.85,"n_valid_12m":117,"mean_12m_flag":null,"mean_12m_window":"2025-09-12~2026-09-11","first_record_date":"2015-01-12","n_records":1403,"is_active":true,"location_note":"座標為同名空品自動站（aqx_p_432）座標，非手動採樣器實際位置；僅表示該站所在區域","sampling_note":"手動採樣（濾紙秤重）約每 3 天 1 筆日平均，非即時；單位 μg/m3"}},{"type":"Feature","geometry":{"type":"Point","coordinates":[120.54152,24.066]},"properties":{"station_name":"彰化","county":"彰化縣","auto_station_siteid":"33","latest_pm25_ugm3":12.0,"latest_valid_date":"2026-09-11","latest_record_date":"2026-09-11","latest_record_flag":null,"mean_12m_ugm3":13.86,"n_valid_12m":118,"mean_12m_flag":null,"mean_12m_window":"2025-09-12~2026-09-11","first_record_date":"2015-01-03","n_records":1402,"is_active":true,"location_note":"座標為同名空品自動站（aqx_p_432）座標，非手動採樣器實際位置；僅表示該站所在區域","sampling_note":"手動採樣（濾紙秤重）約每 3 天 1 筆日平均，非即時；單位 μg/m3"}},{"type":"Feature","geometry":{"type":"Point","coordinates":[120.31202,22.608711]},"properties":{"station_name":"復興","county":"高雄市","auto_station_siteid":"71","latest_pm25_ugm3":39.0,"latest_valid_date":"2019-02-26","latest_record_date":"2019-02-26","latest_record_flag":null,"mean_12m_ugm3":null,"n_valid_12m":0,"mean_12m_flag":"no_valid_in_window","mean_12m_window":"2025-09-12~2026-09-11","first_record_date":"2019-01-30","n_records":10,"is_active":false,"location_note":"座標為同名空品自動站（aqx_p_432）座標，非手動採樣器實際位置；僅表示該站所在區域","sampling_note":"手動採樣（濾紙秤重）約每 3 天 1 筆日平均，非即時；單位 μg/m3"}},{"type":"Feature","geometry":{"type":"Point","coordinates":[120.64109,24.151958]},"properties":{"station_name":"忠明","county":"臺中市","auto_station_siteid":"31","latest_pm25_ugm3":9.0,"latest_valid_date":"2026-09-11","latest_record_date":"2026-09-11","latest_record_flag":null,"mean_12m_ugm3":13.24,"n_valid_12m":118,"mean_12m_flag":null,"mean_12m_window":"2025-09-12~2026-09-11","first_record_date":"2015-01-03","n_records":1402,"is_active":true,"location_note":"座標為同名空品自動站（aqx_p_432）座標，非手動採樣器實際位置；僅表示該站所在區域","sampling_note":"手動採樣（濾紙秤重）約每 3 天 1 筆日平均，非即時；單位 μg/m3"}},{"type":"Feature","geometry":{"type":"Point","coordinates":[120.788925,21.958069]},"properties":{"station_name":"恆春","county":"屏東縣","auto_station_siteid":"61","latest_pm25_ugm3":7.0,"latest_valid_date":"2026-09-11","latest_record_date":"2026-09-11","latest_record_flag":null,"mean_12m_ugm3":6.52,"n_valid_12m":114,"mean_12m_flag":null,"mean_12m_window":"2025-09-12~2026-09-11","first_record_date":"2015-01-03","n_records":1399,"is_active":true,"location_note":"座標為同名空品自動站（aqx_p_432）座標，非手動採樣器實際位置；僅表示該站所在區域","sampling_note":"手動採樣（濾紙秤重）約每 3 天 1 筆日平均，非即時；單位 μg/m3"}},{"type":"Feature","geometry":{"type":"Point","coordinates":[120.54499,23.711853]},"properties":{"station_name":"斗六","county":"雲林縣","auto_station_siteid":"37","latest_pm25_ugm3":17.0,"latest_valid_date":"2026-09-11","latest_record_date":"2026-09-11","latest_record_flag":null,"mean_12m_ugm3":17.64,"n_valid_12m":117,"mean_12m_flag":null,"mean_12m_window":"2025-09-12~2026-09-11","first_record_date":"2015-01-03","n_records":1399,"is_active":true,"location_note":"座標為同名空品自動站（aqx_p_432）座標，非手動採樣器實際位置；僅表示該站所在區域","sampling_note":"手動採樣（濾紙秤重）約每 3 天 1 筆日平均，非即時；單位 μg/m3"}},{"type":"Feature","geometry":{"type":"Point","coordinates":[120.31725,23.305634]},"properties":{"station_name":"新營","county":"臺南市","auto_station_siteid":"43","latest_pm25_ugm3":16.0,"latest_valid_date":"2026-09-11","latest_record_date":"2026-09-11","latest_record_flag":null,"mean_12m_ugm3":15.3,"n_valid_12m":118,"mean_12m_flag":null,"mean_12m_window":"2025-09-12~2026-09-11","first_record_date":"2015-01-03","n_records":1394,"is_active":true,"location_note":"座標為同名空品自動站（aqx_p_432）座標，非手動採樣器實際位置；僅表示該站所在區域","sampling_note":"手動採樣（濾紙秤重）約每 3 天 1 筆日平均，非即時；單位 μg/m3"}},{"type":"Feature","geometry":{"type":"Point","coordinates":[120.97237,24.805635]},"properties":{"station_name":"新竹","county":"新竹市","auto_station_siteid":"24","latest_pm25_ugm3":10.0,"latest_valid_date":"2026-09-11","latest_record_date":"2026-09-11","latest_record_flag":null,"mean_12m_ugm3":11.65,"n_valid_12m":115,"mean_12m_flag":null,"mean_12m_window":"2025-09-12~2026-09-11","first_record_date":"2015-01-03","n_records":1403,"is_active":true,"location_note":"座標為同名空品自動站（aqx_p_432）座標，非手動採樣器實際位置；僅表示該站所在區域","sampling_note":"手動採樣（濾紙秤重）約每 3 天 1 筆日平均，非即時；單位 μg/m3"}},{"type":"Feature","geometry":{"type":"Point","coordinates":[120.2478,23.46538]},"properties":{"station_name":"朴子","county":"嘉義縣","auto_station_siteid":"40","latest_pm25_ugm3":13.0,"latest_valid_date":"2026-09-11","latest_record_date":"2026-09-11","latest_record_flag":null,"mean_12m_ugm3":14.1,"n_valid_12m":118,"mean_12m_flag":null,"mean_12m_window":"2025-09-12~2026-09-11","first_record_date":"2015-01-03","n_records":1399,"is_active":true,"location_note":"座標為同名空品自動站（aqx_p_432）座標，非手動採樣器實際位置；僅表示該站所在區域","sampling_note":"手動採樣（濾紙秤重）約每 3 天 1 筆日平均，非即時；單位 μg/m3"}},{"type":"Feature","geometry":{"type":"Point","coordinates":[121.458664,25.012972]},"properties":{"station_name":"板橋","county":"新北市","auto_station_siteid":"6","latest_pm25_ugm3":8.0,"latest_valid_date":"2026-09-11","latest_record_date":"2026-09-11","latest_record_flag":null,"mean_12m_ugm3":10.76,"n_valid_12m":118,"mean_12m_flag":null,"mean_12m_window":"2025-09-12~2026-09-11","first_record_date":"2015-01-03","n_records":1404,"is_active":true,"location_note":"座標為同名空品自動站（aqx_p_432）座標，非手動採樣器實際位置；僅表示該站所在區域","sampling_note":"手動採樣（濾紙秤重）約每 3 天 1 筆日平均，非即時；單位 μg/m3"}},{"type":"Feature","geometry":{"type":"Point","coordinates":[120.41175,22.4795]},"properties":{"station_name":"林園","county":"高雄市","auto_station_siteid":"52","latest_pm25_ugm3":41.0,"latest_valid_date":"2019-02-26","latest_record_date":"2019-03-13","latest_record_flag":"empty","mean_12m_ugm3":null,"n_valid_12m":0,"mean_12m_flag":"no_valid_in_window","mean_12m_window":"2025-09-12~2026-09-11","first_record_date":"2018-05-05","n_records":101,"is_active":false,"location_note":"座標為同名空品自動站（aqx_p_432）座標，非手動採樣器實際位置；僅表示該站所在區域","sampling_note":"手動採樣（濾紙秤重）約每 3 天 1 筆日平均，非即時；單位 μg/m3"}},{"type":"Feature","geometry":{"type":"Point","coordinates":[121.30501,24.99471]},"properties":{"station_name":"桃園","county":"桃園市","auto_station_siteid":"17","latest_pm25_ugm3":9.0,"latest_valid_date":"2026-09-11","latest_record_date":"2026-09-11","latest_record_flag":null,"mean_12m_ugm3":11.62,"n_valid_12m":116,"mean_12m_flag":null,"mean_12m_window":"2025-09-12~2026-09-11","first_record_date":"2015-01-03","n_records":1395,"is_active":true,"location_note":"座標為同名空品自動站（aqx_p_432）座標，非手動採樣器實際位置；僅表示該站所在區域","sampling_note":"手動採樣（濾紙秤重）約每 3 天 1 筆日平均，非即時；單位 μg/m3"}},{"type":"Feature","geometry":{"type":"Point","coordinates":[120.30569,22.757505]},"properties":{"station_name":"橋頭","county":"高雄市","auto_station_siteid":"48","latest_pm25_ugm3":5.0,"latest_valid_date":"2019-07-02","latest_record_date":"2019-07-02","latest_record_flag":null,"mean_12m_ugm3":null,"n_valid_12m":0,"mean_12m_flag":"no_valid_in_window","mean_12m_window":"2025-09-12~2026-09-11","first_record_date":"2019-03-07","n_records":10,"is_active":false,"location_note":"座標為同名空品自動站（aqx_p_432）座標，非手動採樣器實際位置；僅表示該站所在區域","sampling_note":"手動採樣（濾紙秤重）約每 3 天 1 筆日平均，非即時；單位 μg/m3"}},{"type":"Feature","geometry":{"type":"Point","coordinates":[121.64081,25.06624]},"properties":{"station_name":"汐止","county":"新北市","auto_station_siteid":"2","latest_pm25_ugm3":8.0,"latest_valid_date":"2026-09-11","latest_record_date":"2026-09-11","latest_record_flag":null,"mean_12m_ugm3":10.39,"n_valid_12m":118,"mean_12m_flag":null,"mean_12m_window":"2025-09-12~2026-09-11","first_record_date":"2015-01-03","n_records":1402,"is_active":true,"location_note":"座標為同名空品自動站（aqx_p_432）座標，非手動採樣器實際位置；僅表示該站所在區域","sampling_note":"手動採樣（濾紙秤重）約每 3 天 1 筆日平均，非即時；單位 μg/m3"}},{"type":"Feature","geometry":{"type":"Point","coordinates":[120.568794,24.225628]},"properties":{"station_name":"沙鹿","county":"臺中市","auto_station_siteid":"29","latest_pm25_ugm3":9.0,"latest_valid_date":"2019-06-29","latest_record_date":"2019-06-29","latest_record_flag":null,"mean_12m_ugm3":null,"n_valid_12m":0,"mean_12m_flag":"no_valid_in_window","mean_12m_window":"2025-09-12~2026-09-11","first_record_date":"2019-06-11","n_records":4,"is_active":false,"location_note":"座標為同名空品自動站（aqx_p_432）座標，非手動採樣器實際位置；僅表示該站所在區域","sampling_note":"手動採樣（濾紙秤重）約每 3 天 1 筆日平均，非即時；單位 μg/m3"}},{"type":"Feature","geometry":{"type":"Point","coordinates":[121.08896,24.740913]},"properties":{"station_name":"竹東","county":"新竹縣","auto_station_siteid":"23","latest_pm25_ugm3":6.0,"latest_valid_date":"2026-09-11","latest_record_date":"2026-09-11","latest_record_flag":null,"mean_12m_ugm3":10.62,"n_valid_12m":116,"mean_12m_flag":null,"mean_12m_window":"2025-09-12~2026-09-11","first_record_date":"2015-01-03","n_records":1403,"is_active":true,"location_note":"座標為同名空品自動站（aqx_p_432）座標，非手動採樣器實際位置；僅表示該站所在區域","sampling_note":"手動採樣（濾紙秤重）約每 3 天 1 筆日平均，非即時；單位 μg/m3"}},{"type":"Feature","geometry":{"type":"Point","coordinates":[120.53054,22.883583]},"properties":{"station_name":"美濃","county":"高雄市","auto_station_siteid":"47","latest_pm25_ugm3":19.0,"latest_valid_date":"2026-09-11","latest_record_date":"2026-09-11","latest_record_flag":null,"mean_12m_ugm3":13.13,"n_valid_12m":117,"mean_12m_flag":null,"mean_12m_window":"2025-09-12~2026-09-11","first_record_date":"2015-01-03","n_records":1402,"is_active":true,"location_note":"座標為同名空品自動站（aqx_p_432）座標，非手動採樣器實際位置；僅表示該站所在區域","sampling_note":"手動採樣（濾紙秤重）約每 3 天 1 筆日平均，非即時；單位 μg/m3"}},{"type":"Feature","geometry":{"type":"Point","coordinates":[120.21948,22.989283]},"properties":{"station_name":"臺南","county":"臺南市","auto_station_siteid":"46","latest_pm25_ugm3":21.0,"latest_valid_date":"2026-09-11","latest_record_date":"2026-09-11","latest_record_flag":null,"mean_12m_ugm3":15.62,"n_valid_12m":117,"mean_12m_flag":null,"mean_12m_window":"2025-09-12~2026-09-11","first_record_date":"2015-01-03","n_records":1403,"is_active":true,"location_note":"座標為同名空品自動站（aqx_p_432）座標，非手動採樣器實際位置；僅表示該站所在區域","sampling_note":"手動採樣（濾紙秤重）約每 3 天 1 筆日平均，非即時；單位 μg/m3"}},{"type":"Feature","geometry":{"type":"Point","coordinates":[121.15045,22.755358]},"properties":{"station_name":"臺東","county":"臺東縣","auto_station_siteid":"62","latest_pm25_ugm3":9.0,"latest_valid_date":"2026-09-11","latest_record_date":"2026-09-11","latest_record_flag":null,"mean_12m_ugm3":6.8,"n_valid_12m":115,"mean_12m_flag":null,"mean_12m_window":"2025-09-12~2026-09-11","first_record_date":"2015-01-03","n_records":1404,"is_active":true,"location_note":"座標為同名空品自動站（aqx_p_432）座標，非手動採樣器實際位置；僅表示該站所在區域","sampling_note":"手動採樣（濾紙秤重）約每 3 天 1 筆日平均，非即時；單位 μg/m3"}},{"type":"Feature","geometry":{"type":"Point","coordinates":[120.19933,23.702175]},"properties":{"station_name":"臺西","county":"雲林縣","auto_station_siteid":"41","latest_pm25_ugm3":8.0,"latest_valid_date":"2018-05-17","latest_record_date":"2018-06-10","latest_record_flag":"empty","mean_12m_ugm3":null,"n_valid_12m":0,"mean_12m_flag":"no_valid_in_window","mean_12m_window":"2025-09-12~2026-09-11","first_record_date":"2018-05-05","n_records":13,"is_active":false,"location_note":"座標為同名空品自動站（aqx_p_432）座標，非手動採樣器實際位置；僅表示該站所在區域","sampling_note":"手動採樣（濾紙秤重）約每 3 天 1 筆日平均，非即時；單位 μg/m3"}},{"type":"Feature","geometry":{"type":"Point","coordinates":[121.59977,23.971306]},"properties":{"station_name":"花蓮","county":"花蓮縣","auto_station_siteid":"63","latest_pm25_ugm3":9.0,"latest_valid_date":"2026-09-11","latest_record_date":"2026-09-11","latest_record_flag":null,"mean_12m_ugm3":7.34,"n_valid_12m":116,"mean_12m_flag":null,"mean_12m_window":"2025-09-12~2026-09-11","first_record_date":"2015-01-03","n_records":1400,"is_active":true,"location_note":"座標為同名空品自動站（aqx_p_432）座標，非手動採樣器實際位置；僅表示該站所在區域","sampling_note":"手動採樣（濾紙秤重）約每 3 天 1 筆日平均，非即時；單位 μg/m3"}},{"type":"Feature","geometry":{"type":"Point","coordinates":[120.820114,24.564991]},"properties":{"station_name":"苗栗","county":"苗栗縣","auto_station_siteid":"26","latest_pm25_ugm3":8.0,"latest_valid_date":"2026-09-11","latest_record_date":"2026-09-11","latest_record_flag":null,"mean_12m_ugm3":11.67,"n_valid_12m":118,"mean_12m_flag":null,"mean_12m_window":"2025-09-12~2026-09-11","first_record_date":"2015-01-03","n_records":1396,"is_active":true,"location_note":"座標為同名空品自動站（aqx_p_432）座標，非手動採樣器實際位置；僅表示該站所在區域","sampling_note":"手動採樣（濾紙秤重）約每 3 天 1 筆日平均，非即時；單位 μg/m3"}},{"type":"Feature","geometry":{"type":"Point","coordinates":[121.50797,25.046503]},"properties":{"station_name":"萬華","county":"臺北市","auto_station_siteid":"13","latest_pm25_ugm3":9.0,"latest_valid_date":"2026-09-11","latest_record_date":"2026-09-11","latest_record_flag":null,"mean_12m_ugm3":10.47,"n_valid_12m":115,"mean_12m_flag":null,"mean_12m_window":"2025-09-12~2026-09-11","first_record_date":"2015-01-03","n_records":1397,"is_active":true,"location_note":"座標為同名空品自動站（aqx_p_432）座標，非手動採樣器實際位置；僅表示該站所在區域","sampling_note":"手動採樣（濾紙秤重）約每 3 天 1 筆日平均，非即時；單位 μg/m3"}},{"type":"Feature","geometry":{"type":"Point","coordinates":[120.61692,24.162197]},"properties":{"station_name":"西屯","county":"臺中市","auto_station_siteid":"32","latest_pm25_ugm3":8.0,"latest_valid_date":"2019-06-20","latest_record_date":"2019-06-20","latest_record_flag":null,"mean_12m_ugm3":null,"n_valid_12m":0,"mean_12m_flag":"no_valid_in_window","mean_12m_window":"2025-09-12~2026-09-11","first_record_date":"2019-04-18","n_records":7,"is_active":false,"location_note":"座標為同名空品自動站（aqx_p_432）座標，非手動採樣器實際位置；僅表示該站所在區域","sampling_note":"手動採樣（濾紙秤重）約每 3 天 1 筆日平均，非即時；單位 μg/m3"}},{"type":"Feature","geometry":{"type":"Point","coordinates":[121.08283,25.035568]},"properties":{"station_name":"觀音","county":"桃園市","auto_station_siteid":"19","latest_pm25_ugm3":6.0,"latest_valid_date":"2019-06-02","latest_record_date":"2019-06-02","latest_record_flag":null,"mean_12m_ugm3":null,"n_valid_12m":0,"mean_12m_flag":"no_valid_in_window","mean_12m_window":"2025-09-12~2026-09-11","first_record_date":"2019-03-22","n_records":8,"is_active":false,"location_note":"座標為同名空品自動站（aqx_p_432）座標，非手動採樣器實際位置；僅表示該站所在區域","sampling_note":"手動採樣（濾紙秤重）約每 3 天 1 筆日平均，非即時；單位 μg/m3"}},{"type":"Feature","geometry":{"type":"Point","coordinates":[120.74252,24.256998]},"properties":{"station_name":"豐原","county":"臺中市","auto_station_siteid":"28","latest_pm25_ugm3":7.0,"latest_valid_date":"2026-09-11","latest_record_date":"2026-09-11","latest_record_flag":null,"mean_12m_ugm3":12.07,"n_valid_12m":116,"mean_12m_flag":null,"mean_12m_window":"2025-09-12~2026-09-11","first_record_date":"2015-01-03","n_records":1404,"is_active":true,"location_note":"座標為同名空品自動站（aqx_p_432）座標，非手動採樣器實際位置；僅表示該站所在區域","sampling_note":"手動採樣（濾紙秤重）約每 3 天 1 筆日平均，非即時；單位 μg/m3"}},{"type":"Feature","geometry":{"type":"Point","coordinates":[118.312256,24.432133]},"properties":{"station_name":"金門","county":"金門縣","auto_station_siteid":"77","latest_pm25_ugm3":14.0,"latest_valid_date":"2026-09-11","latest_record_date":"2026-09-11","latest_record_flag":null,"mean_12m_ugm3":15.35,"n_valid_12m":118,"mean_12m_flag":null,"mean_12m_window":"2025-09-12~2026-09-11","first_record_date":"2015-01-03","n_records":1390,"is_active":true,"location_note":"座標為同名空品自動站（aqx_p_432）座標，非手動採樣器實際位置；僅表示該站所在區域","sampling_note":"手動採樣（濾紙秤重）約每 3 天 1 筆日平均，非即時；單位 μg/m3"}},{"type":"Feature","geometry":{"type":"Point","coordinates":[121.52959,25.182722]},"properties":{"station_name":"陽明","county":"臺北市","auto_station_siteid":"64","latest_pm25_ugm3":3.0,"latest_valid_date":"2026-09-11","latest_record_date":"2026-09-11","latest_record_flag":null,"mean_12m_ugm3":8.15,"n_valid_12m":88,"mean_12m_flag":null,"mean_12m_window":"2025-09-12~2026-09-11","first_record_date":"2015-01-03","n_records":1394,"is_active":true,"location_note":"座標為同名空品自動站（aqx_p_432）座標，非手動採樣器實際位置；僅表示該站所在區域","sampling_note":"手動採樣（濾紙秤重）約每 3 天 1 筆日平均，非即時；單位 μg/m3"}},{"type":"Feature","geometry":{"type":"Point","coordinates":[119.566154,23.56903]},"properties":{"station_name":"馬公","county":"澎湖縣","auto_station_siteid":"78","latest_pm25_ugm3":12.0,"latest_valid_date":"2026-09-11","latest_record_date":"2026-09-11","latest_record_flag":null,"mean_12m_ugm3":10.61,"n_valid_12m":117,"mean_12m_flag":null,"mean_12m_window":"2025-09-12~2026-09-11","first_record_date":"2015-01-03","n_records":1397,"is_active":true,"location_note":"座標為同名空品自動站（aqx_p_432）座標，非手動採樣器實際位置；僅表示該站所在區域","sampling_note":"手動採樣（濾紙秤重）約每 3 天 1 筆日平均，非即時；單位 μg/m3"}},{"type":"Feature","geometry":{"type":"Point","coordinates":[119.95272,26.153736]},"properties":{"station_name":"馬祖","county":"連江縣","auto_station_siteid":"75","latest_pm25_ugm3":14.0,"latest_valid_date":"2026-09-11","latest_record_date":"2026-09-11","latest_record_flag":null,"mean_12m_ugm3":14.57,"n_valid_12m":115,"mean_12m_flag":null,"mean_12m_window":"2025-09-12~2026-09-11","first_record_date":"2015-01-03","n_records":1388,"is_active":true,"location_note":"座標為同名空品自動站（aqx_p_432）座標，非手動採樣器實際位置；僅表示該站所在區域","sampling_note":"手動採樣（濾紙秤重）約每 3 天 1 筆日平均，非即時；單位 μg/m3"}}]}