{"type":"FeatureCollection","name":"river_rpi_segments_tamsui_trial","crs":{"type":"name","properties":{"name":"urn:ogc:def:crs:OGC:1.3:CRS84"}},"features":[{"type":"Feature","properties":{"segment_id":"114011110-1041","river_code":"114011110","river_name":"三峽河","wra_river_name":"三峽溪","from_station":"1041","from_station_name":"三峽河抽水站(取代醒心橋)","to_station":"1042","to_station_name":"三峽大橋","to_node":"station","rpi_latest":1.0,"rpi_latest_date":"2026-08-04T00:00:00","class_latest":"未(稍)受污染","rpi_12m_mean":1.0,"class_12m_mean":"未(稍)受污染","n_samples_12m":11,"length_km":5.62,"tidal":"unknown","direction":"verified","match_rule":"dist<=200m","station_dist_m":22.1,"method":"estimated","caveats":"method=estimated：測站代表其下游至下一站，非連續監測；中心線來自 OSM（ODbL），river_code 來自 WRA GIC 河道面"},"geometry":{"type":"LineString","coordinates":[[121.373992,24.895673],[121.373972,24.895784],[121.373914,24.896332],[121.373902,24.896602],[121.373855,24.897717],[121.37311,24.897394],[121.372235,24.897092],[121.371895,24.897228],[121.37165,24.897759],[121.371528,24.898022],[121.371555,24.898948],[121.371537,24.899387],[121.370556,24.900135],[121.369709,24.900128],[121.36886,24.900124],[121.36803,24.900159],[121.367791,24.900346],[121.367729,24.900506],[121.368406,24.901005],[121.369456,24.901274],[121.37058,24.901747],[121.370855,24.90197],[121.370991,24.902374],[121.371141,24.902791],[121.371039,24.90334],[121.370785,24.90403],[121.370475,24.904742],[121.370085,24.905167],[121.369357,24.905529],[121.367892,24.905821],[121.367706,24.90597],[121.367367,24.90655],[121.367344,24.906997],[121.367382,24.907374],[121.367362,24.907828],[121.367428,24.90812],[121.367627,24.909296],[121.367766,24.909714],[121.367915,24.910026],[121.367843,24.910526],[121.367784,24.910986],[121.367774,24.91152],[121.367657,24.911958],[121.367771,24.912354],[121.36774,24.912929],[121.367625,24.915168],[121.367611,24.916295],[121.367731,24.916865],[121.368266,24.919043],[121.368539,24.919833],[121.368806,24.921066],[121.368842,24.921255],[121.368993,24.924406],[121.369089,24.925276],[121.369503,24.926874],[121.370318,24.929115],[121.370815,24.932486],[121.370981,24.932932],[121.371144,24.933152],[121.371523,24.933495],[121.371928,24.933707],[121.374291,24.934746],[121.374748,24.934908]]}},{"type":"Feature","properties":{"segment_id":"114011110-1042","river_code":"114011110","river_name":"三峽河","wra_river_name":"三峽溪","from_station":"1042","from_station_name":"三峽大橋","to_station":null,"to_station_name":null,"to_node":"confluence:大漢溪","rpi_latest":4.75,"rpi_latest_date":"2026-08-04T00:00:00","class_latest":"中度污染","rpi_12m_mean":3.295,"class_12m_mean":"中度污染","n_samples_12m":11,"length_km":6.296,"tidal":"unknown","direction":"verified","match_rule":"dist<=200m","station_dist_m":32.7,"method":"estimated","caveats":"method=estimated：測站代表其下游至下一站，非連續監測；中心線來自 OSM（ODbL），river_code 來自 WRA GIC 河道面；最下游站延伸至河線終點（confluence:大漢溪），中間無測站"},"geometry":{"type":"LineString","coordinates":[[121.374748,24.934908],[121.375101,24.935032],[121.375661,24.935002],[121.376228,24.934949],[121.376912,24.934895],[121.377766,24.934479],[121.379995,24.932968],[121.380806,24.932497],[121.381514,24.932198],[121.382298,24.931991],[121.382549,24.931925],[121.383126,24.931807],[121.383418,24.931756],[121.383806,24.931778],[121.384076,24.93179],[121.38433,24.931863],[121.384891,24.932185],[121.385255,24.932416],[121.385778,24.932987],[121.386343,24.933617],[121.38661,24.934041],[121.386792,24.934463],[121.386985,24.935032],[121.38732,24.935765],[121.387743,24.936534],[121.388117,24.937215],[121.388626,24.937568],[121.38939,24.93791],[121.390195,24.938296],[121.391275,24.938728],[121.391816,24.938882],[121.39248,24.939116],[121.39312,24.939285],[121.394154,24.939616],[121.394562,24.940393],[121.39486,24.940905],[121.395303,24.941602],[121.395663,24.942217],[121.395961,24.94286],[121.396018,24.943024],[121.396127,24.943233],[121.396318,24.943564],[121.396491,24.943896],[121.397493,24.944434],[121.398526,24.944781],[121.399014,24.944943],[121.399458,24.945193],[121.399947,24.945463],[121.400503,24.945983],[121.401018,24.946277],[121.401612,24.946395],[121.402133,24.946533],[121.402443,24.946723],[121.402604,24.947087],[121.402646,24.94733],[121.402774,24.947661],[121.403222,24.948353],[121.403377,24.948832],[121.403955,24.949719],[121.404919,24.950083],[121.405288,24.950259],[121.406453,24.950817],[121.408157,24.951761],[121.408427,24.951948],[121.409759,24.953013],[121.410531,24.954368],[121.411071,24.955563],[121.410902,24.956941],[121.410455,24.958052],[121.410223,24.958933],[121.41007,24.959551],[121.410046,24.960399],[121.410074,24.961259],[121.41021,24.962069],[121.410298,24.962421],[121.410436,24.963369],[121.410616,24.964546],[121.410796,24.965255],[121.410855,24.965489],[121.411141,24.965825],[121.41165,24.966133],[121.4118,24.966175]]}},{"type":"Feature","properties":{"segment_id":"114030110-1037","river_code":"114030110","river_name":"基隆河","wra_river_name":"基隆河","from_station":"1037","from_station_name":"貂嶺車站","to_station":"1038","to_station_name":"侯硐車站","to_node":"station","rpi_latest":1.0,"rpi_latest_date":"2026-08-04T00:00:00","class_latest":"未(稍)受污染","rpi_12m_mean":1.0,"class_12m_mean":"未(稍)受污染","n_samples_12m":11,"length_km":2.77,"tidal":"partial_unverified","direction":"verified","match_rule":"dist<=200m","station_dist_m":3.7,"method":"estimated","caveats":"method=estimated：測站代表其下游至下一站，非連續監測；中心線來自 OSM（ODbL），river_code 來自 WRA GIC 河道面；下游可能感潮，感潮界線未以潮位資料驗證"},"geometry":{"type":"LineString","coordinates":[[121.822852,25.065954],[121.822739,25.066203],[121.822509,25.06683],[121.822414,25.067633],[121.822365,25.067903],[121.822345,25.068273],[121.822421,25.068758],[121.822453,25.068994],[121.822554,25.069086],[121.822696,25.069213],[121.822957,25.069436],[121.823248,25.069622],[121.823667,25.069839],[121.823905,25.07002],[121.824057,25.070235],[121.824108,25.070617],[121.824013,25.07094],[121.823886,25.071243],[121.823844,25.071706],[121.823898,25.072097],[121.824036,25.072346],[121.824156,25.072719],[121.824134,25.073147],[121.824192,25.073561],[121.824131,25.074073],[121.824013,25.074772],[121.824157,25.075506],[121.824223,25.075812],[121.824263,25.076376],[121.82451,25.077152],[121.824911,25.077814],[121.825104,25.07796],[121.825265,25.078321],[121.825342,25.078572],[121.825401,25.078882],[121.825315,25.079083],[121.825335,25.079261],[121.825328,25.079547],[121.825073,25.079859],[121.824998,25.080049],[121.824975,25.080317],[121.824876,25.080601],[121.82487,25.080851],[121.824762,25.081211],[121.824778,25.081439],[121.824795,25.081837],[121.824929,25.082173],[121.825164,25.082529],[121.825125,25.083015],[121.825073,25.083607],[121.825138,25.083799],[121.82536,25.084013],[121.825433,25.084056],[121.825818,25.084282],[121.82622,25.084453],[121.826632,25.084703],[121.82693,25.085004],[121.827171,25.085412],[121.827223,25.085468],[121.827515,25.08578],[121.827721,25.085973],[121.828505,25.086556],[121.828533,25.087029],[121.828543,25.08722],[121.82857,25.087684],[121.828692,25.088149]]}},{"type":"Feature","properties":{"segment_id":"114030110-1038","river_code":"114030110","river_name":"基隆河","wra_river_name":"基隆河","from_station":"1038","from_station_name":"侯硐車站","to_station":"1005","to_station_name":"介壽橋","to_node":"station","rpi_latest":1.0,"rpi_latest_date":"2026-08-04T00:00:00","class_latest":"未(稍)受污染","rpi_12m_mean":1.0,"class_12m_mean":"未(稍)受污染","n_samples_12m":11,"length_km":5.297,"tidal":"partial_unverified","direction":"verified","match_rule":"dist<=200m","station_dist_m":2.3,"method":"estimated","caveats":"method=estimated：測站代表其下游至下一站，非連續監測；中心線來自 OSM（ODbL），river_code 來自 WRA GIC 河道面；下游可能感潮，感潮界線未以潮位資料驗證"},"geometry":{"type":"LineString","coordinates":[[121.828692,25.088149],[121.828734,25.088309],[121.829139,25.088877],[121.829976,25.089446],[121.83067,25.089895],[121.831035,25.090133],[121.831545,25.090689],[121.831614,25.090861],[121.832108,25.092099],[121.832243,25.092594],[121.832369,25.093058],[121.832356,25.093899],[121.832343,25.094763],[121.832592,25.095699],[121.83301,25.096611],[121.83352,25.097641],[121.833593,25.097816],[121.83386,25.098458],[121.833912,25.099405],[121.833747,25.100329],[121.832982,25.101079],[121.832685,25.101297],[121.831702,25.101974],[121.830908,25.102401],[121.830507,25.102971],[121.830338,25.103424],[121.830284,25.103571],[121.830268,25.103708],[121.83022,25.104728],[121.830183,25.104852],[121.83014,25.104957],[121.830079,25.105077],[121.829998,25.105189],[121.829919,25.105268],[121.829833,25.105341],[121.8297,25.105429],[121.829345,25.105586],[121.828985,25.105753],[121.828082,25.106244],[121.827288,25.106504],[121.826371,25.106511],[121.82516,25.106313],[121.824579,25.105801],[121.823548,25.104334],[121.823247,25.103609],[121.822601,25.103364],[121.822369,25.103277],[121.822022,25.103334],[121.821513,25.103418],[121.820708,25.103926],[121.81986,25.104393],[121.818745,25.105695],[121.818218,25.106508],[121.81818,25.106568],[121.817932,25.106951],[121.817798,25.107361],[121.817515,25.107806],[121.817184,25.107966],[121.816879,25.10799],[121.816634,25.108072],[121.816078,25.108402],[121.815557,25.10836],[121.814507,25.108203],[121.812699,25.107605],[121.812099,25.107585],[121.810845,25.107516],[121.809777,25.107206],[121.809364,25.106839],[121.808861,25.106465],[121.808367,25.105956],[121.807974,25.105646],[121.807629,25.10548],[121.806747,25.105662],[121.805416,25.106426]]}},{"type":"Feature","properties":{"segment_id":"114030110-1005","river_code":"114030110","river_name":"基隆河","wra_river_name":"基隆河","from_station":"1005","from_station_name":"介壽橋","to_station":"1006","to_station_name":"暖江橋","to_node":"station","rpi_latest":2.25,"rpi_latest_date":"2026-08-04T00:00:00","class_latest":"輕度污染","rpi_12m_mean":1.25,"class_12m_mean":"未(稍)受污染","n_samples_12m":11,"length_km":9.625,"tidal":"partial_unverified","direction":"verified","match_rule":"dist<=200m","station_dist_m":2.9,"method":"estimated","caveats":"method=estimated：測站代表其下游至下一站，非連續監測；中心線來自 OSM（ODbL），river_code 來自 WRA GIC 河道面；下游可能感潮，感潮界線未以潮位資料驗證"},"geometry":{"type":"LineString","coordinates":[[121.805416,25.106426],[121.805399,25.106436],[121.804801,25.106645],[121.803353,25.10715],[121.802344,25.107438],[121.801379,25.107731],[121.800635,25.107958],[121.799804,25.10812],[121.799466,25.108562],[121.799224,25.108986],[121.798887,25.109655],[121.798547,25.110298],[121.797975,25.111026],[121.79762,25.111792],[121.797316,25.112204],[121.797043,25.112301],[121.796509,25.112263],[121.79589,25.112345],[121.794644,25.112566],[121.794597,25.112574],[121.793557,25.112854],[121.792677,25.112877],[121.792137,25.11272],[121.791589,25.112641],[121.790305,25.11206],[121.789109,25.111294],[121.788359,25.110731],[121.78695,25.109784],[121.786224,25.108601],[121.785996,25.107572],[121.785797,25.106533],[121.785581,25.105767],[121.785212,25.105138],[121.784844,25.104591],[121.784477,25.104084],[121.784081,25.103639],[121.784254,25.102623],[121.784229,25.102211],[121.784156,25.101736],[121.784001,25.101025],[121.78368,25.100533],[121.783216,25.100535],[121.782423,25.100807],[121.781695,25.101154],[121.780948,25.101044],[121.780709,25.100988],[121.779197,25.100594],[121.777748,25.100429],[121.777038,25.100357],[121.776703,25.100511],[121.776524,25.100874],[121.776059,25.101466],[121.775724,25.101744],[121.775565,25.102109],[121.775661,25.102325],[121.775931,25.10251],[121.775907,25.102738],[121.775875,25.103035],[121.77594,25.103842],[121.775917,25.104485],[121.775912,25.104645],[121.776343,25.105496],[121.776603,25.105893],[121.776725,25.106608],[121.776586,25.107215],[121.776441,25.107654],[121.776001,25.108269],[121.775587,25.108502],[121.775254,25.108688],[121.774251,25.108717],[121.773538,25.108809],[121.772865,25.108868],[121.771999,25.109023],[121.771656,25.109079],[121.771402,25.109121],[121.771187,25.109006],[121.77095,25.108879],[121.77056,25.108254],[121.770429,25.107598],[121.770309,25.107131],[121.770211,25.106582],[121.769934,25.106278],[121.769297,25.105594],[121.768371,25.104561],[121.76793,25.103338],[121.76743,25.102605],[121.76668,25.101679],[121.766533,25.101328],[121.766325,25.10083],[121.765978,25.09984],[121.765646,25.09912],[121.765183,25.098893],[121.764484,25.098891],[121.763851,25.099055],[121.763405,25.099138],[121.76314,25.099311],[121.762871,25.099454],[121.76253,25.099804],[121.761983,25.100015],[121.761359,25.100099],[121.760957,25.100205],[121.760634,25.100297],[121.759858,25.100612],[121.759196,25.100884],[121.757831,25.101365],[121.757321,25.101548],[121.756676,25.101711],[121.756347,25.101741],[121.756185,25.101675],[121.755734,25.101514],[121.755159,25.101351],[121.75462,25.101255],[121.753834,25.101009],[121.752587,25.100513],[121.751956,25.100299],[121.750707,25.09984],[121.750704,25.099835],[121.750159,25.099672],[121.749178,25.09939],[121.748364,25.09927],[121.747901,25.099324],[121.747539,25.09949],[121.747316,25.099693],[121.747175,25.100192],[121.747195,25.100785],[121.746919,25.101454],[121.746503,25.102112],[121.746327,25.102347],[121.745821,25.102798],[121.74492,25.102843],[121.744164,25.102748],[121.742819,25.102649],[121.741724,25.102863],[121.74163,25.102867]]}},{"type":"Feature","properties":{"segment_id":"114030110-1006","river_code":"114030110","river_name":"基隆河","wra_river_name":"基隆河","from_station":"1006","from_station_name":"暖江橋","to_station":"1007","to_station_name":"六合橋","to_node":"station","rpi_latest":2.75,"rpi_latest_date":"2026-08-04T00:00:00","class_latest":"輕度污染","rpi_12m_mean":1.205,"class_12m_mean":"未(稍)受污染","n_samples_12m":11,"length_km":6.257,"tidal":"partial_unverified","direction":"verified","match_rule":"dist<=200m","station_dist_m":3.4,"method":"estimated","caveats":"method=estimated：測站代表其下游至下一站，非連續監測；中心線來自 OSM（ODbL），river_code 來自 WRA GIC 河道面；下游可能感潮，感潮界線未以潮位資料驗證"},"geometry":{"type":"LineString","coordinates":[[121.74163,25.102867],[121.740999,25.102892],[121.739275,25.103227],[121.739041,25.103299],[121.738636,25.103447],[121.737703,25.103787],[121.737524,25.10392],[121.736586,25.104839],[121.735927,25.105631],[121.735017,25.107179],[121.734563,25.1081],[121.734149,25.108671],[121.732999,25.110163],[121.732475,25.110865],[121.732166,25.111115],[121.731963,25.111258],[121.731676,25.111359],[121.731448,25.11139],[121.731136,25.111353],[121.728803,25.110719],[121.728243,25.110522],[121.727894,25.110365],[121.727591,25.110184],[121.727392,25.110003],[121.72716,25.109765],[121.726985,25.109538],[121.726394,25.108623],[121.726065,25.108045],[121.725753,25.107468],[121.725514,25.10685],[121.72526,25.105586],[121.725054,25.104705],[121.724746,25.103948],[121.724415,25.103125],[121.724209,25.102751],[121.723886,25.10241],[121.723417,25.102],[121.722817,25.101577],[121.722672,25.101503],[121.721553,25.100926],[121.720976,25.100667],[121.720452,25.100527],[121.719885,25.100448],[121.71919,25.100346],[121.718721,25.100285],[121.718243,25.100285],[121.717842,25.100337],[121.715946,25.100895],[121.714831,25.100952],[121.713003,25.10055],[121.712817,25.100509],[121.710278,25.099702],[121.708715,25.09893],[121.707606,25.098146],[121.707422,25.097952],[121.70726,25.097739],[121.707189,25.09757],[121.707131,25.097404],[121.707147,25.097232],[121.707212,25.097116],[121.707341,25.097024],[121.707557,25.096953],[121.707898,25.096868],[121.708476,25.096655],[121.708915,25.096478],[121.709654,25.095521],[121.709838,25.094481],[121.709835,25.094063],[121.709806,25.093534],[121.709707,25.093135],[121.709504,25.092712],[121.7088,25.092037],[121.707433,25.091225],[121.706829,25.091305],[121.705722,25.091864],[121.704377,25.092933],[121.704071,25.093447],[121.703724,25.094645],[121.703713,25.094768]]}},{"type":"Feature","properties":{"segment_id":"114030110-1007","river_code":"114030110","river_name":"基隆河","wra_river_name":"基隆河","from_station":"1007","from_station_name":"六合橋","to_station":"1008","to_station_name":"實踐橋","to_node":"station","rpi_latest":2.75,"rpi_latest_date":"2026-08-04T00:00:00","class_latest":"輕度污染","rpi_12m_mean":1.818,"class_12m_mean":"未(稍)受污染","n_samples_12m":11,"length_km":3.358,"tidal":"partial_unverified","direction":"verified","match_rule":"dist<=200m","station_dist_m":4.6,"method":"estimated","caveats":"method=estimated：測站代表其下游至下一站，非連續監測；中心線來自 OSM（ODbL），river_code 來自 WRA GIC 河道面；下游可能感潮，感潮界線未以潮位資料驗證"},"geometry":{"type":"LineString","coordinates":[[121.703713,25.094768],[121.703653,25.095437],[121.703485,25.096446],[121.703068,25.096671],[121.70206,25.09686],[121.700922,25.0968],[121.699861,25.096787],[121.699182,25.096321],[121.698434,25.095497],[121.697919,25.094336],[121.697444,25.092832],[121.697196,25.091755],[121.697788,25.090457],[121.698549,25.088676],[121.699486,25.086276],[121.700442,25.084379],[121.701552,25.082024],[121.701587,25.081626],[121.701423,25.081063],[121.700806,25.080383],[121.699382,25.079873],[121.698201,25.0797],[121.695423,25.078908],[121.694042,25.07857],[121.693314,25.078661]]}},{"type":"Feature","properties":{"segment_id":"114030110-1008","river_code":"114030110","river_name":"基隆河","wra_river_name":"基隆河","from_station":"1008","from_station_name":"實踐橋","to_station":"1009","to_station_name":"江北橋","to_node":"station","rpi_latest":3.25,"rpi_latest_date":"2026-08-04T00:00:00","class_latest":"中度污染","rpi_12m_mean":1.864,"class_12m_mean":"未(稍)受污染","n_samples_12m":11,"length_km":6.672,"tidal":"partial_unverified","direction":"verified","match_rule":"dist<=200m","station_dist_m":13.4,"method":"estimated","caveats":"method=estimated：測站代表其下游至下一站，非連續監測；中心線來自 OSM（ODbL），river_code 來自 WRA GIC 河道面；下游可能感潮，感潮界線未以潮位資料驗證"},"geometry":{"type":"LineString","coordinates":[[121.693314,25.078661],[121.693301,25.078663],[121.692655,25.0788],[121.691364,25.079282],[121.691144,25.079567],[121.690933,25.079845],[121.691084,25.080371],[121.691583,25.080866],[121.693345,25.081927],[121.693609,25.082623],[121.693348,25.084271],[121.693165,25.08497],[121.692886,25.085866],[121.69248,25.086461],[121.6919,25.086908],[121.69113,25.086945],[121.688469,25.08613],[121.687285,25.085256],[121.684004,25.08307],[121.683852,25.083007],[121.682441,25.082429],[121.681955,25.082304],[121.681345,25.082523],[121.681137,25.083158],[121.681289,25.083993],[121.681712,25.085394],[121.681796,25.086474],[121.681685,25.087184],[121.681544,25.087457],[121.681366,25.087806],[121.680873,25.088176],[121.680318,25.088157],[121.679634,25.087865],[121.678948,25.087402],[121.677284,25.085913],[121.676834,25.085224],[121.675169,25.083503],[121.674067,25.082944],[121.673241,25.082957],[121.671889,25.082762],[121.671274,25.08252],[121.671074,25.082367],[121.670859,25.081977],[121.670195,25.081075],[121.669847,25.08071],[121.669448,25.08022],[121.667939,25.079119],[121.666339,25.078102],[121.665457,25.077398],[121.663447,25.076627],[121.663168,25.07652],[121.661542,25.076086],[121.660613,25.075564],[121.659779,25.07434],[121.659692,25.074062],[121.659609,25.073428],[121.659025,25.070922],[121.658574,25.070335],[121.65822,25.069961],[121.657378,25.069568],[121.657062,25.069421],[121.655607,25.068624]]}},{"type":"Feature","properties":{"segment_id":"114030110-1009","river_code":"114030110","river_name":"基隆河","wra_river_name":"基隆河","from_station":"1009","from_station_name":"江北橋","to_station":"1269","to_station_name":"南湖大橋","to_node":"station","rpi_latest":2.25,"rpi_latest_date":"2026-08-04T00:00:00","class_latest":"輕度污染","rpi_12m_mean":1.705,"class_12m_mean":"未(稍)受污染","n_samples_12m":11,"length_km":7.237,"tidal":"partial_unverified","direction":"verified","match_rule":"dist<=200m","station_dist_m":6.5,"method":"estimated","caveats":"method=estimated：測站代表其下游至下一站，非連續監測；中心線來自 OSM（ODbL），river_code 來自 WRA GIC 河道面；下游可能感潮，感潮界線未以潮位資料驗證"},"geometry":{"type":"LineString","coordinates":[[121.655607,25.068624],[121.655307,25.06846],[121.655135,25.068382],[121.653879,25.068226],[121.652815,25.068199],[121.651459,25.068438],[121.650384,25.068305],[121.649706,25.068392],[121.649146,25.068556],[121.648599,25.068636],[121.648359,25.069076],[121.648248,25.069476],[121.648552,25.070093],[121.649645,25.072085],[121.649933,25.072822],[121.650113,25.073574],[121.649906,25.074321],[121.649639,25.074704],[121.649459,25.074924],[121.648733,25.075489],[121.648714,25.0755],[121.645844,25.075294],[121.645684,25.075283],[121.645014,25.075256],[121.64418,25.075239],[121.642757,25.074896],[121.641438,25.074258],[121.641113,25.073859],[121.640723,25.072989],[121.640614,25.072254],[121.640522,25.071634],[121.640353,25.070862],[121.640017,25.070271],[121.63958,25.069127],[121.639091,25.067869],[121.638203,25.065604],[121.636872,25.064116],[121.63629,25.063589],[121.635736,25.06339],[121.634495,25.063243],[121.633651,25.062827],[121.63287,25.062386],[121.632222,25.061706],[121.631482,25.060887],[121.631133,25.060336],[121.630749,25.059633],[121.630027,25.058251],[121.62945,25.056095],[121.6285,25.054778],[121.627727,25.054358],[121.626226,25.054489],[121.62469,25.055385],[121.624046,25.056279],[121.623454,25.057208],[121.623153,25.057831],[121.622744,25.058573],[121.621035,25.061214],[121.619143,25.06273],[121.618232,25.063334],[121.616116,25.063992],[121.614756,25.064403],[121.613761,25.064382],[121.61303,25.064257],[121.612243,25.06373],[121.612004,25.063242]]}},{"type":"Feature","properties":{"segment_id":"114030110-1269","river_code":"114030110","river_name":"基隆河","wra_river_name":"基隆河","from_station":"1269","from_station_name":"南湖大橋","to_station":"1270","to_station_name":"成美橋","to_node":"station","rpi_latest":3.75,"rpi_latest_date":"2026-08-04T00:00:00","class_latest":"中度污染","rpi_12m_mean":2.364,"class_12m_mean":"輕度污染","n_samples_12m":11,"length_km":3.331,"tidal":"partial_unverified","direction":"verified","match_rule":"dist<=200m","station_dist_m":1.9,"method":"estimated","caveats":"method=estimated：測站代表其下游至下一站，非連續監測；中心線來自 OSM（ODbL），river_code 來自 WRA GIC 河道面；下游可能感潮，感潮界線未以潮位資料驗證"},"geometry":{"type":"LineString","coordinates":[[121.612004,25.063242],[121.611572,25.062357],[121.610583,25.061253],[121.609346,25.060432],[121.607814,25.059855],[121.605628,25.059246],[121.602315,25.059015],[121.598696,25.058975],[121.598119,25.058999],[121.596857,25.059473],[121.595431,25.059953],[121.593732,25.060047],[121.591727,25.058809],[121.590729,25.057811],[121.58963,25.05674],[121.588325,25.055663],[121.586555,25.054604],[121.584534,25.054017],[121.583285,25.053701]]}},{"type":"Feature","properties":{"segment_id":"114030110-1270","river_code":"114030110","river_name":"基隆河","wra_river_name":"基隆河","from_station":"1270","from_station_name":"成美橋","to_station":"1010","to_station_name":"民權大橋","to_node":"station","rpi_latest":3.75,"rpi_latest_date":"2026-08-04T00:00:00","class_latest":"中度污染","rpi_12m_mean":2.477,"class_12m_mean":"輕度污染","n_samples_12m":11,"length_km":2.429,"tidal":"partial_unverified","direction":"verified","match_rule":"dist<=200m","station_dist_m":3.7,"method":"estimated","caveats":"method=estimated：測站代表其下游至下一站，非連續監測；中心線來自 OSM（ODbL），river_code 來自 WRA GIC 河道面；下游可能感潮，感潮界線未以潮位資料驗證"},"geometry":{"type":"LineString","coordinates":[[121.583285,25.053701],[121.582077,25.053395],[121.579893,25.052915],[121.578848,25.052686],[121.574858,25.051822],[121.5742,25.051762],[121.573607,25.051788],[121.573087,25.05192],[121.572684,25.052088],[121.572044,25.052736],[121.571873,25.053021],[121.571739,25.053409],[121.571682,25.053993],[121.57171,25.055026],[121.57125,25.059296],[121.570004,25.062673],[121.569598,25.0635]]}},{"type":"Feature","properties":{"segment_id":"114030110-1010","river_code":"114030110","river_name":"基隆河","wra_river_name":"基隆河","from_station":"1010","from_station_name":"民權大橋","to_station":"1011","to_station_name":"大直橋","to_node":"station","rpi_latest":3.0,"rpi_latest_date":"2026-08-04T00:00:00","class_latest":"輕度污染","rpi_12m_mean":2.386,"class_12m_mean":"輕度污染","n_samples_12m":11,"length_km":4.214,"tidal":"partial_unverified","direction":"verified","match_rule":"dist<=200m","station_dist_m":9.1,"method":"estimated","caveats":"method=estimated：測站代表其下游至下一站，非連續監測；中心線來自 OSM（ODbL），river_code 來自 WRA GIC 河道面；下游可能感潮，感潮界線未以潮位資料驗證"},"geometry":{"type":"LineString","coordinates":[[121.569598,25.0635],[121.569543,25.063613],[121.56958,25.064591],[121.571363,25.067426],[121.572013,25.069743],[121.571961,25.072086],[121.571491,25.073758],[121.571262,25.074097],[121.570596,25.075082],[121.5697,25.075712],[121.568649,25.075683],[121.567822,25.075168],[121.564591,25.073099],[121.562981,25.072455],[121.560929,25.072561],[121.557909,25.074078],[121.556231,25.074686],[121.555952,25.074761],[121.554271,25.07534],[121.552469,25.075505],[121.548246,25.07589],[121.545227,25.076147],[121.544435,25.076194]]}},{"type":"Feature","properties":{"segment_id":"114030110-1011","river_code":"114030110","river_name":"基隆河","wra_river_name":"基隆河","from_station":"1011","from_station_name":"大直橋","to_station":"1280","to_station_name":"中山橋","to_node":"station","rpi_latest":4.5,"rpi_latest_date":"2026-08-04T00:00:00","class_latest":"中度污染","rpi_12m_mean":2.568,"class_12m_mean":"輕度污染","n_samples_12m":11,"length_km":2.341,"tidal":"partial_unverified","direction":"verified","match_rule":"dist<=200m","station_dist_m":29.3,"method":"estimated","caveats":"method=estimated：測站代表其下游至下一站，非連續監測；中心線來自 OSM（ODbL），river_code 來自 WRA GIC 河道面；下游可能感潮，感潮界線未以潮位資料驗證"},"geometry":{"type":"LineString","coordinates":[[121.544435,25.076194],[121.533848,25.076828],[121.532201,25.076926],[121.529535,25.076857],[121.528792,25.076578],[121.528425,25.076303],[121.528108,25.075906],[121.527942,25.075492],[121.527984,25.074984],[121.528103,25.074219],[121.527945,25.073468],[121.527803,25.073184],[121.52754,25.072941],[121.527264,25.072816],[121.527062,25.072727],[121.526829,25.072705],[121.526555,25.07272],[121.526327,25.072785],[121.526026,25.072921],[121.525676,25.073213],[121.525431,25.073487],[121.525182,25.073919]]}},{"type":"Feature","properties":{"segment_id":"114030110-1280","river_code":"114030110","river_name":"基隆河","wra_river_name":"基隆河","from_station":"1280","from_station_name":"中山橋","to_station":"1012","to_station_name":"百齡橋","to_node":"station","rpi_latest":4.5,"rpi_latest_date":"2026-08-04T00:00:00","class_latest":"中度污染","rpi_12m_mean":2.841,"class_12m_mean":"輕度污染","n_samples_12m":11,"length_km":2.142,"tidal":"partial_unverified","direction":"verified","match_rule":"dist<=200m","station_dist_m":7.7,"method":"estimated","caveats":"method=estimated：測站代表其下游至下一站，非連續監測；中心線來自 OSM（ODbL），river_code 來自 WRA GIC 河道面；下游可能感潮，感潮界線未以潮位資料驗證"},"geometry":{"type":"LineString","coordinates":[[121.525182,25.073919],[121.525038,25.074167],[121.524663,25.074802],[121.523473,25.076443],[121.522455,25.077123],[121.521828,25.07766],[121.517369,25.079444],[121.516243,25.080171],[121.514924,25.081941],[121.514405,25.083582],[121.513772,25.087075],[121.513753,25.088435]]}},{"type":"Feature","properties":{"segment_id":"114030110-1012","river_code":"114030110","river_name":"基隆河","wra_river_name":"基隆河","from_station":"1012","from_station_name":"百齡橋","to_station":null,"to_station_name":null,"to_node":"confluence:淡水河","rpi_latest":3.25,"rpi_latest_date":"2026-08-04T00:00:00","class_latest":"中度污染","rpi_12m_mean":2.614,"class_12m_mean":"輕度污染","n_samples_12m":11,"length_km":7.537,"tidal":"partial_unverified","direction":"verified","match_rule":"dist<=200m","station_dist_m":2.7,"method":"estimated","caveats":"method=estimated：測站代表其下游至下一站，非連續監測；中心線來自 OSM（ODbL），river_code 來自 WRA GIC 河道面；下游可能感潮，感潮界線未以潮位資料驗證；最下游站延伸至河線終點（confluence:淡水河），中間無測站"},"geometry":{"type":"LineString","coordinates":[[121.513753,25.088435],[121.513747,25.088793],[121.512218,25.092765],[121.51098,25.093898],[121.50976,25.094966],[121.509118,25.095529],[121.508359,25.095789],[121.507237,25.096172],[121.50148,25.096331],[121.499666,25.09716],[121.498515,25.097784],[121.497344,25.09908],[121.497269,25.100382],[121.497294,25.102913],[121.496999,25.105969],[121.496807,25.108704],[121.496785,25.108826],[121.496499,25.11047],[121.496403,25.111017],[121.495137,25.112427],[121.494772,25.112671],[121.494583,25.112798],[121.493112,25.11378],[121.490847,25.114683],[121.490166,25.114793],[121.489106,25.114966],[121.487043,25.114769],[121.485147,25.114021],[121.483793,25.113381],[121.480853,25.111828],[121.477039,25.110892],[121.472235,25.110427],[121.46812,25.110507],[121.464723,25.111978],[121.462904,25.113473],[121.46251,25.113685],[121.461465,25.115066]]}},{"type":"Feature","properties":{"segment_id":"114010110-1036","river_code":"114010110","river_name":"大漢溪","wra_river_name":"大漢溪","from_station":"1036","from_station_name":"後池堰","to_station":"1013","to_station_name":"大溪橋","to_node":"station","rpi_latest":2.25,"rpi_latest_date":"2026-08-04T00:00:00","class_latest":"輕度污染","rpi_12m_mean":1.682,"class_12m_mean":"未(稍)受污染","n_samples_12m":11,"length_km":7.746,"tidal":"partial_unverified","direction":"verified","match_rule":"dist<=200m","station_dist_m":2.2,"method":"estimated","caveats":"method=estimated：測站代表其下游至下一站，非連續監測；中心線來自 OSM（ODbL），river_code 來自 WRA GIC 河道面；下游可能感潮，感潮界線未以潮位資料驗證"},"geometry":{"type":"LineString","coordinates":[[121.251678,24.824179],[121.251684,24.824189],[121.252907,24.825244],[121.253198,24.826204],[121.254051,24.829011],[121.256111,24.832906],[121.257999,24.835087],[121.258551,24.835525],[121.261283,24.838412],[121.263504,24.840661],[121.264866,24.843499],[121.265571,24.844779],[121.266754,24.846926],[121.269501,24.84864],[121.272762,24.851288],[121.273141,24.855237],[121.273492,24.857102],[121.273398,24.859935],[121.273817,24.862498],[121.273899,24.86401],[121.27448,24.866083],[121.275156,24.868155],[121.276305,24.869676],[121.277049,24.870093],[121.277722,24.870875],[121.278385,24.872671],[121.278599,24.873249],[121.279732,24.876467],[121.279773,24.877682],[121.279982,24.878473],[121.281888,24.881772],[121.282929,24.883575],[121.283476,24.883899],[121.283713,24.88404],[121.283847,24.88467]]}},{"type":"Feature","properties":{"segment_id":"114010110-1013","river_code":"114010110","river_name":"大漢溪","wra_river_name":"大漢溪","from_station":"1013","from_station_name":"大溪橋","to_station":"1014","to_station_name":"板新取水口","to_node":"station","rpi_latest":1.5,"rpi_latest_date":"2026-08-04T00:00:00","class_latest":"未(稍)受污染","rpi_12m_mean":1.659,"class_12m_mean":"未(稍)受污染","n_samples_12m":11,"length_km":8.473,"tidal":"partial_unverified","direction":"verified","match_rule":"dist<=200m","station_dist_m":2.1,"method":"estimated","caveats":"method=estimated：測站代表其下游至下一站，非連續監測；中心線來自 OSM（ODbL），river_code 來自 WRA GIC 河道面；下游可能感潮，感潮界線未以潮位資料驗證"},"geometry":{"type":"LineString","coordinates":[[121.283847,24.88467],[121.283916,24.884996],[121.284342,24.887001],[121.284655,24.888172],[121.285081,24.888875],[121.285222,24.889441],[121.285466,24.889984],[121.286884,24.891517],[121.2889,24.892701],[121.290194,24.89318],[121.29108,24.894138],[121.292019,24.895154],[121.2924,24.895567],[121.294735,24.897386],[121.295742,24.898554],[121.29679,24.898963],[121.299166,24.900624],[121.300119,24.902895],[121.300596,24.904895],[121.300874,24.905674],[121.301144,24.906026],[121.301724,24.906602],[121.30223,24.907105],[121.3036,24.907912],[121.305075,24.908533],[121.30568,24.908301],[121.307443,24.907938],[121.309146,24.908793],[121.31154,24.910114],[121.312887,24.910582],[121.313987,24.911234],[121.314797,24.911827],[121.316725,24.912781],[121.317388,24.915549],[121.318184,24.917768],[121.318813,24.918216],[121.319172,24.918949],[121.320083,24.920153],[121.322673,24.922124],[121.323567,24.923632],[121.324446,24.925116],[121.324881,24.925618],[121.326541,24.927143],[121.332084,24.928493],[121.334307,24.92822],[121.336695,24.927881],[121.339538,24.928835],[121.341823,24.930113]]}},{"type":"Feature","properties":{"segment_id":"114010110-1014","river_code":"114010110","river_name":"大漢溪","wra_river_name":"大漢溪","from_station":"1014","from_station_name":"板新取水口","to_station":"1015","to_station_name":"三鶯大橋","to_node":"station","rpi_latest":1.5,"rpi_latest_date":"2026-08-04T00:00:00","class_latest":"未(稍)受污染","rpi_12m_mean":1.568,"class_12m_mean":"未(稍)受污染","n_samples_12m":11,"length_km":2.142,"tidal":"partial_unverified","direction":"verified","match_rule":"dist<=200m","station_dist_m":76.9,"method":"estimated","caveats":"method=estimated：測站代表其下游至下一站，非連續監測；中心線來自 OSM（ODbL），river_code 來自 WRA GIC 河道面；下游可能感潮，感潮界線未以潮位資料驗證"},"geometry":{"type":"LineString","coordinates":[[121.341823,24.930113],[121.342374,24.930421],[121.343758,24.93197],[121.344618,24.932155],[121.345129,24.931885],[121.345938,24.932109],[121.34739,24.933123],[121.347958,24.934263],[121.348661,24.936935],[121.349119,24.938925],[121.350164,24.940645],[121.353178,24.944788]]}},{"type":"Feature","properties":{"segment_id":"114010110-1015","river_code":"114010110","river_name":"大漢溪","wra_river_name":"大漢溪","from_station":"1015","from_station_name":"三鶯大橋","to_station":"1039","to_station_name":"柑園大橋(取代後村圳取水口)","to_node":"station","rpi_latest":1.5,"rpi_latest_date":"2026-08-04T00:00:00","class_latest":"未(稍)受污染","rpi_12m_mean":1.409,"class_12m_mean":"未(稍)受污染","n_samples_12m":11,"length_km":4.929,"tidal":"partial_unverified","direction":"verified","match_rule":"dist<=200m","station_dist_m":5.5,"method":"estimated","caveats":"method=estimated：測站代表其下游至下一站，非連續監測；中心線來自 OSM（ODbL），river_code 來自 WRA GIC 河道面；下游可能感潮，感潮界線未以潮位資料驗證"},"geometry":{"type":"LineString","coordinates":[[121.353178,24.944788],[121.35516,24.947514],[121.357424,24.948938],[121.358068,24.949751],[121.358903,24.950262],[121.359377,24.950351],[121.359944,24.950675],[121.360374,24.950959],[121.361739,24.951635],[121.365878,24.953683],[121.369893,24.955738],[121.371911,24.95657],[121.372484,24.956807],[121.375089,24.957677],[121.380874,24.959593],[121.383884,24.961357],[121.384597,24.962107],[121.384705,24.962998],[121.385825,24.963677],[121.387675,24.964082],[121.388378,24.964236],[121.389685,24.964603],[121.390334,24.964989],[121.39119,24.965261],[121.393091,24.966043],[121.393873,24.966135],[121.394357,24.966233]]}},{"type":"Feature","properties":{"segment_id":"114010110-1039","river_code":"114010110","river_name":"大漢溪","wra_river_name":"大漢溪","from_station":"1039","from_station_name":"柑園大橋(取代後村圳取水口)","to_station":"1016","to_station_name":"浮洲橋","to_node":"station","rpi_latest":2.25,"rpi_latest_date":"2026-08-04T00:00:00","class_latest":"輕度污染","rpi_12m_mean":2.932,"class_12m_mean":"輕度污染","n_samples_12m":11,"length_km":6.428,"tidal":"partial_unverified","direction":"verified","match_rule":"dist<=200m","station_dist_m":11.4,"method":"estimated","caveats":"method=estimated：測站代表其下游至下一站，非連續監測；中心線來自 OSM（ODbL），river_code 來自 WRA GIC 河道面；下游可能感潮，感潮界線未以潮位資料驗證"},"geometry":{"type":"LineString","coordinates":[[121.394357,24.966233],[121.395197,24.966403],[121.396651,24.96692],[121.397521,24.967228],[121.398392,24.967669],[121.399027,24.968007],[121.403736,24.968159],[121.406111,24.968163],[121.407809,24.968263],[121.410415,24.968161],[121.410923,24.967271],[121.4118,24.966175],[121.412288,24.966483],[121.412924,24.966792],[121.414125,24.967317],[121.416328,24.967921],[121.419429,24.968346],[121.421324,24.968649],[121.423737,24.969514],[121.425035,24.970773],[121.425304,24.971208],[121.42658,24.97327],[121.427437,24.975031],[121.428304,24.977249],[121.429375,24.978702],[121.429758,24.979008],[121.431326,24.98026],[121.431404,24.980336],[121.432497,24.981406],[121.433928,24.983099],[121.435686,24.985969],[121.436315,24.988076],[121.43641,24.990121],[121.436329,24.992074],[121.436232,24.994429],[121.436283,24.995071]]}},{"type":"Feature","properties":{"segment_id":"114010110-1016","river_code":"114010110","river_name":"大漢溪","wra_river_name":"大漢溪","from_station":"1016","from_station_name":"浮洲橋","to_station":"1017","to_station_name":"新海大橋","to_node":"station","rpi_latest":2.5,"rpi_latest_date":"2026-08-04T00:00:00","class_latest":"輕度污染","rpi_12m_mean":3.227,"class_12m_mean":"中度污染","n_samples_12m":11,"length_km":4.69,"tidal":"partial_unverified","direction":"verified","match_rule":"dist<=200m","station_dist_m":3.7,"method":"estimated","caveats":"method=estimated：測站代表其下游至下一站，非連續監測；中心線來自 OSM（ODbL），river_code 來自 WRA GIC 河道面；下游可能感潮，感潮界線未以潮位資料驗證"},"geometry":{"type":"LineString","coordinates":[[121.436283,24.995071],[121.436435,24.996978],[121.43656,25.00062],[121.436588,25.001465],[121.437251,25.005926],[121.438475,25.009724],[121.439647,25.012375],[121.441533,25.01528],[121.443624,25.01862],[121.445238,25.02077],[121.446708,25.023183],[121.44952,25.026963],[121.451959,25.030243],[121.452641,25.030823],[121.454177,25.03213],[121.454858,25.032534]]}},{"type":"Feature","properties":{"segment_id":"114010110-1017","river_code":"114010110","river_name":"大漢溪","wra_river_name":"大漢溪","from_station":"1017","from_station_name":"新海大橋","to_station":null,"to_station_name":null,"to_node":"confluence:淡水河","rpi_latest":2.5,"rpi_latest_date":"2026-08-04T00:00:00","class_latest":"輕度污染","rpi_12m_mean":4.318,"class_12m_mean":"中度污染","n_samples_12m":11,"length_km":3.67,"tidal":"partial_unverified","direction":"verified","match_rule":"dist<=200m","station_dist_m":43.9,"method":"estimated","caveats":"method=estimated：測站代表其下游至下一站，非連續監測；中心線來自 OSM（ODbL），river_code 來自 WRA GIC 河道面；下游可能感潮，感潮界線未以潮位資料驗證；最下游站延伸至河線終點（confluence:淡水河），中間無測站"},"geometry":{"type":"LineString","coordinates":[[121.454858,25.032534],[121.456063,25.033251],[121.459173,25.03501],[121.463506,25.036871],[121.470006,25.039267],[121.474212,25.040057],[121.479846,25.04123],[121.488594,25.044339]]}},{"type":"Feature","properties":{"segment_id":"114020110-1271","river_code":"114020110","river_name":"新店溪","wra_river_name":"新店溪","from_station":"1271","from_station_name":"廣興橋(取代屈尺堰)","to_station":"1347","to_station_name":"直潭堰取水口","to_node":"station","rpi_latest":1.0,"rpi_latest_date":"2026-08-05T00:00:00","class_latest":"未(稍)受污染","rpi_12m_mean":1.0,"class_12m_mean":"未(稍)受污染","n_samples_12m":11,"length_km":3.272,"tidal":"partial_unverified","direction":"verified","match_rule":"dist<=200m","station_dist_m":21.6,"method":"estimated","caveats":"method=estimated：測站代表其下游至下一站，非連續監測；中心線來自 OSM（ODbL），river_code 來自 WRA GIC 河道面；下游可能感潮，感潮界線未以潮位資料驗證"},"geometry":{"type":"LineString","coordinates":[[121.547294,24.912266],[121.547031,24.91294],[121.547087,24.913681],[121.547278,24.914092],[121.547388,24.914912],[121.547343,24.915215],[121.547187,24.915288],[121.547049,24.915327],[121.546666,24.915195],[121.546248,24.915158],[121.545625,24.915796],[121.545101,24.917079],[121.544295,24.918791],[121.542684,24.919446],[121.541851,24.919446],[121.541047,24.918995],[121.539093,24.917012],[121.536892,24.915585],[121.534928,24.915131],[121.533798,24.915568],[121.533483,24.916458],[121.533491,24.917189],[121.533483,24.917398],[121.534094,24.919077],[121.533687,24.921209],[121.533336,24.923434],[121.533191,24.924328],[121.533118,24.925409]]}},{"type":"Feature","properties":{"segment_id":"114020110-1347","river_code":"114020110","river_name":"新店溪","wra_river_name":"新店溪","from_station":"1347","from_station_name":"直潭堰取水口","to_station":"1272","to_station_name":"青潭堰","to_node":"station","rpi_latest":1.0,"rpi_latest_date":"2026-08-05T00:00:00","class_latest":"未(稍)受污染","rpi_12m_mean":1.0,"class_12m_mean":"未(稍)受污染","n_samples_12m":11,"length_km":5.645,"tidal":"partial_unverified","direction":"verified","match_rule":"dist<=200m","station_dist_m":1.8,"method":"estimated","caveats":"method=estimated：測站代表其下游至下一站，非連續監測；中心線來自 OSM（ODbL），river_code 來自 WRA GIC 河道面；下游可能感潮，感潮界線未以潮位資料驗證"},"geometry":{"type":"LineString","coordinates":[[121.533118,24.925409],[121.533117,24.925412],[121.531906,24.926422],[121.531852,24.926474],[121.531035,24.927423],[121.530557,24.92887],[121.530426,24.929146],[121.530799,24.932681],[121.531257,24.933731],[121.530603,24.935008],[121.530032,24.935986],[121.529218,24.937008],[121.528361,24.937949],[121.527525,24.938555],[121.526821,24.939576],[121.524802,24.942374],[121.524505,24.943042],[121.524352,24.943963],[121.524414,24.944685],[121.5249,24.945169],[121.525745,24.945666],[121.527262,24.946027],[121.529074,24.946514],[121.53098,24.946819],[121.532626,24.946763],[121.535226,24.946323],[121.536125,24.945838],[121.536831,24.94475],[121.537052,24.942897],[121.537029,24.938721],[121.537023,24.937562],[121.538294,24.93695],[121.539628,24.93742],[121.541506,24.938492],[121.543644,24.940509],[121.544483,24.941828]]}},{"type":"Feature","properties":{"segment_id":"114020110-1272","river_code":"114020110","river_name":"新店溪","wra_river_name":"新店溪","from_station":"1272","from_station_name":"青潭堰","to_station":"1018","to_station_name":"碧潭吊橋(取代碧潭大橋)","to_node":"station","rpi_latest":1.5,"rpi_latest_date":"2026-08-05T00:00:00","class_latest":"未(稍)受污染","rpi_12m_mean":1.091,"class_12m_mean":"未(稍)受污染","n_samples_12m":11,"length_km":2.861,"tidal":"partial_unverified","direction":"verified","match_rule":"dist<=200m","station_dist_m":85.4,"method":"estimated","caveats":"method=estimated：測站代表其下游至下一站，非連續監測；中心線來自 OSM（ODbL），river_code 來自 WRA GIC 河道面；下游可能感潮，感潮界線未以潮位資料驗證"},"geometry":{"type":"LineString","coordinates":[[121.544483,24.941828],[121.544578,24.941978],[121.545388,24.943138],[121.545443,24.943574],[121.545507,24.944395],[121.545019,24.947811],[121.54459,24.949186],[121.543405,24.950775],[121.542762,24.95132],[121.54212,24.951605],[121.540384,24.951853],[121.539804,24.951789],[121.53862,24.951414],[121.538049,24.951272],[121.536948,24.951442],[121.535897,24.952281],[121.535535,24.954306],[121.535667,24.957881],[121.535528,24.960913]]}},{"type":"Feature","properties":{"segment_id":"114020110-1018","river_code":"114020110","river_name":"新店溪","wra_river_name":"新店溪","from_station":"1018","from_station_name":"碧潭吊橋(取代碧潭大橋)","to_station":"1273","to_station_name":"秀朗橋","to_node":"station","rpi_latest":1.5,"rpi_latest_date":"2026-08-05T00:00:00","class_latest":"未(稍)受污染","rpi_12m_mean":1.091,"class_12m_mean":"未(稍)受污染","n_samples_12m":11,"length_km":4.022,"tidal":"partial_unverified","direction":"verified","match_rule":"dist<=200m","station_dist_m":29.0,"method":"estimated","caveats":"method=estimated：測站代表其下游至下一站，非連續監測；中心線來自 OSM（ODbL），river_code 來自 WRA GIC 河道面；下游可能感潮，感潮界線未以潮位資料驗證"},"geometry":{"type":"LineString","coordinates":[[121.535528,24.960913],[121.535509,24.96133],[121.535502,24.961476],[121.535477,24.962018],[121.533707,24.96591],[121.531363,24.968332],[121.530826,24.969163],[121.529711,24.969856],[121.528033,24.970805],[121.52748,24.971117],[121.52543,24.972773],[121.524245,24.973987],[121.522996,24.975248],[121.522661,24.975655],[121.522428,24.975938],[121.521956,24.976708],[121.521017,24.979002],[121.520723,24.980403],[121.520535,24.981152],[121.520536,24.981401],[121.520574,24.981643],[121.521086,24.982974],[121.521822,24.984108],[121.522303,24.98449],[121.522881,24.984947],[121.523434,24.985384],[121.52423,24.986143],[121.525516,24.986963],[121.527379,24.988061],[121.528485,24.988563],[121.528605,24.988689]]}},{"type":"Feature","properties":{"segment_id":"114020110-1273","river_code":"114020110","river_name":"新店溪","wra_river_name":"新店溪","from_station":"1273","from_station_name":"秀朗橋","to_station":"1019","to_station_name":"中正橋","to_node":"station","rpi_latest":1.0,"rpi_latest_date":"2026-08-05T00:00:00","class_latest":"未(稍)受污染","rpi_12m_mean":1.5,"class_12m_mean":"未(稍)受污染","n_samples_12m":11,"length_km":4.805,"tidal":"partial_unverified","direction":"verified","match_rule":"dist<=200m","station_dist_m":4.3,"method":"estimated","caveats":"method=estimated：測站代表其下游至下一站，非連續監測；中心線來自 OSM（ODbL），river_code 來自 WRA GIC 河道面；下游可能感潮，感潮界線未以潮位資料驗證"},"geometry":{"type":"LineString","coordinates":[[121.528605,24.988689],[121.529308,24.989424],[121.529887,24.990201],[121.530244,24.990952],[121.530483,24.99136],[121.530597,24.991555],[121.5308,24.991903],[121.53126,24.99252],[121.531555,24.992958],[121.531875,24.993433],[121.53206,24.994089],[121.532113,24.994781],[121.531854,24.995359],[121.531741,24.995748],[121.531651,24.996053],[121.531537,24.996198],[121.531112,24.996734],[121.530968,24.997058],[121.53083,24.99737],[121.530823,24.997758],[121.53082,24.997881],[121.530839,24.998351],[121.53085,24.998638],[121.530883,24.999475],[121.53149,25.001531],[121.532886,25.002777],[121.533211,25.002934],[121.533439,25.003107],[121.533546,25.003373],[121.533623,25.003906],[121.533628,25.004112],[121.533468,25.004488],[121.533117,25.004999],[121.532909,25.005262],[121.532769,25.005468],[121.532671,25.005672],[121.532361,25.006561],[121.532026,25.007524],[121.530796,25.008906],[121.530188,25.009226],[121.528291,25.010226],[121.528037,25.010359],[121.525388,25.012071],[121.521788,25.015843],[121.519935,25.019249],[121.517201,25.020553],[121.514417,25.021533],[121.514252,25.021544]]}},{"type":"Feature","properties":{"segment_id":"114020110-1019","river_code":"114020110","river_name":"新店溪","wra_river_name":"新店溪","from_station":"1019","from_station_name":"中正橋","to_station":"1020","to_station_name":"華中大橋","to_node":"station","rpi_latest":2.5,"rpi_latest_date":"2026-08-05T00:00:00","class_latest":"輕度污染","rpi_12m_mean":2.182,"class_12m_mean":"輕度污染","n_samples_12m":11,"length_km":2.352,"tidal":"partial_unverified","direction":"verified","match_rule":"dist<=200m","station_dist_m":26.3,"method":"estimated","caveats":"method=estimated：測站代表其下游至下一站，非連續監測；中心線來自 OSM（ODbL），river_code 來自 WRA GIC 河道面；下游可能感潮，感潮界線未以潮位資料驗證"},"geometry":{"type":"LineString","coordinates":[[121.514252,25.021544],[121.510713,25.021774],[121.508337,25.021014],[121.504726,25.017205],[121.499791,25.011751],[121.497463,25.0103],[121.496408,25.009907]]}},{"type":"Feature","properties":{"segment_id":"114020110-1020","river_code":"114020110","river_name":"新店溪","wra_river_name":"新店溪","from_station":"1020","from_station_name":"華中大橋","to_station":"1021","to_station_name":"華江大橋","to_node":"station","rpi_latest":3.25,"rpi_latest_date":"2026-08-05T00:00:00","class_latest":"中度污染","rpi_12m_mean":2.818,"class_12m_mean":"輕度污染","n_samples_12m":11,"length_km":3.382,"tidal":"partial_unverified","direction":"verified","match_rule":"dist<=200m","station_dist_m":36.7,"method":"estimated","caveats":"method=estimated：測站代表其下游至下一站，非連續監測；中心線來自 OSM（ODbL），river_code 來自 WRA GIC 河道面；下游可能感潮，感潮界線未以潮位資料驗證"},"geometry":{"type":"LineString","coordinates":[[121.496408,25.009907],[121.495747,25.00966],[121.494042,25.009768],[121.493201,25.009982],[121.493067,25.010072],[121.491629,25.011029],[121.491369,25.011375],[121.489358,25.014054],[121.488748,25.016077],[121.488651,25.017594],[121.488872,25.018775],[121.489001,25.019112],[121.488786,25.020934],[121.488513,25.02397],[121.488403,25.025197],[121.485177,25.030563],[121.48464,25.031457],[121.483619,25.033156],[121.483281,25.03486]]}},{"type":"Feature","properties":{"segment_id":"114020110-1021","river_code":"114020110","river_name":"新店溪","wra_river_name":"新店溪","from_station":"1021","from_station_name":"華江大橋","to_station":null,"to_station_name":null,"to_node":"confluence:淡水河","rpi_latest":5.25,"rpi_latest_date":"2026-08-05T00:00:00","class_latest":"中度污染","rpi_12m_mean":3.727,"class_12m_mean":"中度污染","n_samples_12m":11,"length_km":1.223,"tidal":"partial_unverified","direction":"verified","match_rule":"dist<=200m","station_dist_m":23.4,"method":"estimated","caveats":"method=estimated：測站代表其下游至下一站，非連續監測；中心線來自 OSM（ODbL），river_code 來自 WRA GIC 河道面；下游可能感潮，感潮界線未以潮位資料驗證；最下游站延伸至河線終點（confluence:淡水河），中間無測站"},"geometry":{"type":"LineString","coordinates":[[121.483281,25.03486],[121.483271,25.034909],[121.483428,25.036569],[121.483641,25.037403],[121.483871,25.038519],[121.484277,25.039655],[121.484884,25.040608],[121.485879,25.041447],[121.488594,25.044339]]}},{"type":"Feature","properties":{"segment_id":"114023110-1274","river_code":"114023110","river_name":"景美溪","wra_river_name":"景美溪","from_station":"1274","from_station_name":"楓林橋","to_station":"1022","to_station_name":"昇高大橋(取代深坑中正橋)","to_node":"station","rpi_latest":1.5,"rpi_latest_date":"2026-08-05T00:00:00","class_latest":"未(稍)受污染","rpi_12m_mean":1.091,"class_12m_mean":"未(稍)受污染","n_samples_12m":11,"length_km":3.956,"tidal":"unknown","direction":"verified","match_rule":"dist<=200m","station_dist_m":1.9,"method":"estimated","caveats":"method=estimated：測站代表其下游至下一站，非連續監測；中心線來自 OSM（ODbL），river_code 來自 WRA GIC 河道面"},"geometry":{"type":"LineString","coordinates":[[121.641987,25.010761],[121.641649,25.010645],[121.641238,25.010327],[121.641263,25.009843],[121.641199,25.009495],[121.640991,25.009181],[121.640352,25.008767],[121.639516,25.008453],[121.638552,25.008427],[121.63726,25.008656],[121.63659,25.008779],[121.635882,25.008795],[121.635388,25.008875],[121.634764,25.009112],[121.634355,25.009333],[121.633835,25.009603],[121.633209,25.009603],[121.63266,25.009695],[121.632506,25.009721],[121.631361,25.009485],[121.630987,25.008503],[121.630231,25.007361],[121.629757,25.007008],[121.628881,25.006431],[121.628169,25.005499],[121.627759,25.00535],[121.627471,25.005403],[121.627188,25.005672],[121.627096,25.006191],[121.627067,25.006314],[121.626951,25.006814],[121.626589,25.006934],[121.626218,25.006952],[121.625628,25.006694],[121.625184,25.00622],[121.624977,25.005516],[121.624672,25.004907],[121.624098,25.004131],[121.623398,25.003511],[121.622543,25.002753],[121.621623,25.001894],[121.621459,25.001496],[121.621477,25.001058],[121.621116,25.000654],[121.620721,25.000295],[121.6202,24.999697],[121.619952,24.999405],[121.619907,24.999414],[121.619525,24.999444],[121.618457,24.999789],[121.618296,24.999813],[121.618054,24.999782],[121.614488,25.000157],[121.614001,25.000305],[121.613826,25.00051],[121.613289,25.000723],[121.613124,25.000658],[121.612963,25.000573],[121.612861,25.000557]]}},{"type":"Feature","properties":{"segment_id":"114023110-1022","river_code":"114023110","river_name":"景美溪","wra_river_name":"景美溪","from_station":"1022","from_station_name":"昇高大橋(取代深坑中正橋)","to_station":"1023","to_station_name":"萬壽橋","to_node":"station","rpi_latest":1.0,"rpi_latest_date":"2026-08-05T00:00:00","class_latest":"未(稍)受污染","rpi_12m_mean":1.227,"class_12m_mean":"未(稍)受污染","n_samples_12m":11,"length_km":5.964,"tidal":"unknown","direction":"verified","match_rule":"dist<=200m","station_dist_m":5.2,"method":"estimated","caveats":"method=estimated：測站代表其下游至下一站，非連續監測；中心線來自 OSM（ODbL），river_code 來自 WRA GIC 河道面"},"geometry":{"type":"LineString","coordinates":[[121.612861,25.000557],[121.612632,25.000521],[121.611629,25.000391],[121.61118,25.00033],[121.610917,25.000218],[121.610649,24.999979],[121.610343,24.999778],[121.609699,24.999615],[121.609143,24.999567],[121.608858,24.999533],[121.60805,24.999471],[121.607621,24.999353],[121.607231,24.99933],[121.606735,24.999439],[121.606175,24.999654],[121.605915,24.999686],[121.605468,24.999724],[121.604641,24.999775],[121.603805,25.00021],[121.603333,25.000531],[121.602665,25.001053],[121.602181,25.001445],[121.601192,25.002026],[121.599967,25.002645],[121.599269,25.00283],[121.598261,25.003569],[121.597682,25.004192],[121.597386,25.004384],[121.596971,25.004406],[121.596786,25.004425],[121.59637,25.004209],[121.596351,25.003919],[121.596365,25.003509],[121.595906,25.002801],[121.5956,25.002227],[121.595321,25.001274],[121.595278,25.000827],[121.595192,25.000361],[121.5953,24.999544],[121.595235,24.998805],[121.59486,24.998212],[121.594444,24.997516],[121.593902,24.996909],[121.593861,24.996755],[121.593363,24.996665],[121.593047,24.996719],[121.592542,24.996969],[121.59203,24.997298],[121.591459,24.997794],[121.590729,24.998494],[121.5903,24.998805],[121.589737,24.999077],[121.589072,24.999612],[121.587918,25.001065],[121.587296,25.002519],[121.587057,25.002774],[121.586414,25.002844],[121.585925,25.002862],[121.585722,25.002861],[121.585562,25.002753],[121.585197,25.002385],[121.585062,25.002158],[121.585033,25.001992],[121.58474,25.001881],[121.584432,25.001731],[121.584096,25.001672],[121.583971,25.001627],[121.583692,25.001393],[121.583444,25.001165],[121.583032,25.000854],[121.582818,25.000773],[121.582527,25.000746],[121.582359,25.00067],[121.582034,25.000506],[121.581355,25.000158],[121.580576,24.999653],[121.579996,24.99942],[121.579526,24.99945],[121.579226,24.999473],[121.578331,24.999556],[121.577774,24.999688],[121.577362,24.999699],[121.576806,24.999397],[121.576118,24.998934],[121.575648,24.998413],[121.575484,24.99802],[121.575423,24.997578],[121.57512,24.996914],[121.574479,24.99643],[121.573222,24.995604],[121.572779,24.995275],[121.572419,24.994699],[121.572271,24.993887],[121.572161,24.993292],[121.572164,24.993138],[121.572181,24.992928],[121.572125,24.992626],[121.572082,24.992051]]}},{"type":"Feature","properties":{"segment_id":"114023110-1023","river_code":"114023110","river_name":"景美溪","wra_river_name":"景美溪","from_station":"1023","from_station_name":"萬壽橋","to_station":"1024","to_station_name":"寶橋","to_node":"station","rpi_latest":1.5,"rpi_latest_date":"2026-08-05T00:00:00","class_latest":"未(稍)受污染","rpi_12m_mean":2.023,"class_12m_mean":"輕度污染","n_samples_12m":11,"length_km":3.526,"tidal":"unknown","direction":"verified","match_rule":"dist<=200m","station_dist_m":3.7,"method":"estimated","caveats":"method=estimated：測站代表其下游至下一站，非連續監測；中心線來自 OSM（ODbL），river_code 來自 WRA GIC 河道面"},"geometry":{"type":"LineString","coordinates":[[121.572082,24.992051],[121.572041,24.991499],[121.572031,24.991362],[121.571795,24.989467],[121.571827,24.988708],[121.571887,24.988522],[121.571956,24.988405],[121.572057,24.988233],[121.572395,24.987772],[121.572467,24.987317],[121.572525,24.987116],[121.572583,24.986917],[121.572545,24.986427],[121.572096,24.985423],[121.571779,24.984863],[121.57174,24.984292],[121.571675,24.983349],[121.571647,24.983063],[121.571663,24.98291],[121.571675,24.982684],[121.571636,24.982481],[121.57149,24.982267],[121.571069,24.981939],[121.570645,24.981753],[121.56936,24.98119],[121.568391,24.980789],[121.567353,24.980402],[121.566632,24.980605],[121.56626,24.980772],[121.565651,24.981005],[121.565115,24.980995],[121.564526,24.980917],[121.562766,24.980006],[121.561969,24.979643],[121.561394,24.979495],[121.560831,24.979475],[121.560084,24.97967],[121.55966,24.979781],[121.558989,24.979933],[121.55863,24.979895],[121.558383,24.979727],[121.558007,24.979275],[121.557746,24.978856],[121.557651,24.978336],[121.557453,24.97727],[121.557308,24.976973],[121.556939,24.976609],[121.556752,24.976496],[121.555722,24.976424],[121.554998,24.976489],[121.554562,24.97667],[121.554186,24.976853],[121.554009,24.977076],[121.553887,24.977464],[121.553691,24.978136],[121.553467,24.978792],[121.553366,24.979109],[121.553264,24.979264]]}},{"type":"Feature","properties":{"segment_id":"114023110-1024","river_code":"114023110","river_name":"景美溪","wra_river_name":"景美溪","from_station":"1024","from_station_name":"寶橋","to_station":null,"to_station_name":null,"to_node":"confluence:新店溪","rpi_latest":1.5,"rpi_latest_date":"2026-08-05T00:00:00","class_latest":"未(稍)受污染","rpi_12m_mean":1.75,"class_12m_mean":"未(稍)受污染","n_samples_12m":11,"length_km":5.003,"tidal":"unknown","direction":"verified","match_rule":"dist<=200m","station_dist_m":0.5,"method":"estimated","caveats":"method=estimated：測站代表其下游至下一站，非連續監測；中心線來自 OSM（ODbL），river_code 來自 WRA GIC 河道面；最下游站延伸至河線終點（confluence:新店溪），中間無測站"},"geometry":{"type":"LineString","coordinates":[[121.553264,24.979264],[121.553203,24.979356],[121.553087,24.979889],[121.553087,24.980549],[121.553114,24.980983],[121.553212,24.981605],[121.553441,24.982836],[121.55373,24.984052],[121.553803,24.984502],[121.553667,24.98486],[121.553362,24.98529],[121.553042,24.985644],[121.552712,24.986143],[121.55242,24.986554],[121.552045,24.986812],[121.551685,24.986974],[121.551401,24.987032],[121.551229,24.986982],[121.551099,24.986948],[121.550992,24.98687],[121.550985,24.986735],[121.551047,24.986165],[121.550991,24.985488],[121.550582,24.984845],[121.549736,24.984122],[121.548613,24.983596],[121.547889,24.983404],[121.546858,24.983291],[121.546253,24.983327],[121.545255,24.983613],[121.544725,24.983998],[121.544352,24.984559],[121.544208,24.985067],[121.544274,24.985561],[121.544505,24.986165],[121.544664,24.986696],[121.544644,24.987074],[121.544532,24.987447],[121.544393,24.987821],[121.54424,24.988078],[121.543943,24.98816],[121.543306,24.988235],[121.5423,24.987956],[121.541098,24.98787],[121.540607,24.987865],[121.540105,24.987835],[121.53957,24.987697],[121.538628,24.987857],[121.537289,24.988304],[121.536374,24.989],[121.535994,24.989543],[121.535751,24.990222],[121.535732,24.990693],[121.535919,24.991468],[121.536352,24.99202],[121.536506,24.992256],[121.536796,24.992577],[121.537027,24.992975],[121.537079,24.993185],[121.53707,24.993394],[121.536893,24.99406],[121.536522,24.994393],[121.536027,24.99492],[121.535161,24.995524],[121.534783,24.995886],[121.534241,24.996188],[121.534019,24.996569],[121.533906,24.997014],[121.533925,24.997652],[121.534068,24.998384],[121.534075,24.998772],[121.534175,24.999079],[121.534176,24.999394],[121.534187,24.999625],[121.534141,24.999921],[121.534079,25.000086],[121.533747,25.001009],[121.533348,25.001289],[121.533106,25.001662],[121.533057,25.002163],[121.533123,25.002503],[121.533211,25.002934]]}},{"type":"Feature","properties":{"segment_id":"114000110-1001","river_code":"114000110","river_name":"淡水河","wra_river_name":"淡水河","from_station":"1001","from_station_name":"忠孝大橋","to_station":"1002","to_station_name":"重陽大橋","to_node":"station","rpi_latest":5.25,"rpi_latest_date":"2026-08-05T00:00:00","class_latest":"中度污染","rpi_12m_mean":4.114,"class_12m_mean":"中度污染","n_samples_12m":11,"length_km":3.932,"tidal":"yes","direction":"verified","match_rule":"dist<=200m","station_dist_m":75.2,"method":"estimated","caveats":"method=estimated：測站代表其下游至下一站，非連續監測；中心線來自 OSM（ODbL），river_code 來自 WRA GIC 河道面；感潮河段：RPI 受潮汐稀釋/回溯影響，採樣潮時未標"},"geometry":{"type":"LineString","coordinates":[[121.499727,25.051663],[121.500687,25.052402],[121.502643,25.053988],[121.505099,25.057109],[121.505945,25.059296],[121.506356,25.062336],[121.507019,25.066771],[121.507433,25.069906],[121.507084,25.072909],[121.506421,25.076035],[121.505421,25.079649],[121.504213,25.082606],[121.502841,25.084205]]}},{"type":"Feature","properties":{"segment_id":"114000110-1002","river_code":"114000110","river_name":"淡水河","wra_river_name":"淡水河","from_station":"1002","from_station_name":"重陽大橋","to_station":"1003","to_station_name":"關渡大橋","to_node":"station","rpi_latest":5.25,"rpi_latest_date":"2026-08-05T00:00:00","class_latest":"中度污染","rpi_12m_mean":4.432,"class_12m_mean":"中度污染","n_samples_12m":11,"length_km":7.108,"tidal":"yes","direction":"verified","match_rule":"dist<=200m","station_dist_m":5.7,"method":"estimated","caveats":"method=estimated：測站代表其下游至下一站，非連續監測；中心線來自 OSM（ODbL），river_code 來自 WRA GIC 河道面；感潮河段：RPI 受潮汐稀釋/回溯影響，採樣潮時未標"},"geometry":{"type":"LineString","coordinates":[[121.502841,25.084205],[121.500238,25.08724],[121.495905,25.091726],[121.493202,25.093846],[121.492005,25.094785],[121.487824,25.097385],[121.477883,25.100572],[121.465979,25.103274],[121.462761,25.105406],[121.462258,25.105739],[121.461756,25.106246],[121.461415,25.10676],[121.461154,25.107303],[121.461052,25.10802],[121.461465,25.115066],[121.461212,25.115772],[121.458293,25.123732],[121.457907,25.124988]]}},{"type":"Feature","properties":{"segment_id":"114000110-1003","river_code":"114000110","river_name":"淡水河","wra_river_name":"淡水河","from_station":"1003","from_station_name":"關渡大橋","to_station":"1004","to_station_name":"淡水河口","to_node":"station","rpi_latest":4.0,"rpi_latest_date":"2026-08-05T00:00:00","class_latest":"中度污染","rpi_12m_mean":3.955,"class_12m_mean":"中度污染","n_samples_12m":11,"length_km":6.701,"tidal":"yes","direction":"verified","match_rule":"dist<=200m","station_dist_m":70.1,"method":"estimated","caveats":"method=estimated：測站代表其下游至下一站，非連續監測；中心線來自 OSM（ODbL），river_code 來自 WRA GIC 河道面；感潮河段：RPI 受潮汐稀釋/回溯影響，採樣潮時未標"},"geometry":{"type":"LineString","coordinates":[[121.457907,25.124988],[121.457086,25.12766],[121.455518,25.132762],[121.455452,25.133026],[121.454274,25.137777],[121.45316,25.14227],[121.453012,25.142868],[121.452831,25.143597],[121.451331,25.147105],[121.450504,25.14904],[121.447237,25.15668],[121.446326,25.157726],[121.445875,25.15825],[121.444355,25.159995],[121.443392,25.1611],[121.440953,25.1639],[121.432508,25.167752],[121.430587,25.168572],[121.426762,25.169971],[121.424438,25.170821],[121.422966,25.171348],[121.422896,25.171366]]}},{"type":"Feature","properties":{"segment_id":"114000110-1004","river_code":"114000110","river_name":"淡水河","wra_river_name":"淡水河","from_station":"1004","from_station_name":"淡水河口","to_station":null,"to_station_name":null,"to_node":"mouth","rpi_latest":2.5,"rpi_latest_date":"2026-08-05T00:00:00","class_latest":"輕度污染","rpi_12m_mean":2.841,"class_12m_mean":"輕度污染","n_samples_12m":11,"length_km":2.79,"tidal":"yes","direction":"verified","match_rule":"dist<=200m","station_dist_m":53.8,"method":"estimated","caveats":"method=estimated：測站代表其下游至下一站，非連續監測；中心線來自 OSM（ODbL），river_code 來自 WRA GIC 河道面；感潮河段：RPI 受潮汐稀釋/回溯影響，採樣潮時未標；最下游站延伸至河線終點（mouth），中間無測站"},"geometry":{"type":"LineString","coordinates":[[121.422896,25.171366],[121.420635,25.171973],[121.406052,25.175884],[121.396142,25.177734]]}}]}