{"type":"FeatureCollection","name":"sewage_treatment_plants","features":[{"type":"Feature","geometry":{"type":"Point","coordinates":[121.510348,25.073311]},"properties":{"plant_id":"moi:1","name":"迪化污水處理廠","county":"臺北市","address":"臺北市大同區酒泉街235號","geocode_status":"success","geocode_quality":"ROOFTOP","geocoder":"google_maps","geocoded_formatted_address":"103台灣臺北市大同區酒泉街235號","source_dataset_id":"26496","source":"內政部 data.gov.tw 26496（moi_26496）","retrieved_at":"2026-10-01T18:30:28+00:00","db_updated_at":"2026-05-11T15:40:01.577632+00:00"}},{"type":"Feature","geometry":{"type":"Point","coordinates":[121.250409,24.836412]},"properties":{"plant_id":"moi:10","name":"石門水資源回收中心","county":"桃園市","address":"桃園市龍潭區永昌路51巷160號","geocode_status":"success","geocode_quality":"ROOFTOP","geocoder":"google_maps","geocoded_formatted_address":"325台灣桃園市龍潭區永昌路51巷160號","source_dataset_id":"26496","source":"內政部 data.gov.tw 26496（moi_26496）","retrieved_at":"2026-10-01T18:30:28+00:00","db_updated_at":"2026-05-11T15:40:02.264911+00:00"}},{"type":"Feature","geometry":{"type":"Point","coordinates":[121.13361,24.926883]},"properties":{"plant_id":"moi:11","name":"楊梅水資源回收中心","county":"桃園市","address":"桃園市楊梅區楊新路三段四巷200號","geocode_status":"success","geocode_quality":"ROOFTOP","geocoder":"google_maps","geocoded_formatted_address":"326台灣桃园市杨梅區楊新路三段4巷200號","source_dataset_id":"26496","source":"內政部 data.gov.tw 26496（moi_26496）","retrieved_at":"2026-10-01T18:30:28+00:00","db_updated_at":"2026-05-11T15:40:02.656596+00:00"}},{"type":"Feature","geometry":{"type":"Point","coordinates":[121.369292,25.045593]},"properties":{"plant_id":"moi:12","name":"龜山水資源回收中心","county":"桃園市","address":"桃園市龜山區文化村復興三路247巷30號","geocode_status":"success","geocode_quality":"ROOFTOP","geocoder":"google_maps","geocoded_formatted_address":"333台灣桃園市龜山區復興三路247巷30號村","source_dataset_id":"26496","source":"內政部 data.gov.tw 26496（moi_26496）","retrieved_at":"2026-10-01T18:30:28+00:00","db_updated_at":"2026-05-11T15:40:03.068514+00:00"}},{"type":"Feature","geometry":{"type":"Point","coordinates":[121.256582,25.053943]},"properties":{"plant_id":"moi:13","name":"桃園北區水資源回收中心","county":"桃園市","address":"桃園市蘆竹區富華路一段177號","geocode_status":"success","geocode_quality":"GEOMETRIC_CENTER","geocoder":"google_maps","geocoded_formatted_address":"338台灣桃園市蘆竹區富華路","source_dataset_id":"26496","source":"內政部 data.gov.tw 26496（moi_26496）","retrieved_at":"2026-10-01T18:30:28+00:00","db_updated_at":"2026-05-11T15:40:03.440756+00:00"}},{"type":"Feature","geometry":{"type":"Point","coordinates":[121.297782,24.895933]},"properties":{"plant_id":"moi:14","name":"大溪水資源回收中心","county":"桃園市","address":"桃園市大溪區月眉里6鄰月湖路200號","geocode_status":"success","geocode_quality":"ROOFTOP","geocoder":"google_maps","geocoded_formatted_address":"335台灣桃園市大溪區月湖路200號","source_dataset_id":"26496","source":"內政部 data.gov.tw 26496（moi_26496）","retrieved_at":"2026-10-01T18:30:28+00:00","db_updated_at":"2026-05-11T15:40:03.814486+00:00"}},{"type":"Feature","geometry":{"type":"Point","coordinates":[121.350682,24.813974]},"properties":{"plant_id":"moi:15","name":"復興鄉都市計畫區水資源回收中心","county":"桃園市","address":"桃園市復興區角板段982-5、1002-1、1003-1等3筆地號","geocode_status":"success","geocode_quality":"ROOFTOP","geocoder":"google_maps","geocoded_formatted_address":"336台灣桃園市復興區中正路2號角板山公園","source_dataset_id":"26496","source":"內政部 data.gov.tw 26496（moi_26496）","retrieved_at":"2026-10-01T18:30:28+00:00","db_updated_at":"2026-05-11T15:40:04.206980+00:00"}},{"type":"Feature","geometry":{"type":"Point","coordinates":[121.393519,25.039185]},"properties":{"plant_id":"moi:16","name":"文青水園水資源回收中心","county":"桃園市","address":"桃園市龜山區文青路383號","geocode_status":"success","geocode_quality":"ROOFTOP","geocoder":"google_maps","geocoded_formatted_address":"333台灣桃園市龜山區文青路383號","source_dataset_id":"26496","source":"內政部 data.gov.tw 26496（moi_26496）","retrieved_at":"2026-10-01T18:30:28+00:00","db_updated_at":"2026-05-11T15:40:04.599214+00:00"}},{"type":"Feature","geometry":{"type":"Point","coordinates":[121.377034,24.709089]},"properties":{"plant_id":"moi:17","name":"羅浮水資源回收中心","county":"桃園市","address":"桃園市復興區拉號段0017-0013地號","geocode_status":"success","geocode_quality":"APPROXIMATE","geocoder":"google_maps","geocoded_formatted_address":"336台灣桃園市復興區","source_dataset_id":"26496","source":"內政部 data.gov.tw 26496（moi_26496）","retrieved_at":"2026-10-01T18:30:28+00:00","db_updated_at":"2026-05-11T15:40:04.975115+00:00"}},{"type":"Feature","geometry":{"type":"Point","coordinates":[121.377034,24.709089]},"properties":{"plant_id":"moi:18","name":"義盛水資源回收中心","county":"桃園市","address":"桃園市復興區義盛段0426-0000、0426-0001地號","geocode_status":"success","geocode_quality":"APPROXIMATE","geocoder":"google_maps","geocoded_formatted_address":"336台灣桃園市復興區","source_dataset_id":"26496","source":"內政部 data.gov.tw 26496（moi_26496）","retrieved_at":"2026-10-01T18:30:28+00:00","db_updated_at":"2026-05-11T15:40:05.355393+00:00"}},{"type":"Feature","geometry":{"type":"Point","coordinates":[121.307667,24.919798]},"properties":{"plant_id":"moi:19","name":"埔頂水資源回收中心","county":"桃園市","address":"桃園市大溪區大鶯路1020巷65號","geocode_status":"success","geocode_quality":"ROOFTOP","geocoder":"google_maps","geocoded_formatted_address":"335台灣桃園市大溪區大鶯路1020巷65號","source_dataset_id":"26496","source":"內政部 data.gov.tw 26496（moi_26496）","retrieved_at":"2026-10-01T18:30:28+00:00","db_updated_at":"2026-05-11T15:40:05.719369+00:00"}},{"type":"Feature","geometry":{"type":"Point","coordinates":[121.574334,25.066563]},"properties":{"plant_id":"moi:2","name":"內湖污水處理廠","county":"臺北市","address":"臺北市內湖區舊宗路二段2號","geocode_status":"success","geocode_quality":"ROOFTOP","geocoder":"google_maps","geocoded_formatted_address":"114台灣臺北市內湖區舊宗路二段2號","source_dataset_id":"26496","source":"內政部 data.gov.tw 26496（moi_26496）","retrieved_at":"2026-10-01T18:30:28+00:00","db_updated_at":"2026-05-11T15:40:06.079133+00:00"}},{"type":"Feature","geometry":{"type":"Point","coordinates":[121.70294,25.083138]},"properties":{"plant_id":"moi:20","name":"基隆市六堵水資源回收中心","county":"基隆市","address":"基隆市七堵區六堵里工建南路25號","geocode_status":"success","geocode_quality":"ROOFTOP","geocoder":"google_maps","geocoded_formatted_address":"206台灣基隆市七堵區工建南路25號","source_dataset_id":"26496","source":"內政部 data.gov.tw 26496（moi_26496）","retrieved_at":"2026-10-01T18:30:28+00:00","db_updated_at":"2026-05-11T15:40:06.448207+00:00"}},{"type":"Feature","geometry":{"type":"Point","coordinates":[121.77391,25.158458]},"properties":{"plant_id":"moi:21","name":"和平島水資源回收中心","county":"基隆市","address":"基隆市中正區和一路2巷32號","geocode_status":"success","geocode_quality":"ROOFTOP","geocoder":"google_maps","geocoded_formatted_address":"202台灣基隆市中正區和一路2巷32號","source_dataset_id":"26496","source":"內政部 data.gov.tw 26496（moi_26496）","retrieved_at":"2026-10-01T18:30:28+00:00","db_updated_at":"2026-05-11T15:40:06.800513+00:00"}},{"type":"Feature","geometry":{"type":"Point","coordinates":[121.809816,24.726414]},"properties":{"plant_id":"moi:22","name":"宜蘭地區水資源回收中心","county":"宜蘭縣","address":"宜蘭縣壯圍鄉新南村新南路103之10號","geocode_status":"success","geocode_quality":"ROOFTOP","geocoder":"google_maps","geocoded_formatted_address":"263台灣宜蘭縣壯圍鄉新南路103號10 号","source_dataset_id":"26496","source":"內政部 data.gov.tw 26496（moi_26496）","retrieved_at":"2026-10-01T18:30:28+00:00","db_updated_at":"2026-05-11T15:40:07.188240+00:00"}},{"type":"Feature","geometry":{"type":"Point","coordinates":[121.806325,24.669103]},"properties":{"plant_id":"moi:23","name":"羅東地區水資源回收中心","county":"宜蘭縣","address":"宜蘭縣冬山鄉武淵一路61號","geocode_status":"success","geocode_quality":"ROOFTOP","geocoder":"google_maps","geocoded_formatted_address":"269台灣宜蘭縣冬山鄉武淵一路61號","source_dataset_id":"26496","source":"內政部 data.gov.tw 26496（moi_26496）","retrieved_at":"2026-10-01T18:30:28+00:00","db_updated_at":"2026-05-11T15:40:07.536519+00:00"}},{"type":"Feature","geometry":{"type":"Point","coordinates":[121.084679,24.746742]},"properties":{"plant_id":"moi:24","name":"竹東水資源回收中心","county":"新竹縣","address":"新竹縣竹東鎮榮華里水資路299號","geocode_status":"success","geocode_quality":"GEOMETRIC_CENTER","geocoder":"google_maps","geocoded_formatted_address":"310台灣新竹縣竹東鎮水資路","source_dataset_id":"26496","source":"內政部 data.gov.tw 26496（moi_26496）","retrieved_at":"2026-10-01T18:30:28+00:00","db_updated_at":"2026-05-11T15:40:07.931128+00:00"}},{"type":"Feature","geometry":{"type":"Point","coordinates":[120.95548,24.853234]},"properties":{"plant_id":"moi:25","name":"竹北水資源回收中心","county":"新竹縣","address":"新竹縣竹北市新竹縣竹北市水防道路五段151號","geocode_status":"success","geocode_quality":"ROOFTOP","geocoder":"google_maps","geocoded_formatted_address":"302台灣新竹縣竹北市水防道路五段151 號","source_dataset_id":"26496","source":"內政部 data.gov.tw 26496（moi_26496）","retrieved_at":"2026-10-01T18:30:28+00:00","db_updated_at":"2026-05-11T15:40:08.307464+00:00"}},{"type":"Feature","geometry":{"type":"Point","coordinates":[121.595001,23.930873]},"properties":{"plant_id":"moi:26","name":"花蓮水資源回收中心","county":"花蓮縣","address":"花蓮縣吉安鄉南濱路一段531號","geocode_status":"success","geocode_quality":"ROOFTOP","geocoder":"google_maps","geocoded_formatted_address":"973台灣花蓮縣吉安鄉南濱路一段531號","source_dataset_id":"26496","source":"內政部 data.gov.tw 26496（moi_26496）","retrieved_at":"2026-10-01T18:30:28+00:00","db_updated_at":"2026-05-11T15:40:08.675261+00:00"}},{"type":"Feature","geometry":{"type":"Point","coordinates":[119.955263,26.154522]},"properties":{"plant_id":"moi:27","name":"介壽村污水處理廠","county":"連江縣","address":"連江縣南竿介壽村156之10號","geocode_status":"success","geocode_quality":"APPROXIMATE","geocoder":"google_maps","geocoded_formatted_address":"介壽村","source_dataset_id":"26496","source":"內政部 data.gov.tw 26496（moi_26496）","retrieved_at":"2026-10-01T18:30:28+00:00","db_updated_at":"2026-05-11T15:40:52.686453+00:00"}},{"type":"Feature","geometry":{"type":"Point","coordinates":[120.916185,24.798418]},"properties":{"plant_id":"moi:28","name":"新竹市客雅水資源回收中心","county":"新竹市","address":"新竹市新竹市香山區大庄里3鄰彩虹路99號","geocode_status":"success","geocode_quality":"ROOFTOP","geocoder":"google_maps","geocoded_formatted_address":"300台灣新竹市香山區彩虹路99號","source_dataset_id":"26496","source":"內政部 data.gov.tw 26496（moi_26496）","retrieved_at":"2026-10-01T18:30:28+00:00","db_updated_at":"2026-05-11T15:40:09.403232+00:00"}},{"type":"Feature","geometry":{"type":"Point","coordinates":[120.828826,24.590518]},"properties":{"plant_id":"moi:29","name":"苗栗地區水資源回收中心","county":"苗栗縣","address":"苗栗縣苗栗市嘉新里經國路4段867號","geocode_status":"success","geocode_quality":"ROOFTOP","geocoder":"google_maps","geocoded_formatted_address":"360台灣苗栗縣苗栗市經國路四段867號","source_dataset_id":"26496","source":"內政部 data.gov.tw 26496（moi_26496）","retrieved_at":"2026-10-01T18:30:28+00:00","db_updated_at":"2026-05-11T15:40:09.775523+00:00"}},{"type":"Feature","geometry":{"type":"Point","coordinates":[121.409587,25.160305]},"properties":{"plant_id":"moi:3","name":"八里污水處理廠","county":"新北市","address":"新北市八里區博物館路90號","geocode_status":"success","geocode_quality":"ROOFTOP","geocoder":"google_maps","geocoded_formatted_address":"249台灣新北市八里區博物館路90號","source_dataset_id":"26496","source":"內政部 data.gov.tw 26496（moi_26496）","retrieved_at":"2026-10-01T18:30:28+00:00","db_updated_at":"2026-05-11T15:40:10.150351+00:00"}},{"type":"Feature","geometry":{"type":"Point","coordinates":[120.880818,24.585761]},"properties":{"plant_id":"moi:30","name":"明德水庫特定區水資源回收中心","county":"苗栗縣","address":"苗栗縣頭屋鄉明德路156-7號","geocode_status":"success","geocode_quality":"ROOFTOP","geocoder":"google_maps","geocoded_formatted_address":"362台灣苗栗縣頭屋鄉明德路156-7號","source_dataset_id":"26496","source":"內政部 data.gov.tw 26496（moi_26496）","retrieved_at":"2026-10-01T18:30:28+00:00","db_updated_at":"2026-05-11T15:40:10.506417+00:00"}},{"type":"Feature","geometry":{"type":"Point","coordinates":[120.871856,24.671437]},"properties":{"plant_id":"moi:31","name":"竹南頭份水資源回收中心","county":"苗栗縣","address":"苗栗縣竹南鎮大厝里獅山83-30號","geocode_status":"success","geocode_quality":"RANGE_INTERPOLATED","geocoder":"google_maps","geocoded_formatted_address":"350台灣苗栗縣竹南鎮獅山83號","source_dataset_id":"26496","source":"內政部 data.gov.tw 26496（moi_26496）","retrieved_at":"2026-10-01T18:30:28+00:00","db_updated_at":"2026-05-11T15:40:10.890313+00:00"}},{"type":"Feature","geometry":{"type":"Point","coordinates":[120.854543,24.576586]},"properties":{"plant_id":"moi:32","name":"明德水庫特定區南岸水資源回收中心","county":"苗栗縣","address":"苗栗縣頭屋鄉仁隆段766-50、766-51地號","geocode_status":"success","geocode_quality":"APPROXIMATE","geocoder":"google_maps","geocoded_formatted_address":"362台灣苗栗縣頭屋鄉頭屋","source_dataset_id":"26496","source":"內政部 data.gov.tw 26496（moi_26496）","retrieved_at":"2026-10-01T18:30:28+00:00","db_updated_at":"2026-05-11T15:40:11.242331+00:00"}},{"type":"Feature","geometry":{"type":"Point","coordinates":[120.795197,24.615302]},"properties":{"plant_id":"moi:33","name":"後龍水資源回收中心","county":"苗栗縣","address":"苗栗縣後龍鎮光華路1巷5號","geocode_status":"success","geocode_quality":"ROOFTOP","geocoder":"google_maps","geocoded_formatted_address":"356台灣苗栗縣後龍鎮光華路502-1號5 号","source_dataset_id":"26496","source":"內政部 data.gov.tw 26496（moi_26496）","retrieved_at":"2026-10-01T18:30:28+00:00","db_updated_at":"2026-05-11T15:40:11.618321+00:00"}},{"type":"Feature","geometry":{"type":"Point","coordinates":[120.66,24.1086]},"properties":{"plant_id":"moi:34","name":"福田水資源回收中心","county":"臺中市","address":"臺中市南區福田二街23號","geocode_status":"success","geocode_quality":"ROOFTOP","geocoder":"google_maps","geocoded_formatted_address":"402台灣臺中市南區福田二街23號","source_dataset_id":"26496","source":"內政部 data.gov.tw 26496（moi_26496）","retrieved_at":"2026-10-01T18:30:28+00:00","db_updated_at":"2026-05-11T15:40:11.970336+00:00"}},{"type":"Feature","geometry":{"type":"Point","coordinates":[120.765362,24.277715]},"properties":{"plant_id":"moi:35","name":"台中市石岡壩水資源回收中心","county":"臺中市","address":"臺中市石岡區豐勢路1274-1號","geocode_status":"success","geocode_quality":"ROOFTOP","geocoder":"google_maps","geocoded_formatted_address":"422台灣臺中市石岡區豐勢路1274之1號","source_dataset_id":"26496","source":"內政部 data.gov.tw 26496（moi_26496）","retrieved_at":"2026-10-01T18:30:28+00:00","db_updated_at":"2026-05-11T15:40:12.324385+00:00"}},{"type":"Feature","geometry":{"type":"Point","coordinates":[120.655037,24.174204]},"properties":{"plant_id":"moi:36","name":"水湳經貿園區水資源回收中心","county":"臺中市","address":"臺中市西屯區甘肅路二段123號","geocode_status":"success","geocode_quality":"ROOFTOP","geocoder":"google_maps","geocoded_formatted_address":"407台灣臺中市西屯區甘肅路二段123-131號","source_dataset_id":"26496","source":"內政部 data.gov.tw 26496（moi_26496）","retrieved_at":"2026-10-01T18:30:28+00:00","db_updated_at":"2026-05-11T15:40:12.697684+00:00"}},{"type":"Feature","geometry":{"type":"Point","coordinates":[121.294615,24.318915]},"properties":{"plant_id":"moi:37","name":"環山水資源回收中心","county":"臺中市","address":"臺中市和平區平等里中興路三段環山3巷35之2號","geocode_status":"success","geocode_quality":"ROOFTOP","geocoder":"google_maps","geocoded_formatted_address":"424台灣臺中市和平區中興路三段環山二巷號號","source_dataset_id":"26496","source":"內政部 data.gov.tw 26496（moi_26496）","retrieved_at":"2026-10-01T18:30:28+00:00","db_updated_at":"2026-05-11T15:40:13.077619+00:00"}},{"type":"Feature","geometry":{"type":"Point","coordinates":[120.491212,24.206039]},"properties":{"plant_id":"moi:38","name":"臺中港特定區水資源回收中心","county":"臺中市","address":"臺中市龍井區龍港路901號","geocode_status":"success","geocode_quality":"ROOFTOP","geocoder":"google_maps","geocoded_formatted_address":"434台灣臺中市龍井區龍港路901號","source_dataset_id":"26496","source":"內政部 data.gov.tw 26496（moi_26496）","retrieved_at":"2026-10-01T18:30:28+00:00","db_updated_at":"2026-05-11T15:40:13.433853+00:00"}},{"type":"Feature","geometry":{"type":"Point","coordinates":[120.616761,24.139574]},"properties":{"plant_id":"moi:39","name":"文山水資源回收中心","county":"臺中市","address":"臺中市南屯區永春路42-12號","geocode_status":"success","geocode_quality":"ROOFTOP","geocoder":"google_maps","geocoded_formatted_address":"408台灣臺中市南屯區永春路42-12號","source_dataset_id":"26496","source":"內政部 data.gov.tw 26496（moi_26496）","retrieved_at":"2026-10-01T18:30:28+00:00","db_updated_at":"2026-05-11T15:40:13.801672+00:00"}},{"type":"Feature","geometry":{"type":"Point","coordinates":[121.360083,24.954783]},"properties":{"plant_id":"moi:4","name":"三鶯水資源回收中心","county":"新北市","address":"新北市鶯歌區239新北市鶯歌區館前路360號","geocode_status":"success","geocode_quality":"ROOFTOP","geocoder":"google_maps","geocoded_formatted_address":"239台灣新北市鶯歌區館前路360號","source_dataset_id":"26496","source":"內政部 data.gov.tw 26496（moi_26496）","retrieved_at":"2026-10-01T18:30:28+00:00","db_updated_at":"2026-05-11T15:40:14.157876+00:00"}},{"type":"Feature","geometry":{"type":"Point","coordinates":[121.239889,24.257968]},"properties":{"plant_id":"moi:40","name":"梨山水資源回收中心","county":"臺中市","address":"臺中市和平區梨山里和平路一段2之1號","geocode_status":"success","geocode_quality":"ROOFTOP","geocoder":"google_maps","geocoded_formatted_address":"424台灣臺中市和平區和平路一段2之6號2之1號","source_dataset_id":"26496","source":"內政部 data.gov.tw 26496（moi_26496）","retrieved_at":"2026-10-01T18:30:28+00:00","db_updated_at":"2026-05-11T15:40:14.526160+00:00"}},{"type":"Feature","geometry":{"type":"Point","coordinates":[120.720921,24.236405]},"properties":{"plant_id":"moi:41","name":"豐原水資源回收中心","county":"臺中市","address":"臺中市豐原區豐原大道二段598號","geocode_status":"success","geocode_quality":"ROOFTOP","geocoder":"google_maps","geocoded_formatted_address":"420台灣臺中市豐原區豐原大道二段598號","source_dataset_id":"26496","source":"內政部 data.gov.tw 26496（moi_26496）","retrieved_at":"2026-10-01T18:30:28+00:00","db_updated_at":"2026-05-11T15:40:14.873945+00:00"}},{"type":"Feature","geometry":{"type":"Point","coordinates":[120.73016,24.160693]},"properties":{"plant_id":"moi:42","name":"?子水資源回收中心","county":"臺中市","address":"臺中市北屯區太原路三段1280號","geocode_status":"success","geocode_quality":"ROOFTOP","geocoder":"google_maps","geocoded_formatted_address":"406台灣臺中市北屯區太原路三段1280號","source_dataset_id":"26496","source":"內政部 data.gov.tw 26496（moi_26496）","retrieved_at":"2026-10-01T18:30:28+00:00","db_updated_at":"2026-05-11T15:40:15.246793+00:00"}},{"type":"Feature","geometry":{"type":"Point","coordinates":[120.711976,24.135717]},"properties":{"plant_id":"moi:43","name":"新光水資源回收中心","county":"臺中市","address":"臺中市太平區祥順路一段5號","geocode_status":"success","geocode_quality":"ROOFTOP","geocoder":"google_maps","geocoded_formatted_address":"411台灣臺中市太平區祥順路一段5號","source_dataset_id":"26496","source":"內政部 data.gov.tw 26496（moi_26496）","retrieved_at":"2026-10-01T18:30:28+00:00","db_updated_at":"2026-05-11T15:40:15.597442+00:00"}},{"type":"Feature","geometry":{"type":"Point","coordinates":[120.52174,24.06236]},"properties":{"plant_id":"moi:44","name":"彰化市水資源回收中心","county":"彰化縣","address":"彰化縣彰化市中華西路701號","geocode_status":"success","geocode_quality":"ROOFTOP","geocoder":"google_maps","geocoded_formatted_address":"500台灣彰化縣彰化市中華西路701號","source_dataset_id":"26496","source":"內政部 data.gov.tw 26496（moi_26496）","retrieved_at":"2026-10-01T18:30:28+00:00","db_updated_at":"2026-05-11T15:40:15.947218+00:00"}},{"type":"Feature","geometry":{"type":"Point","coordinates":[120.357406,23.888663]},"properties":{"plant_id":"moi:45","name":"二林污水處理廠","county":"彰化縣","address":"彰化縣二林鎮二城路615號","geocode_status":"success","geocode_quality":"ROOFTOP","geocoder":"google_maps","geocoded_formatted_address":"526台灣彰化縣二林鎮二城路615號","source_dataset_id":"26496","source":"內政部 data.gov.tw 26496（moi_26496）","retrieved_at":"2026-10-01T18:30:28+00:00","db_updated_at":"2026-05-11T15:40:16.319565+00:00"}},{"type":"Feature","geometry":{"type":"Point","coordinates":[120.423066,24.057579]},"properties":{"plant_id":"moi:46","name":"鹿港福興水資源回收中心","county":"彰化縣","address":"彰化縣鹿港鎮東石里23鄰媽祖路111號","geocode_status":"success","geocode_quality":"ROOFTOP","geocoder":"google_maps","geocoded_formatted_address":"505台灣彰化縣鹿港鎮媽祖路111號","source_dataset_id":"26496","source":"內政部 data.gov.tw 26496（moi_26496）","retrieved_at":"2026-10-01T18:30:28+00:00","db_updated_at":"2026-05-11T15:40:16.716191+00:00"}},{"type":"Feature","geometry":{"type":"Point","coordinates":[120.690708,23.94709]},"properties":{"plant_id":"moi:47","name":"中正路污水處理廠","county":"南投縣","address":"南投縣南投市中興新村中正路206-1號/南投縣南投市光華段970、978、980~992、995、996、997-1、997-2、997-4、999、1000、1002、1037、1039地號","geocode_status":"success","geocode_quality":"ROOFTOP","geocoder":"google_maps","geocoded_formatted_address":"540台灣南投縣南投市中正路206-1號","source_dataset_id":"26496","source":"內政部 data.gov.tw 26496（moi_26496）","retrieved_at":"2026-10-01T18:30:28+00:00","db_updated_at":"2026-05-11T15:40:17.145322+00:00"}},{"type":"Feature","geometry":{"type":"Point","coordinates":[120.687352,23.955234]},"properties":{"plant_id":"moi:48","name":"內轆污水處理廠","county":"南投縣","address":"南投縣南投市中興新村中興一路55號","geocode_status":"success","geocode_quality":"APPROXIMATE","geocoder":"google_maps","geocoded_formatted_address":"540台灣南投縣南投市中興新村","source_dataset_id":"26496","source":"內政部 data.gov.tw 26496（moi_26496）","retrieved_at":"2026-10-01T18:30:28+00:00","db_updated_at":"2026-05-11T15:40:17.529562+00:00"}},{"type":"Feature","geometry":{"type":"Point","coordinates":[120.67231,23.959816]},"properties":{"plant_id":"moi:49","name":"草屯水資源回收中心","county":"南投縣","address":"南投縣草屯鎮草溪路154之60巷42號","geocode_status":"success","geocode_quality":"ROOFTOP","geocoder":"google_maps","geocoded_formatted_address":"542台灣南投縣草屯鎮草溪路154之53號154之53號42","source_dataset_id":"26496","source":"內政部 data.gov.tw 26496（moi_26496）","retrieved_at":"2026-10-01T18:30:28+00:00","db_updated_at":"2026-05-11T15:40:17.884012+00:00"}},{"type":"Feature","geometry":{"type":"Point","coordinates":[121.485114,24.989339]},"properties":{"plant_id":"moi:5","name":"林口水資源回收中心","county":"新北市","address":"新北市八里區新北市八里區長坑里6鄰長道坑36-3號","geocode_status":"success","geocode_quality":"GEOMETRIC_CENTER","geocoder":"google_maps","geocoded_formatted_address":"台灣新北市國道3號","source_dataset_id":"26496","source":"內政部 data.gov.tw 26496（moi_26496）","retrieved_at":"2026-10-01T18:30:28+00:00","db_updated_at":"2026-05-11T15:40:18.444056+00:00"}},{"type":"Feature","geometry":{"type":"Point","coordinates":[120.793537,23.678606]},"properties":{"plant_id":"moi:50","name":"溪頭污水處理廠","county":"南投縣","address":"南投縣鹿谷鄉內湖村興產路22-16號","geocode_status":"success","geocode_quality":"ROOFTOP","geocoder":"google_maps","geocoded_formatted_address":"558台灣南投縣鹿谷鄉興產路22-16號","source_dataset_id":"26496","source":"內政部 data.gov.tw 26496（moi_26496）","retrieved_at":"2026-10-01T18:30:28+00:00","db_updated_at":"2026-05-11T15:40:18.815997+00:00"}},{"type":"Feature","geometry":{"type":"Point","coordinates":[120.687454,23.918417]},"properties":{"plant_id":"moi:51","name":"南投市水資源回收中心","county":"南投縣","address":"南投縣南投市信義街366號","geocode_status":"success","geocode_quality":"ROOFTOP","geocoder":"google_maps","geocoded_formatted_address":"540台灣南投縣南投市信義街366號","source_dataset_id":"26496","source":"內政部 data.gov.tw 26496（moi_26496）","retrieved_at":"2026-10-01T18:30:28+00:00","db_updated_at":"2026-05-11T15:40:19.156013+00:00"}},{"type":"Feature","geometry":{"type":"Point","coordinates":[120.530369,23.712432]},"properties":{"plant_id":"moi:52","name":"斗六市水資源回收中心","county":"雲林縣","address":"雲林縣斗六市保源二街199號","geocode_status":"success","geocode_quality":"ROOFTOP","geocoder":"google_maps","geocoded_formatted_address":"640台灣雲林縣斗六市保源二街199號","source_dataset_id":"26496","source":"內政部 data.gov.tw 26496（moi_26496）","retrieved_at":"2026-10-01T18:30:28+00:00","db_updated_at":"2026-05-11T15:40:19.508049+00:00"}},{"type":"Feature","geometry":{"type":"Point","coordinates":[120.283789,23.454659]},"properties":{"plant_id":"moi:53","name":"嘉義縣擴大縣治污水處理廠","county":"嘉義縣","address":"嘉義縣朴子市朴子七路25號","geocode_status":"success","geocode_quality":"ROOFTOP","geocoder":"google_maps","geocoded_formatted_address":"613台灣嘉義縣朴子市朴子七路25號","source_dataset_id":"26496","source":"內政部 data.gov.tw 26496（moi_26496）","retrieved_at":"2026-10-01T18:30:28+00:00","db_updated_at":"2026-05-11T15:40:19.869172+00:00"}},{"type":"Feature","geometry":{"type":"Point","coordinates":[120.230517,23.463647]},"properties":{"plant_id":"moi:54","name":"朴子市水資源回收中心","county":"嘉義縣","address":"嘉義縣朴子市永和里應菜埔109之11號","geocode_status":"success","geocode_quality":"ROOFTOP","geocoder":"google_maps","geocoded_formatted_address":"613台灣嘉義縣朴子市109","source_dataset_id":"26496","source":"內政部 data.gov.tw 26496（moi_26496）","retrieved_at":"2026-10-01T18:30:28+00:00","db_updated_at":"2026-05-11T15:40:20.268306+00:00"}},{"type":"Feature","geometry":{"type":"Point","coordinates":[120.429197,23.510377]},"properties":{"plant_id":"moi:55","name":"民雄鄉水資源回收中心","county":"嘉義縣","address":"嘉義縣民雄鄉福興村牛稠溪68-15號","geocode_status":"success","geocode_quality":"ROOFTOP","geocoder":"google_maps","geocoded_formatted_address":"621台灣嘉義縣民雄鄉68-15","source_dataset_id":"26496","source":"內政部 data.gov.tw 26496（moi_26496）","retrieved_at":"2026-10-01T18:30:28+00:00","db_updated_at":"2026-05-11T15:40:20.676181+00:00"}},{"type":"Feature","geometry":{"type":"Point","coordinates":[120.405737,23.492626]},"properties":{"plant_id":"moi:56","name":"嘉義市水資源回收中心","county":"嘉義市","address":"嘉義市嘉義市西區保福一路222號","geocode_status":"success","geocode_quality":"ROOFTOP","geocoder":"google_maps","geocoded_formatted_address":"600台灣嘉義市西區保福一路222號","source_dataset_id":"26496","source":"內政部 data.gov.tw 26496（moi_26496）","retrieved_at":"2026-10-01T18:30:28+00:00","db_updated_at":"2026-05-11T15:40:21.044109+00:00"}},{"type":"Feature","geometry":{"type":"Point","coordinates":[120.168661,23.017406]},"properties":{"plant_id":"moi:57","name":"安南水資源回收中心","county":"臺南市","address":"臺南市安南區郡安路七段188號","geocode_status":"success","geocode_quality":"ROOFTOP","geocoder":"google_maps","geocoded_formatted_address":"709台灣臺南市安南區郡安路七段188 號","source_dataset_id":"26496","source":"內政部 data.gov.tw 26496（moi_26496）","retrieved_at":"2026-10-01T18:30:28+00:00","db_updated_at":"2026-05-11T15:40:21.408387+00:00"}},{"type":"Feature","geometry":{"type":"Point","coordinates":[120.31076,23.184949]},"properties":{"plant_id":"moi:58","name":"官田區污水處理廠","county":"臺南市","address":"臺南市官田區隆田里裕農路210號","geocode_status":"success","geocode_quality":"ROOFTOP","geocoder":"google_maps","geocoded_formatted_address":"720台灣臺南市官田區裕農路210號","source_dataset_id":"26496","source":"內政部 data.gov.tw 26496（moi_26496）","retrieved_at":"2026-10-01T18:30:28+00:00","db_updated_at":"2026-05-11T15:40:21.768011+00:00"}},{"type":"Feature","geometry":{"type":"Point","coordinates":[120.37776,23.28364]},"properties":{"plant_id":"moi:59","name":"柳營水資源回收中心","county":"臺南市","address":"臺南市柳營區義士路268號","geocode_status":"success","geocode_quality":"RANGE_INTERPOLATED","geocoder":"google_maps","geocoded_formatted_address":"736台灣臺南市柳營區義士路一段268號","source_dataset_id":"26496","source":"內政部 data.gov.tw 26496（moi_26496）","retrieved_at":"2026-10-01T18:30:28+00:00","db_updated_at":"2026-05-11T15:40:22.144298+00:00"}},{"type":"Feature","geometry":{"type":"Point","coordinates":[121.442401,25.18916]},"properties":{"plant_id":"moi:6","name":"淡水水資源回收中心","county":"新北市","address":"新北市淡水區濱海路三3段601號","geocode_status":"success","geocode_quality":"GEOMETRIC_CENTER","geocoder":"google_maps","geocoded_formatted_address":"251台灣新北市淡水區濱海路一段","source_dataset_id":"26496","source":"內政部 data.gov.tw 26496（moi_26496）","retrieved_at":"2026-10-01T18:30:28+00:00","db_updated_at":"2026-05-11T15:40:22.508263+00:00"}},{"type":"Feature","geometry":{"type":"Point","coordinates":[120.24896,22.981643]},"properties":{"plant_id":"moi:60","name":"虎尾寮污水處理廠","county":"臺南市","address":"臺南市東區高速一街一段626號","geocode_status":"success","geocode_quality":"ROOFTOP","geocoder":"google_maps","geocoded_formatted_address":"701台灣臺南市東區高速一街一段626號","source_dataset_id":"26496","source":"內政部 data.gov.tw 26496（moi_26496）","retrieved_at":"2026-10-01T18:30:28+00:00","db_updated_at":"2026-05-11T15:40:22.866477+00:00"}},{"type":"Feature","geometry":{"type":"Point","coordinates":[120.252729,22.957183]},"properties":{"plant_id":"moi:61","name":"仁德水資源回收中心","county":"臺南市","address":"臺南市仁德區文賢里中正路二段一巷530號","geocode_status":"success","geocode_quality":"GEOMETRIC_CENTER","geocoder":"google_maps","geocoded_formatted_address":"717台灣臺南市仁德區中正路二段","source_dataset_id":"26496","source":"內政部 data.gov.tw 26496（moi_26496）","retrieved_at":"2026-10-01T18:30:28+00:00","db_updated_at":"2026-05-11T15:40:23.266174+00:00"}},{"type":"Feature","geometry":{"type":"Point","coordinates":[120.177734,22.982505]},"properties":{"plant_id":"moi:62","name":"安平水資源回收中心","county":"臺南市","address":"臺南市安平區健康路三段15號","geocode_status":"success","geocode_quality":"ROOFTOP","geocoder":"google_maps","geocoded_formatted_address":"708台灣臺南市安平區健康路三段15號","source_dataset_id":"26496","source":"內政部 data.gov.tw 26496（moi_26496）","retrieved_at":"2026-10-01T18:30:28+00:00","db_updated_at":"2026-05-11T15:40:23.610267+00:00"}},{"type":"Feature","geometry":{"type":"Point","coordinates":[120.240556,23.047789]},"properties":{"plant_id":"moi:63","name":"永康區水資源回收中心","county":"臺南市","address":"臺南市永康區仁愛街151號","geocode_status":"success","geocode_quality":"ROOFTOP","geocoder":"google_maps","geocoded_formatted_address":"710台灣臺南市永康區仁愛街151號","source_dataset_id":"26496","source":"內政部 data.gov.tw 26496（moi_26496）","retrieved_at":"2026-10-01T18:30:28+00:00","db_updated_at":"2026-05-11T15:40:23.966170+00:00"}},{"type":"Feature","geometry":{"type":"Point","coordinates":[120.299032,22.768902]},"properties":{"plant_id":"moi:64","name":"岡山橋頭污水處理廠","county":"高雄市","address":"高雄市橋頭區林西路7號","geocode_status":"success","geocode_quality":"ROOFTOP","geocoder":"google_maps","geocoded_formatted_address":"825台灣高雄市橋頭區林西路7號","source_dataset_id":"26496","source":"內政部 data.gov.tw 26496（moi_26496）","retrieved_at":"2026-10-01T18:30:28+00:00","db_updated_at":"2026-05-11T15:40:24.322234+00:00"}},{"type":"Feature","geometry":{"type":"Point","coordinates":[120.26944,22.728387]},"properties":{"plant_id":"moi:65","name":"楠梓污水處理廠","county":"高雄市","address":"高雄市楠梓區援港路668號","geocode_status":"success","geocode_quality":"ROOFTOP","geocoder":"google_maps","geocoded_formatted_address":"811台灣高雄市楠梓區援港路668號","source_dataset_id":"26496","source":"內政部 data.gov.tw 26496（moi_26496）","retrieved_at":"2026-10-01T18:30:28+00:00","db_updated_at":"2026-05-11T15:40:24.674295+00:00"}},{"type":"Feature","geometry":{"type":"Point","coordinates":[120.287555,22.586225]},"properties":{"plant_id":"moi:66","name":"中區污水處理廠","county":"高雄市","address":"高雄市旗津區旗津區旗津二路455號","geocode_status":"success","geocode_quality":"ROOFTOP","geocoder":"google_maps","geocoded_formatted_address":"805台灣高雄市旗津區旗津二路455號","source_dataset_id":"26496","source":"內政部 data.gov.tw 26496（moi_26496）","retrieved_at":"2026-10-01T18:30:28+00:00","db_updated_at":"2026-05-11T15:40:25.026227+00:00"}},{"type":"Feature","geometry":{"type":"Point","coordinates":[120.351917,22.594788]},"properties":{"plant_id":"moi:67","name":"鳳山水資源中心","county":"高雄市","address":"高雄市鳳山區保雅路100號","geocode_status":"success","geocode_quality":"ROOFTOP","geocoder":"google_maps","geocoded_formatted_address":"830台灣高雄市鳳山區保雅路100號","source_dataset_id":"26496","source":"內政部 data.gov.tw 26496（moi_26496）","retrieved_at":"2026-10-01T18:30:28+00:00","db_updated_at":"2026-05-11T15:40:25.386486+00:00"}},{"type":"Feature","geometry":{"type":"Point","coordinates":[120.43288,22.685128]},"properties":{"plant_id":"moi:68","name":"大樹污水處理廠","county":"高雄市","address":"高雄市大樹區中正一路188號","geocode_status":"success","geocode_quality":"ROOFTOP","geocoder":"google_maps","geocoded_formatted_address":"84047台灣高雄市大樹區中正一路188號","source_dataset_id":"26496","source":"內政部 data.gov.tw 26496（moi_26496）","retrieved_at":"2026-10-01T18:30:28+00:00","db_updated_at":"2026-05-11T15:40:25.722769+00:00"}},{"type":"Feature","geometry":{"type":"Point","coordinates":[120.496417,22.871746]},"properties":{"plant_id":"moi:69","name":"旗美污水處理廠","county":"高雄市","address":"高雄市旗山區旗屏一路108號","geocode_status":"success","geocode_quality":"ROOFTOP","geocoder":"google_maps","geocoded_formatted_address":"842台灣高雄市旗山區旗屏一路108號","source_dataset_id":"26496","source":"內政部 data.gov.tw 26496（moi_26496）","retrieved_at":"2026-10-01T18:30:28+00:00","db_updated_at":"2026-05-11T15:40:26.066385+00:00"}},{"type":"Feature","geometry":{"type":"Point","coordinates":[121.543954,24.876042]},"properties":{"plant_id":"moi:7","name":"烏來污水處理廠","county":"新北市","address":"新北市烏來區新烏路五段56號","geocode_status":"success","geocode_quality":"ROOFTOP","geocoder":"google_maps","geocoded_formatted_address":"233台灣新北市烏來區新烏路五段56號","source_dataset_id":"26496","source":"內政部 data.gov.tw 26496（moi_26496）","retrieved_at":"2026-10-01T18:30:28+00:00","db_updated_at":"2026-05-11T15:40:26.454453+00:00"}},{"type":"Feature","geometry":{"type":"Point","coordinates":[120.344695,22.528861]},"properties":{"plant_id":"moi:70","name":"高雄市臨海水資源中心","county":"高雄市","address":"高雄市小港區鳳北路2號","geocode_status":"success","geocode_quality":"ROOFTOP","geocoder":"google_maps","geocoded_formatted_address":"812台灣高雄市小港區鳳北路2號","source_dataset_id":"26496","source":"內政部 data.gov.tw 26496（moi_26496）","retrieved_at":"2026-10-01T18:30:28+00:00","db_updated_at":"2026-05-11T15:40:26.806279+00:00"}},{"type":"Feature","geometry":{"type":"Point","coordinates":[120.743371,21.99327]},"properties":{"plant_id":"moi:71","name":"屏東縣恆春鎮水資源回收中心","county":"屏東縣","address":"屏東縣恆春鎮恆公路73號","geocode_status":"success","geocode_quality":"ROOFTOP","geocoder":"google_maps","geocoded_formatted_address":"946台灣屏東縣恆春鎮恆公路73號","source_dataset_id":"26496","source":"內政部 data.gov.tw 26496（moi_26496）","retrieved_at":"2026-10-01T18:30:28+00:00","db_updated_at":"2026-05-11T15:40:27.142356+00:00"}},{"type":"Feature","geometry":{"type":"Point","coordinates":[120.448655,22.631258]},"properties":{"plant_id":"moi:72","name":"六塊厝污水處理廠","county":"屏東縣","address":"屏東縣屏東市大溪路11巷63號","geocode_status":"success","geocode_quality":"ROOFTOP","geocoder":"google_maps","geocoded_formatted_address":"900台灣屏东县屏东大溪路11巷63號","source_dataset_id":"26496","source":"內政部 data.gov.tw 26496（moi_26496）","retrieved_at":"2026-10-01T18:30:28+00:00","db_updated_at":"2026-05-11T15:40:27.503376+00:00"}},{"type":"Feature","geometry":{"type":"Point","coordinates":[120.561714,22.581894]},"properties":{"plant_id":"moi:73","name":"內埔鄉水資源回收中心","county":"屏東縣","address":"屏東縣內埔鄉美和村四維路1-10號","geocode_status":"success","geocode_quality":"ROOFTOP","geocoder":"google_maps","geocoded_formatted_address":"912台灣屏東縣內埔鄉四維路1-10號","source_dataset_id":"26496","source":"內政部 data.gov.tw 26496（moi_26496）","retrieved_at":"2026-10-01T18:30:28+00:00","db_updated_at":"2026-05-11T15:40:27.865562+00:00"}},{"type":"Feature","geometry":{"type":"Point","coordinates":[118.311701,24.429295]},"properties":{"plant_id":"moi:74","name":"金城水資源回收中心","county":"金門縣","address":"金門縣金城鎮民族路341號","geocode_status":"success","geocode_quality":"ROOFTOP","geocoder":"google_maps","geocoded_formatted_address":"893民族路341號","source_dataset_id":"26496","source":"內政部 data.gov.tw 26496（moi_26496）","retrieved_at":"2026-10-01T18:30:28+00:00","db_updated_at":"2026-05-11T15:40:53.146303+00:00"}},{"type":"Feature","geometry":{"type":"Point","coordinates":[118.427993,24.481109]},"properties":{"plant_id":"moi:75","name":"榮湖水資源回收中心","county":"金門縣","address":"金門縣金沙鎮山西121號","geocode_status":"success","geocode_quality":"APPROXIMATE","geocoder":"google_maps","geocoded_formatted_address":"金沙鎮","source_dataset_id":"26496","source":"內政部 data.gov.tw 26496（moi_26496）","retrieved_at":"2026-10-01T18:30:28+00:00","db_updated_at":"2026-05-11T15:40:53.458382+00:00"}},{"type":"Feature","geometry":{"type":"Point","coordinates":[118.24865,24.42757]},"properties":{"plant_id":"moi:76","name":"東林水資源回收中心","county":"金門縣","address":"金門縣烈嶼鄉東林150號","geocode_status":"success","geocode_quality":"GEOMETRIC_CENTER","geocoder":"google_maps","geocoded_formatted_address":"894東林","source_dataset_id":"26496","source":"內政部 data.gov.tw 26496（moi_26496）","retrieved_at":"2026-10-01T18:30:28+00:00","db_updated_at":"2026-05-11T15:40:53.762269+00:00"}},{"type":"Feature","geometry":{"type":"Point","coordinates":[118.426292,24.439806]},"properties":{"plant_id":"moi:77","name":"太湖水資源回收中心","county":"金門縣","address":"金門縣金湖鎮太湖2號","geocode_status":"success","geocode_quality":"GEOMETRIC_CENTER","geocoder":"google_maps","geocoded_formatted_address":"891","source_dataset_id":"26496","source":"內政部 data.gov.tw 26496（moi_26496）","retrieved_at":"2026-10-01T18:30:28+00:00","db_updated_at":"2026-05-11T15:40:54.066683+00:00"}},{"type":"Feature","geometry":{"type":"Point","coordinates":[118.386598,24.457713]},"properties":{"plant_id":"moi:78","name":"擎天水資源回收中心","county":"金門縣","address":"金門縣金湖鎮環島北路3段301號","geocode_status":"success","geocode_quality":"ROOFTOP","geocoder":"google_maps","geocoded_formatted_address":"891環島北路三段301號","source_dataset_id":"26496","source":"內政部 data.gov.tw 26496（moi_26496）","retrieved_at":"2026-10-01T18:30:28+00:00","db_updated_at":"2026-05-11T15:40:54.370351+00:00"}},{"type":"Feature","geometry":{"type":"Point","coordinates":[121.039513,22.702276]},"properties":{"plant_id":"moi:79","name":"知本水資源回收中心","county":"臺東縣","address":"臺東縣台東市青海路四段570號","geocode_status":"success","geocode_quality":"ROOFTOP","geocoder":"google_maps","geocoded_formatted_address":"950台灣臺東縣臺東市青海路四段570號","source_dataset_id":"26496","source":"內政部 data.gov.tw 26496（moi_26496）","retrieved_at":"2026-10-01T18:30:28+00:00","db_updated_at":"2026-05-11T15:40:29.972344+00:00"}},{"type":"Feature","geometry":{"type":"Point","coordinates":[121.534281,24.938634]},"properties":{"plant_id":"moi:8","name":"直潭污水處理廠","county":"新北市","address":"新北市新店區直潭十街26號","geocode_status":"success","geocode_quality":"ROOFTOP","geocoder":"google_maps","geocoded_formatted_address":"231台灣新北市新店區直潭十街26號","source_dataset_id":"26496","source":"內政部 data.gov.tw 26496（moi_26496）","retrieved_at":"2026-10-01T18:30:28+00:00","db_updated_at":"2026-05-11T15:40:30.328382+00:00"}},{"type":"Feature","geometry":{"type":"Point","coordinates":[121.146247,22.744061]},"properties":{"plant_id":"moi:80","name":"臺東市水資源回收中心","county":"臺東縣","address":"臺東縣台東市桂林南路181號","geocode_status":"success","geocode_quality":"ROOFTOP","geocoder":"google_maps","geocoded_formatted_address":"950台灣臺東縣臺東市桂林南路181號","source_dataset_id":"26496","source":"內政部 data.gov.tw 26496（moi_26496）","retrieved_at":"2026-10-01T18:30:28+00:00","db_updated_at":"2026-05-11T15:40:30.700563+00:00"}},{"type":"Feature","geometry":{"type":"Point","coordinates":[119.60429,23.55454]},"properties":{"plant_id":"moi:81","name":"雙湖園水資源回收中心","county":"澎湖縣","address":"澎湖縣馬公市菜園160號","geocode_status":"success","geocode_quality":"GEOMETRIC_CENTER","geocoder":"google_maps","geocoded_formatted_address":"880台灣澎湖縣馬公市菜園營區","source_dataset_id":"26496","source":"內政部 data.gov.tw 26496（moi_26496）","retrieved_at":"2026-10-01T18:30:28+00:00","db_updated_at":"2026-05-11T15:40:31.044588+00:00"}},{"type":"Feature","geometry":{"type":"Point","coordinates":[119.567081,23.578332]},"properties":{"plant_id":"moi:82","name":"光榮水資源回收中心","county":"澎湖縣","address":"澎湖縣馬公市民族路195號","geocode_status":"success","geocode_quality":"ROOFTOP","geocoder":"google_maps","geocoded_formatted_address":"880台灣澎湖縣馬公市民族路195號","source_dataset_id":"26496","source":"內政部 data.gov.tw 26496（moi_26496）","retrieved_at":"2026-10-01T18:30:28+00:00","db_updated_at":"2026-05-11T15:40:31.396401+00:00"}},{"type":"Feature","geometry":{"type":"Point","coordinates":[121.70058,24.935469]},"properties":{"plant_id":"moi:9","name":"坪林污水處理廠","county":"新北市","address":"新北市坪林區坪林里北宜路八段6號","geocode_status":"success","geocode_quality":"ROOFTOP","geocoder":"google_maps","geocoded_formatted_address":"232台灣新北市坪林區北宜路八段6號","source_dataset_id":"26496","source":"內政部 data.gov.tw 26496（moi_26496）","retrieved_at":"2026-10-01T18:30:28+00:00","db_updated_at":"2026-05-11T15:40:31.784514+00:00"}}]}